{
"type": "FeatureCollection",
"name": "Himayat_Sagar_OSM_boundary",
"crs": { "type": "name", "properties": { "name": "urn:ogc:def:crs:OGC:1.3:CRS84" } },
"features": [
{ "type": "Feature", "properties": { "name": "Himayat_Sagar", "osm_id": "W362966095", "osm_name": "Himayat Sagar, Moinabad mandal, Ranga Reddy, Telangana, India" }, "geometry": { "type": "Polygon", "coordinates": [ [ [ 78.3608686, 17.2817293 ], [ 78.3614274, 17.2819932 ], [ 78.3615072, 17.2826557 ], [ 78.3615181, 17.2829351 ], [ 78.3612578, 17.2829286 ], [ 78.3610383, 17.2828119 ], [ 78.3610883, 17.2824465 ], [ 78.361016, 17.2820987 ], [ 78.3608686, 17.2817293 ] ] ] } }
]
}
