{
"type": "FeatureCollection",
"name": "Himayat_Sagar_boundary",
"crs": { "type": "name", "properties": { "name": "urn:ogc:def:crs:OGC:1.3:CRS84" } },
"features": [
{ "type": "Feature", "properties": { }, "geometry": { "type": "Polygon", "coordinates": [ [ [ 78.347465819768132, 17.302360855897703 ], [ 78.347465819768132, 17.301821866727241 ], [ 78.347196325182921, 17.301821866727234 ], [ 78.347196325182921, 17.301552372141998 ], [ 78.346657336012441, 17.301552372141998 ], [ 78.346657336012441, 17.301821866727238 ], [ 78.346118346841962, 17.301821866727234 ], [ 78.346118346841962, 17.301552372141998 ], [ 78.345579357671483, 17.301552372141998 ], [ 78.345579357671483, 17.301821866727238 ], [ 78.344231884745312, 17.301821866727238 ], [ 78.344231884745312, 17.302091361312474 ], [ 78.343423400989622, 17.302091361312474 ], [ 78.343423400989622, 17.302360855897707 ], [ 78.342614917233931, 17.302360855897703 ], [ 78.342614917233931, 17.302630350482943 ], [ 78.342075928063451, 17.302630350482943 ], [ 78.342075928063451, 17.302899845068186 ], [ 78.341536938892972, 17.302899845068179 ], [ 78.341536938892972, 17.303169339653426 ], [ 78.341267444307704, 17.303169339653422 ], [ 78.341267444307704, 17.304247317994363 ], [ 78.341536938892972, 17.304247317994367 ], [ 78.341536938892972, 17.305055801750072 ], [ 78.341267444307704, 17.305055801750068 ], [ 78.341267444307704, 17.306672769261478 ], [ 78.340997949722492, 17.306672769261478 ], [ 78.340997949722492, 17.307750747602423 ], [ 78.340728455137281, 17.307750747602427 ], [ 78.340728455137281, 17.308020242187666 ], [ 78.340458960552013, 17.308020242187666 ], [ 78.340458960552013, 17.308289736772892 ], [ 78.340189465966802, 17.308289736772892 ], [ 78.340189465966802, 17.308559231358128 ], [ 78.340728455137281, 17.308559231358135 ], [ 78.340728455137281, 17.308828725943371 ], [ 78.340997949722492, 17.308828725943368 ], [ 78.340997949722492, 17.309098220528604 ], [ 78.341536938892972, 17.309098220528611 ], [ 78.341536938892972, 17.309367715113833 ], [ 78.341806433478183, 17.309367715113837 ], [ 78.341806433478183, 17.308828725943375 ], [ 78.342345422648663, 17.308828725943368 ], [ 78.342345422648663, 17.308559231358128 ], [ 78.342884411819142, 17.308559231358128 ], [ 78.342884411819142, 17.308289736772885 ], [ 78.343423400989622, 17.308289736772892 ], [ 78.343423400989622, 17.30802024218767 ], [ 78.343962390160101, 17.308020242187666 ], [ 78.343962390160101, 17.307750747602427 ], [ 78.344231884745312, 17.307750747602419 ], [ 78.344231884745312, 17.306942263846722 ], [ 78.34450137933058, 17.306942263846722 ], [ 78.34450137933058, 17.306403274676242 ], [ 78.344770873915792, 17.306403274676239 ], [ 78.344770873915792, 17.306133780091013 ], [ 78.345309863086271, 17.306133780091013 ], [ 78.345309863086271, 17.306403274676242 ], [ 78.345579357671483, 17.306403274676242 ], [ 78.345579357671483, 17.306672769261478 ], [ 78.346118346841962, 17.306672769261482 ], [ 78.346118346841962, 17.306942263846722 ], [ 78.34638784142723, 17.306942263846722 ], [ 78.34638784142723, 17.307211758431961 ], [ 78.346926830597653, 17.307211758431961 ], [ 78.346926830597653, 17.30748125301718 ], [ 78.346657336012441, 17.307481253017176 ], [ 78.346657336012441, 17.308289736772888 ], [ 78.346926830597653, 17.308289736772892 ], [ 78.346926830597653, 17.308559231358124 ], [ 78.347465819768132, 17.308559231358128 ], [ 78.347465819768132, 17.308828725943371 ], [ 78.348543798109091, 17.308828725943375 ], [ 78.348543798109091, 17.309098220528607 ], [ 78.349082787279571, 17.309098220528611 ], [ 78.349082787279571, 17.308828725943375 ], [ 78.34962177645005, 17.308828725943375 ], [ 78.34962177645005, 17.308559231358128 ], [ 78.350430260205741, 17.308559231358132 ], [ 78.350430260205741, 17.308828725943368 ], [ 78.350699754790952, 17.308828725943375 ], [ 78.350699754790952, 17.309098220528607 ], [ 78.351238743961432, 17.309098220528611 ], [ 78.351238743961432, 17.309367715113837 ], [ 78.3515082385467, 17.309367715113837 ], [ 78.3515082385467, 17.311254177210483 ], [ 78.351238743961432, 17.311254177210486 ], [ 78.351238743961432, 17.311793166380966 ], [ 78.35096924937622, 17.311793166380969 ], [ 78.35096924937622, 17.312062660966202 ], [ 78.350699754790952, 17.312062660966202 ], [ 78.350699754790952, 17.312601650136671 ], [ 78.350430260205741, 17.312601650136674 ], [ 78.350430260205741, 17.313410133892379 ], [ 78.35096924937622, 17.313410133892376 ], [ 78.35096924937622, 17.313679628477622 ], [ 78.351238743961432, 17.313679628477619 ], [ 78.351238743961432, 17.313949123062855 ], [ 78.3515082385467, 17.313949123062855 ], [ 78.3515082385467, 17.314218617648073 ], [ 78.351777733131911, 17.314218617648077 ], [ 78.351777733131911, 17.3150271014038 ], [ 78.352047227717179, 17.315027101403796 ], [ 78.352047227717179, 17.315296595989025 ], [ 78.351777733131911, 17.315296595989022 ], [ 78.351777733131911, 17.316105079744744 ], [ 78.3515082385467, 17.316105079744748 ], [ 78.3515082385467, 17.317183058085671 ], [ 78.351777733131911, 17.317183058085675 ], [ 78.351777733131911, 17.317452552670915 ], [ 78.352047227717179, 17.317452552670918 ], [ 78.352047227717179, 17.317722047256154 ], [ 78.35231672230239, 17.317722047256154 ], [ 78.35231672230239, 17.318800025597099 ], [ 78.352586216887659, 17.318800025597099 ], [ 78.352586216887659, 17.319339014767568 ], [ 78.35231672230239, 17.319339014767564 ], [ 78.35231672230239, 17.319878003938044 ], [ 78.352047227717179, 17.31987800393804 ], [ 78.352047227717179, 17.320147498523266 ], [ 78.351777733131911, 17.320147498523266 ], [ 78.351777733131911, 17.320416993108505 ], [ 78.3515082385467, 17.320416993108505 ], [ 78.3515082385467, 17.320686487693749 ], [ 78.351238743961432, 17.320686487693745 ], [ 78.351238743961432, 17.320416993108509 ], [ 78.350160765620529, 17.320416993108513 ], [ 78.350160765620529, 17.320147498523269 ], [ 78.348543798109091, 17.320147498523269 ], [ 78.348543798109091, 17.320416993108513 ], [ 78.34827430352388, 17.320416993108505 ], [ 78.34827430352388, 17.320955982278988 ], [ 78.348004808938612, 17.320955982278985 ], [ 78.348004808938612, 17.32149497144945 ], [ 78.3477353143534, 17.321494971449457 ], [ 78.3477353143534, 17.32176446603469 ], [ 78.347465819768132, 17.321764466034686 ], [ 78.347465819768132, 17.322033960619933 ], [ 78.347196325182921, 17.322033960619933 ], [ 78.347196325182921, 17.322303455205162 ], [ 78.346926830597653, 17.322303455205159 ], [ 78.346926830597653, 17.322572949790398 ], [ 78.346657336012441, 17.322572949790395 ], [ 78.346657336012441, 17.322842444375635 ], [ 78.34638784142723, 17.322842444375635 ], [ 78.34638784142723, 17.323111938960864 ], [ 78.346118346841962, 17.323111938960864 ], [ 78.346118346841962, 17.323381433546103 ], [ 78.345309863086271, 17.3233814335461 ], [ 78.345309863086271, 17.323650928131343 ], [ 78.344770873915792, 17.323650928131343 ], [ 78.344770873915792, 17.323920422716583 ], [ 78.34450137933058, 17.323920422716579 ], [ 78.34450137933058, 17.324189917301808 ], [ 78.345309863086271, 17.324189917301812 ], [ 78.345309863086271, 17.324459411887052 ], [ 78.345848852256751, 17.324459411887045 ], [ 78.345848852256751, 17.324728906472284 ], [ 78.34638784142723, 17.324728906472284 ], [ 78.34638784142723, 17.324998401057524 ], [ 78.347196325182921, 17.324998401057528 ], [ 78.347196325182921, 17.325267895642753 ], [ 78.3477353143534, 17.325267895642749 ], [ 78.3477353143534, 17.325537390227993 ], [ 78.349082787279571, 17.325537390227993 ], [ 78.349082787279571, 17.325806884813233 ], [ 78.35096924937622, 17.325806884813233 ], [ 78.35096924937622, 17.326076379398472 ], [ 78.353125206058081, 17.326076379398476 ], [ 78.353125206058081, 17.326345873983698 ], [ 78.355011668154731, 17.326345873983698 ], [ 78.355011668154731, 17.326615368568934 ], [ 78.356898130251381, 17.326615368568937 ], [ 78.356898130251381, 17.326884863154174 ], [ 78.359054086933298, 17.326884863154177 ], [ 78.359054086933298, 17.327154357739399 ], [ 78.360940549029948, 17.327154357739406 ], [ 78.360940549029948, 17.327423852324646 ], [ 78.362557516541386, 17.32742385232465 ], [ 78.362557516541386, 17.327154357739403 ], [ 78.364982967808459, 17.327154357739403 ], [ 78.364982967808459, 17.326884863154174 ], [ 78.366330440734686, 17.326884863154174 ], [ 78.366330440734686, 17.326615368568941 ], [ 78.367138924490376, 17.326615368568934 ], [ 78.367138924490376, 17.326345873983698 ], [ 78.367408419075588, 17.326345873983698 ], [ 78.367408419075588, 17.325806884813229 ], [ 78.367677913660856, 17.325806884813233 ], [ 78.367677913660856, 17.325537390227993 ], [ 78.367947408246067, 17.325537390227993 ], [ 78.367947408246067, 17.324998401057528 ], [ 78.368216902831335, 17.324998401057531 ], [ 78.368216902831335, 17.324728906472281 ], [ 78.368486397416547, 17.324728906472284 ], [ 78.368486397416547, 17.324189917301808 ], [ 78.368755892001758, 17.324189917301808 ], [ 78.368755892001758, 17.323650928131343 ], [ 78.369025386587026, 17.323650928131343 ], [ 78.369025386587026, 17.323111938960864 ], [ 78.369294881172237, 17.323111938960864 ], [ 78.369294881172237, 17.322842444375635 ], [ 78.369833870342717, 17.322842444375638 ], [ 78.369833870342717, 17.322572949790395 ], [ 78.370103364927985, 17.322572949790391 ], [ 78.370103364927985, 17.322033960619926 ], [ 78.370372859513196, 17.322033960619926 ], [ 78.370372859513196, 17.321494971449461 ], [ 78.370642354098408, 17.321494971449457 ], [ 78.370642354098408, 17.320147498523266 ], [ 78.370372859513196, 17.320147498523266 ], [ 78.370372859513196, 17.318530531011856 ], [ 78.369833870342717, 17.318530531011859 ], [ 78.369833870342717, 17.31826103642662 ], [ 78.369564375757506, 17.318261036426616 ], [ 78.369564375757506, 17.317991541841394 ], [ 78.369833870342717, 17.317991541841391 ], [ 78.369833870342717, 17.317722047256151 ], [ 78.370372859513196, 17.317722047256154 ], [ 78.370372859513196, 17.317452552670908 ], [ 78.370642354098408, 17.317452552670915 ], [ 78.370642354098408, 17.317183058085675 ], [ 78.370911848683676, 17.317183058085671 ], [ 78.370911848683676, 17.316374574329974 ], [ 78.370642354098408, 17.31637457432997 ], [ 78.370642354098408, 17.316105079744744 ], [ 78.370103364927985, 17.316105079744744 ], [ 78.370103364927985, 17.315835585159505 ], [ 78.369564375757506, 17.315835585159501 ], [ 78.369564375757506, 17.315296595989022 ], [ 78.368216902831335, 17.315296595989022 ], [ 78.368216902831335, 17.315566090574261 ], [ 78.367677913660856, 17.315566090574261 ], [ 78.367677913660856, 17.316105079744741 ], [ 78.366599935319897, 17.316105079744741 ], [ 78.366599935319897, 17.31664406891521 ], [ 78.366330440734686, 17.31664406891521 ], [ 78.366330440734686, 17.316913563500449 ], [ 78.365791451564206, 17.316913563500449 ], [ 78.365791451564206, 17.31637457432997 ], [ 78.365521956978938, 17.316374574329963 ], [ 78.365521956978938, 17.316105079744744 ], [ 78.365252462393727, 17.316105079744744 ], [ 78.365252462393727, 17.31664406891521 ], [ 78.364713473223247, 17.31664406891521 ], [ 78.364713473223247, 17.316374574329966 ], [ 78.364174484052768, 17.31637457432997 ], [ 78.364174484052768, 17.315835585159501 ], [ 78.364713473223247, 17.315835585159498 ], [ 78.364713473223247, 17.315296595989022 ], [ 78.364982967808459, 17.315296595989018 ], [ 78.364982967808459, 17.315027101403796 ], [ 78.365252462393727, 17.3150271014038 ], [ 78.365252462393727, 17.31475760681856 ], [ 78.364982967808459, 17.31475760681856 ], [ 78.364982967808459, 17.31448811223332 ], [ 78.364174484052768, 17.314488112233317 ], [ 78.364174484052768, 17.313949123062855 ], [ 78.364443978638036, 17.313949123062855 ], [ 78.364443978638036, 17.313410133892376 ], [ 78.364713473223247, 17.313410133892372 ], [ 78.364713473223247, 17.31314063930715 ], [ 78.364982967808459, 17.31314063930715 ], [ 78.364982967808459, 17.312601650136671 ], [ 78.365521956978938, 17.312601650136667 ], [ 78.365521956978938, 17.312332155551431 ], [ 78.365791451564206, 17.312332155551431 ], [ 78.365791451564206, 17.312062660966205 ], [ 78.366599935319897, 17.312062660966205 ], [ 78.366599935319897, 17.312332155551431 ], [ 78.367138924490376, 17.312332155551431 ], [ 78.367138924490376, 17.311793166380966 ], [ 78.367408419075588, 17.311793166380962 ], [ 78.367408419075588, 17.310984682625257 ], [ 78.367677913660856, 17.310984682625261 ], [ 78.367677913660856, 17.30936771511384 ], [ 78.367947408246067, 17.309367715113833 ], [ 78.367947408246067, 17.309098220528611 ], [ 78.369025386587026, 17.309098220528611 ], [ 78.369025386587026, 17.30748125301718 ], [ 78.368755892001758, 17.307481253017183 ], [ 78.368755892001758, 17.306942263846718 ], [ 78.368486397416547, 17.306942263846722 ], [ 78.368486397416547, 17.306672769261482 ], [ 78.368216902831335, 17.306672769261482 ], [ 78.368216902831335, 17.306403274676242 ], [ 78.367947408246067, 17.306403274676242 ], [ 78.367947408246067, 17.306133780091013 ], [ 78.367677913660856, 17.306133780091013 ], [ 78.367677913660856, 17.305864285505777 ], [ 78.367408419075588, 17.305864285505777 ], [ 78.367408419075588, 17.305055801750068 ], [ 78.366599935319897, 17.305055801750072 ], [ 78.366599935319897, 17.304786307164832 ], [ 78.366330440734686, 17.304786307164832 ], [ 78.366330440734686, 17.304516812579589 ], [ 78.366060946149418, 17.304516812579589 ], [ 78.366060946149418, 17.303977823409124 ], [ 78.365791451564206, 17.303977823409124 ], [ 78.365791451564206, 17.303708328823888 ], [ 78.365252462393727, 17.303708328823884 ], [ 78.365252462393727, 17.30397782340912 ], [ 78.364713473223247, 17.303977823409124 ], [ 78.364713473223247, 17.303708328823884 ], [ 78.363366000297077, 17.303708328823888 ], [ 78.363366000297077, 17.303977823409124 ], [ 78.363096505711809, 17.303977823409124 ], [ 78.363096505711809, 17.304247317994363 ], [ 78.362827011126598, 17.304247317994367 ], [ 78.362827011126598, 17.304516812579593 ], [ 78.362557516541386, 17.304516812579585 ], [ 78.362557516541386, 17.304247317994363 ], [ 78.362288021956118, 17.304247317994367 ], [ 78.362288021956118, 17.303977823409127 ], [ 78.361479538200427, 17.30397782340912 ], [ 78.361479538200427, 17.304247317994367 ], [ 78.36067105444468, 17.304247317994367 ], [ 78.36067105444468, 17.303977823409124 ], [ 78.360401559859469, 17.303977823409124 ], [ 78.360401559859469, 17.303708328823888 ], [ 78.360132065274257, 17.303708328823888 ], [ 78.360132065274257, 17.303169339653419 ], [ 78.359862570688989, 17.303169339653422 ], [ 78.359862570688989, 17.302630350482943 ], [ 78.359593076103778, 17.302630350482943 ], [ 78.359593076103778, 17.302091361312474 ], [ 78.35932358151851, 17.302091361312478 ], [ 78.35932358151851, 17.301282877556773 ], [ 78.359054086933298, 17.301282877556773 ], [ 78.359054086933298, 17.301013382971526 ], [ 78.35878459234803, 17.301013382971533 ], [ 78.35878459234803, 17.300743888386293 ], [ 78.359593076103778, 17.300743888386297 ], [ 78.359593076103778, 17.300204899215824 ], [ 78.359862570688989, 17.300204899215824 ], [ 78.359862570688989, 17.299935404630585 ], [ 78.36067105444468, 17.299935404630588 ], [ 78.36067105444468, 17.299665910045345 ], [ 78.360940549029948, 17.299665910045352 ], [ 78.360940549029948, 17.299126920874887 ], [ 78.360401559859469, 17.29912692087488 ], [ 78.360401559859469, 17.299396415460105 ], [ 78.360132065274257, 17.299396415460112 ], [ 78.360132065274257, 17.299665910045345 ], [ 78.359862570688989, 17.299665910045348 ], [ 78.359862570688989, 17.299396415460109 ], [ 78.35878459234803, 17.299396415460109 ], [ 78.35878459234803, 17.299935404630592 ], [ 78.358515097762819, 17.299935404630588 ], [ 78.358515097762819, 17.300474393801053 ], [ 78.357976108592339, 17.300474393801053 ], [ 78.357976108592339, 17.301013382971533 ], [ 78.357167624836649, 17.301013382971533 ], [ 78.357167624836649, 17.301282877556769 ], [ 78.356898130251381, 17.301282877556769 ], [ 78.356898130251381, 17.301552372141998 ], [ 78.356628635666169, 17.301552372141995 ], [ 78.356628635666169, 17.30209136131247 ], [ 78.356359141080958, 17.302091361312474 ], [ 78.356359141080958, 17.302360855897703 ], [ 78.35608964649569, 17.3023608558977 ], [ 78.35608964649569, 17.302899845068183 ], [ 78.355820151910478, 17.302899845068179 ], [ 78.355820151910478, 17.303977823409124 ], [ 78.35555065732521, 17.303977823409124 ], [ 78.35555065732521, 17.304247317994363 ], [ 78.353394700643349, 17.304247317994363 ], [ 78.353394700643349, 17.303977823409124 ], [ 78.353125206058081, 17.303977823409124 ], [ 78.353125206058081, 17.303708328823888 ], [ 78.35285571147287, 17.303708328823888 ], [ 78.35285571147287, 17.303438834238648 ], [ 78.352586216887659, 17.303438834238651 ], [ 78.352586216887659, 17.302899845068183 ], [ 78.35231672230239, 17.302899845068183 ], [ 78.35231672230239, 17.302630350482943 ], [ 78.352047227717179, 17.302630350482943 ], [ 78.352047227717179, 17.302091361312474 ], [ 78.35231672230239, 17.302091361312474 ], [ 78.35231672230239, 17.301013382971533 ], [ 78.352047227717179, 17.301013382971529 ], [ 78.352047227717179, 17.30047439380105 ], [ 78.351777733131911, 17.300474393801053 ], [ 78.351777733131911, 17.299935404630588 ], [ 78.351238743961432, 17.299935404630585 ], [ 78.351238743961432, 17.299665910045348 ], [ 78.35096924937622, 17.299665910045345 ], [ 78.35096924937622, 17.299396415460109 ], [ 78.350699754790952, 17.299396415460109 ], [ 78.350699754790952, 17.298857426289644 ], [ 78.350430260205741, 17.298857426289644 ], [ 78.350430260205741, 17.298318437119178 ], [ 78.34962177645005, 17.298318437119175 ], [ 78.34962177645005, 17.298587931704407 ], [ 78.349891271035261, 17.2985879317044 ], [ 78.349891271035261, 17.300743888386293 ], [ 78.34962177645005, 17.300743888386297 ], [ 78.34962177645005, 17.302091361312474 ], [ 78.349352281864782, 17.302091361312474 ], [ 78.349352281864782, 17.302630350482943 ], [ 78.34962177645005, 17.302630350482943 ], [ 78.34962177645005, 17.302899845068183 ], [ 78.349891271035261, 17.302899845068186 ], [ 78.349891271035261, 17.303169339653419 ], [ 78.34962177645005, 17.303169339653419 ], [ 78.34962177645005, 17.303438834238648 ], [ 78.349352281864782, 17.303438834238648 ], [ 78.349352281864782, 17.303708328823888 ], [ 78.348813292694302, 17.303708328823888 ], [ 78.348813292694302, 17.303438834238651 ], [ 78.348004808938612, 17.303438834238648 ], [ 78.348004808938612, 17.303169339653422 ], [ 78.3477353143534, 17.303169339653419 ], [ 78.3477353143534, 17.302899845068179 ], [ 78.348004808938612, 17.302899845068179 ], [ 78.348004808938612, 17.3023608558977 ], [ 78.347465819768132, 17.302360855897703 ] ], [ [ 78.347465819768132, 17.302360855897703 ], [ 78.347465819768132, 17.302899845068179 ], [ 78.346926830597653, 17.302899845068186 ], [ 78.346926830597653, 17.3023608558977 ], [ 78.347465819768132, 17.302360855897703 ] ], [ [ 78.349891271035261, 17.303169339653419 ], [ 78.350160765620529, 17.303169339653419 ], [ 78.350160765620529, 17.303438834238644 ], [ 78.349891271035261, 17.303438834238648 ], [ 78.349891271035261, 17.303169339653419 ] ], [ [ 78.364174484052768, 17.315027101403803 ], [ 78.364174484052768, 17.315296595989025 ], [ 78.364443978638036, 17.315296595989025 ], [ 78.364443978638036, 17.315566090574261 ], [ 78.363904989467557, 17.315566090574261 ], [ 78.363904989467557, 17.3150271014038 ], [ 78.364174484052768, 17.315027101403803 ] ], [ [ 78.34450137933058, 17.305864285505777 ], [ 78.34450137933058, 17.306133780091013 ], [ 78.344231884745312, 17.306133780091013 ], [ 78.344231884745312, 17.305864285505777 ], [ 78.34450137933058, 17.305864285505777 ] ] ] } }
]
}
