{"type":"FeatureCollection","features":[{"type":"Feature","geometry":{"geodesic":false,"type":"Polygon","coordinates":[[[78.33991997138153,17.31098468262526],[78.3401894659668,17.31098468262526],[78.3401894659668,17.311254177210486],[78.33991997138153,17.311254177210486],[78.33991997138153,17.31098468262526]]]},"id":"+958609+247459","properties":{"count":1,"water":1}},{"type":"Feature","geometry":{"geodesic":false,"type":"Polygon","coordinates":[[[78.34045896055201,17.309637209699076],[78.34072845513728,17.309637209699076],[78.34072845513728,17.309906704284316],[78.34099794972249,17.309906704284316],[78.34099794972249,17.310176198869556],[78.34072845513728,17.310176198869556],[78.34072845513728,17.31044569345478],[78.33991997138153,17.31044569345478],[78.33991997138153,17.310176198869556],[78.33965047679632,17.310176198869556],[78.33965047679632,17.309906704284316],[78.33991997138153,17.309906704284316],[78.33991997138153,17.309637209699076],[78.3401894659668,17.309637209699076],[78.3401894659668,17.309906704284316],[78.34045896055201,17.309906704284316],[78.34045896055201,17.309637209699076]]]},"id":"+958611+247464","properties":{"count":10,"water":1}},{"type":"Feature","geometry":{"geodesic":false,"type":"Polygon","coordinates":[[[78.34099794972249,17.247653455094834],[78.34153693889297,17.247653455094834],[78.34153693889297,17.24792294968006],[78.34099794972249,17.24792294968006],[78.34099794972249,17.247653455094834]]]},"id":"+958614+247694","properties":{"count":2,"water":1}},{"type":"Feature","geometry":{"geodesic":false,"type":"Polygon","coordinates":[[[78.34692683059765,17.298587931704404],[78.34719632518292,17.298587931704404],[78.34719632518292,17.298857426289644],[78.34692683059765,17.298857426289644],[78.34692683059765,17.298587931704404]]]},"id":"+958635+247505","properties":{"count":1,"water":1}},{"type":"Feature","geometry":{"geodesic":false,"type":"Polygon","coordinates":[[[78.34719632518292,17.299126920874883],[78.34746581976813,17.299126920874883],[78.34746581976813,17.29939641546011],[78.3477353143534,17.29939641546011],[78.3477353143534,17.29966591004535],[78.34800480893861,17.29966591004535],[78.34800480893861,17.300204899215828],[78.34827430352388,17.300204899215828],[78.34827430352388,17.300743888386293],[78.34854379810909,17.300743888386293],[78.34854379810909,17.301552372141998],[78.3488132926943,17.301552372141998],[78.3488132926943,17.302091361312478],[78.34908278727957,17.302091361312478],[78.34908278727957,17.302360855897703],[78.3488132926943,17.302360855897703],[78.3488132926943,17.302630350482943],[78.34827430352388,17.302630350482943],[78.34827430352388,17.302091361312478],[78.34800480893861,17.302091361312478],[78.34800480893861,17.300743888386293],[78.3477353143534,17.300743888386293],[78.3477353143534,17.299935404630588],[78.34746581976813,17.299935404630588],[78.34746581976813,17.29939641546011],[78.34719632518292,17.29939641546011],[78.34719632518292,17.299126920874883]]]},"id":"+958636+247503","properties":{"count":26,"water":1}},{"type":"Feature","geometry":{"geodesic":false,"type":"Polygon","coordinates":[[[78.34962177645005,17.29831843711918],[78.35043026020574,17.29831843711918],[78.35043026020574,17.298857426289644],[78.35069975479095,17.298857426289644],[78.35069975479095,17.29939641546011],[78.35096924937622,17.29939641546011],[78.35096924937622,17.29966591004535],[78.35123874396143,17.29966591004535],[78.35123874396143,17.299935404630588],[78.35177773313191,17.299935404630588],[78.35177773313191,17.300474393801053],[78.35204722771718,17.300474393801053],[78.35204722771718,17.301013382971533],[78.35231672230239,17.301013382971533],[78.35231672230239,17.302091361312478],[78.35204722771718,17.302091361312478],[78.35204722771718,17.302630350482943],[78.35231672230239,17.302630350482943],[78.35231672230239,17.302899845068183],[78.35258621688766,17.302899845068183],[78.35258621688766,17.303438834238648],[78.35285571147287,17.303438834238648],[78.35285571147287,17.303708328823888],[78.35312520605808,17.303708328823888],[78.35312520605808,17.303977823409127],[78.35339470064335,17.303977823409127],[78.35339470064335,17.304247317994367],[78.35555065732521,17.304247317994367],[78.35555065732521,17.303977823409127],[78.35582015191048,17.303977823409127],[78.35582015191048,17.302899845068183],[78.35608964649569,17.302899845068183],[78.35608964649569,17.302360855897703],[78.35635914108096,17.302360855897703],[78.35635914108096,17.302091361312478],[78.35662863566617,17.302091361312478],[78.35662863566617,17.301552372141998],[78.35689813025138,17.301552372141998],[78.35689813025138,17.301282877556773],[78.35716762483665,17.301282877556773],[78.35716762483665,17.301013382971533],[78.35797610859234,17.301013382971533],[78.35797610859234,17.300474393801053],[78.35851509776282,17.300474393801053],[78.35851509776282,17.299935404630588],[78.35878459234803,17.299935404630588],[78.35878459234803,17.29939641546011],[78.35986257068899,17.29939641546011],[78.35986257068899,17.29966591004535],[78.36013206527426,17.29966591004535],[78.36013206527426,17.29939641546011],[78.36040155985947,17.29939641546011],[78.36040155985947,17.299126920874883],[78.36094054902995,17.299126920874883],[78.36094054902995,17.29966591004535],[78.36067105444468,17.29966591004535],[78.36067105444468,17.299935404630588],[78.35986257068899,17.299935404630588],[78.35986257068899,17.300204899215828],[78.35959307610378,17.300204899215828],[78.35959307610378,17.300743888386293],[78.35878459234803,17.300743888386293],[78.35878459234803,17.301013382971533],[78.3590540869333,17.301013382971533],[78.3590540869333,17.301282877556773],[78.35932358151851,17.301282877556773],[78.35932358151851,17.302091361312478],[78.35959307610378,17.302091361312478],[78.35959307610378,17.302630350482943],[78.35986257068899,17.302630350482943],[78.35986257068899,17.303169339653422],[78.36013206527426,17.303169339653422],[78.36013206527426,17.303708328823888],[78.36040155985947,17.303708328823888],[78.36040155985947,17.303977823409127],[78.36067105444468,17.303977823409127],[78.36067105444468,17.304247317994367],[78.36147953820043,17.304247317994367],[78.36147953820043,17.303977823409127],[78.36228802195612,17.303977823409127],[78.36228802195612,17.304247317994367],[78.36255751654139,17.304247317994367],[78.36255751654139,17.304516812579593],[78.3628270111266,17.304516812579593],[78.3628270111266,17.304247317994367],[78.36309650571181,17.304247317994367],[78.36309650571181,17.303977823409127],[78.36336600029708,17.303977823409127],[78.36336600029708,17.303708328823888],[78.36471347322325,17.303708328823888],[78.36471347322325,17.303977823409127],[78.36525246239373,17.303977823409127],[78.36525246239373,17.303708328823888],[78.3657914515642,17.303708328823888],[78.3657914515642,17.303977823409127],[78.36606094614942,17.303977823409127],[78.36606094614942,17.304516812579593],[78.36633044073469,17.304516812579593],[78.36633044073469,17.304786307164832],[78.3665999353199,17.304786307164832],[78.3665999353199,17.305055801750072],[78.36740841907559,17.305055801750072],[78.36740841907559,17.305864285505777],[78.36767791366086,17.305864285505777],[78.36767791366086,17.306133780091017],[78.36794740824607,17.306133780091017],[78.36794740824607,17.306403274676242],[78.36821690283134,17.306403274676242],[78.36821690283134,17.306672769261482],[78.36848639741655,17.306672769261482],[78.36848639741655,17.30694226384672],[78.36875589200176,17.30694226384672],[78.36875589200176,17.307481253017187],[78.36902538658703,17.307481253017187],[78.36902538658703,17.30909822052861],[78.36794740824607,17.30909822052861],[78.36794740824607,17.309367715113837],[78.36767791366086,17.309367715113837],[78.36767791366086,17.31098468262526],[78.36740841907559,17.31098468262526],[78.36740841907559,17.311793166380966],[78.36713892449038,17.311793166380966],[78.36713892449038,17.31233215555143],[78.3665999353199,17.31233215555143],[78.3665999353199,17.312062660966205],[78.3657914515642,17.312062660966205],[78.3657914515642,17.31233215555143],[78.36552195697894,17.31233215555143],[78.36552195697894,17.31260165013667],[78.36498296780846,17.31260165013667],[78.36498296780846,17.31314063930715],[78.36471347322325,17.31314063930715],[78.36471347322325,17.313410133892376],[78.36444397863804,17.313410133892376],[78.36444397863804,17.313949123062855],[78.36417448405277,17.313949123062855],[78.36417448405277,17.31448811223332],[78.36498296780846,17.31448811223332],[78.36498296780846,17.31475760681856],[78.36525246239373,17.31475760681856],[78.36525246239373,17.3150271014038],[78.36498296780846,17.3150271014038],[78.36498296780846,17.315296595989025],[78.36471347322325,17.315296595989025],[78.36471347322325,17.315835585159505],[78.36417448405277,17.315835585159505],[78.36417448405277,17.31637457432997],[78.36471347322325,17.31637457432997],[78.36471347322325,17.31664406891521],[78.36525246239373,17.31664406891521],[78.36525246239373,17.316105079744744],[78.36552195697894,17.316105079744744],[78.36552195697894,17.31637457432997],[78.3657914515642,17.31637457432997],[78.3657914515642,17.31691356350045],[78.36633044073469,17.31691356350045],[78.36633044073469,17.31664406891521],[78.3665999353199,17.31664406891521],[78.3665999353199,17.316105079744744],[78.36767791366086,17.316105079744744],[78.36767791366086,17.315566090574265],[78.36821690283134,17.315566090574265],[78.36821690283134,17.315296595989025],[78.3695643757575,17.315296595989025],[78.3695643757575,17.315835585159505],[78.37010336492799,17.315835585159505],[78.37010336492799,17.316105079744744],[78.37064235409841,17.316105079744744],[78.37064235409841,17.31637457432997],[78.37091184868368,17.31637457432997],[78.37091184868368,17.317183058085675],[78.37064235409841,17.317183058085675],[78.37064235409841,17.317452552670915],[78.3703728595132,17.317452552670915],[78.3703728595132,17.317722047256154],[78.36983387034272,17.317722047256154],[78.36983387034272,17.317991541841394],[78.3695643757575,17.317991541841394],[78.3695643757575,17.31826103642662],[78.36983387034272,17.31826103642662],[78.36983387034272,17.31853053101186],[78.3703728595132,17.31853053101186],[78.3703728595132,17.32014749852327],[78.37064235409841,17.32014749852327],[78.37064235409841,17.321494971449454],[78.3703728595132,17.321494971449454],[78.3703728595132,17.322033960619933],[78.37010336492799,17.322033960619933],[78.37010336492799,17.3225729497904],[78.36983387034272,17.3225729497904],[78.36983387034272,17.322842444375638],[78.36929488117224,17.322842444375638],[78.36929488117224,17.323111938960864],[78.36902538658703,17.323111938960864],[78.36902538658703,17.323650928131343],[78.36875589200176,17.323650928131343],[78.36875589200176,17.32418991730181],[78.36848639741655,17.32418991730181],[78.36848639741655,17.324728906472288],[78.36821690283134,17.324728906472288],[78.36821690283134,17.324998401057528],[78.36794740824607,17.324998401057528],[78.36794740824607,17.325537390227993],[78.36767791366086,17.325537390227993],[78.36767791366086,17.325806884813233],[78.36740841907559,17.325806884813233],[78.36740841907559,17.326345873983698],[78.36713892449038,17.326345873983698],[78.36713892449038,17.326615368568937],[78.36633044073469,17.326615368568937],[78.36633044073469,17.326884863154177],[78.36498296780846,17.326884863154177],[78.36498296780846,17.327154357739403],[78.36255751654139,17.327154357739403],[78.36255751654139,17.327423852324642],[78.36094054902995,17.327423852324642],[78.36094054902995,17.327154357739403],[78.3590540869333,17.327154357739403],[78.3590540869333,17.326884863154177],[78.35689813025138,17.326884863154177],[78.35689813025138,17.326615368568937],[78.35501166815473,17.326615368568937],[78.35501166815473,17.326345873983698],[78.35312520605808,17.326345873983698],[78.35312520605808,17.326076379398472],[78.35096924937622,17.326076379398472],[78.35096924937622,17.325806884813233],[78.34908278727957,17.325806884813233],[78.34908278727957,17.325537390227993],[78.3477353143534,17.325537390227993],[78.3477353143534,17.325267895642753],[78.34719632518292,17.325267895642753],[78.34719632518292,17.324998401057528],[78.34638784142723,17.324998401057528],[78.34638784142723,17.324728906472288],[78.34584885225675,17.324728906472288],[78.34584885225675,17.324459411887048],[78.34530986308627,17.324459411887048],[78.34530986308627,17.32418991730181],[78.34450137933058,17.32418991730181],[78.34450137933058,17.323920422716583],[78.34477087391579,17.323920422716583],[78.34477087391579,17.323650928131343],[78.34530986308627,17.323650928131343],[78.34530986308627,17.323381433546103],[78.34611834684196,17.323381433546103],[78.34611834684196,17.323111938960864],[78.34638784142723,17.323111938960864],[78.34638784142723,17.322842444375638],[78.34665733601244,17.322842444375638],[78.34665733601244,17.3225729497904],[78.34692683059765,17.3225729497904],[78.34692683059765,17.32230345520516],[78.34719632518292,17.32230345520516],[78.34719632518292,17.322033960619933],[78.34746581976813,17.322033960619933],[78.34746581976813,17.321764466034693],[78.3477353143534,17.321764466034693],[78.3477353143534,17.321494971449454],[78.34800480893861,17.321494971449454],[78.34800480893861,17.32095598227899],[78.34827430352388,17.32095598227899],[78.34827430352388,17.32041699310851],[78.34854379810909,17.32041699310851],[78.34854379810909,17.32014749852327],[78.35016076562053,17.32014749852327],[78.35016076562053,17.32041699310851],[78.35123874396143,17.32041699310851],[78.35123874396143,17.32068648769375],[78.3515082385467,17.32068648769375],[78.3515082385467,17.32041699310851],[78.35177773313191,17.32041699310851],[78.35177773313191,17.32014749852327],[78.35204722771718,17.32014749852327],[78.35204722771718,17.319878003938044],[78.35231672230239,17.319878003938044],[78.35231672230239,17.319339014767564],[78.35258621688766,17.319339014767564],[78.35258621688766,17.3188000255971],[78.35231672230239,17.3188000255971],[78.35231672230239,17.317722047256154],[78.35204722771718,17.317722047256154],[78.35204722771718,17.317452552670915],[78.35177773313191,17.317452552670915],[78.35177773313191,17.317183058085675],[78.3515082385467,17.317183058085675],[78.3515082385467,17.316105079744744],[78.35177773313191,17.316105079744744],[78.35177773313191,17.315296595989025],[78.35204722771718,17.315296595989025],[78.35204722771718,17.3150271014038],[78.35177773313191,17.3150271014038],[78.35177773313191,17.31421861764808],[78.3515082385467,17.31421861764808],[78.3515082385467,17.313949123062855],[78.35123874396143,17.313949123062855],[78.35123874396143,17.313679628477615],[78.35096924937622,17.313679628477615],[78.35096924937622,17.313410133892376],[78.35043026020574,17.313410133892376],[78.35043026020574,17.31260165013667],[78.35069975479095,17.31260165013667],[78.35069975479095,17.312062660966205],[78.35096924937622,17.312062660966205],[78.35096924937622,17.311793166380966],[78.35123874396143,17.311793166380966],[78.35123874396143,17.311254177210486],[78.3515082385467,17.311254177210486],[78.3515082385467,17.309367715113837],[78.35123874396143,17.309367715113837],[78.35123874396143,17.30909822052861],[78.35069975479095,17.30909822052861],[78.35069975479095,17.30882872594337],[78.35043026020574,17.30882872594337],[78.35043026020574,17.30855923135813],[78.34962177645005,17.30855923135813],[78.34962177645005,17.30882872594337],[78.34908278727957,17.30882872594337],[78.34908278727957,17.30909822052861],[78.34854379810909,17.30909822052861],[78.34854379810909,17.30882872594337],[78.34746581976813,17.30882872594337],[78.34746581976813,17.30855923135813],[78.34692683059765,17.30855923135813],[78.34692683059765,17.308289736772892],[78.34665733601244,17.308289736772892],[78.34665733601244,17.307481253017187],[78.34692683059765,17.307481253017187],[78.34692683059765,17.30721175843196],[78.34638784142723,17.30721175843196],[78.34638784142723,17.30694226384672],[78.34611834684196,17.30694226384672],[78.34611834684196,17.306672769261482],[78.34557935767148,17.306672769261482],[78.34557935767148,17.306403274676242],[78.34530986308627,17.306403274676242],[78.34530986308627,17.306133780091017],[78.34477087391579,17.306133780091017],[78.34477087391579,17.306403274676242],[78.34450137933058,17.306403274676242],[78.34450137933058,17.30694226384672],[78.34423188474531,17.30694226384672],[78.34423188474531,17.307750747602427],[78.3439623901601,17.307750747602427],[78.3439623901601,17.308020242187666],[78.34342340098962,17.308020242187666],[78.34342340098962,17.308289736772892],[78.34288441181914,17.308289736772892],[78.34288441181914,17.30855923135813],[78.34234542264866,17.30855923135813],[78.34234542264866,17.30882872594337],[78.34180643347818,17.30882872594337],[78.34180643347818,17.309367715113837],[78.34153693889297,17.309367715113837],[78.34153693889297,17.30909822052861],[78.34099794972249,17.30909822052861],[78.34099794972249,17.30882872594337],[78.34072845513728,17.30882872594337],[78.34072845513728,17.30855923135813],[78.3401894659668,17.30855923135813],[78.3401894659668,17.308289736772892],[78.34045896055201,17.308289736772892],[78.34045896055201,17.308020242187666],[78.34072845513728,17.308020242187666],[78.34072845513728,17.307750747602427],[78.34099794972249,17.307750747602427],[78.34099794972249,17.306672769261482],[78.3412674443077,17.306672769261482],[78.3412674443077,17.305055801750072],[78.34153693889297,17.305055801750072],[78.34153693889297,17.304247317994367],[78.3412674443077,17.304247317994367],[78.3412674443077,17.303169339653422],[78.34153693889297,17.303169339653422],[78.34153693889297,17.302899845068183],[78.34207592806345,17.302899845068183],[78.34207592806345,17.302630350482943],[78.34261491723393,17.302630350482943],[78.34261491723393,17.302360855897703],[78.34342340098962,17.302360855897703],[78.34342340098962,17.302091361312478],[78.34423188474531,17.302091361312478],[78.34423188474531,17.301821866727238],[78.34557935767148,17.301821866727238],[78.34557935767148,17.301552372141998],[78.34611834684196,17.301552372141998],[78.34611834684196,17.301821866727238],[78.34665733601244,17.301821866727238],[78.34665733601244,17.301552372141998],[78.34719632518292,17.301552372141998],[78.34719632518292,17.301821866727238],[78.34746581976813,17.301821866727238],[78.34746581976813,17.302360855897703],[78.34800480893861,17.302360855897703],[78.34800480893861,17.302899845068183],[78.3477353143534,17.302899845068183],[78.3477353143534,17.303169339653422],[78.34800480893861,17.303169339653422],[78.34800480893861,17.303438834238648],[78.3488132926943,17.303438834238648],[78.3488132926943,17.303708328823888],[78.34935228186478,17.303708328823888],[78.34935228186478,17.303438834238648],[78.34962177645005,17.303438834238648],[78.34962177645005,17.303169339653422],[78.34989127103526,17.303169339653422],[78.34989127103526,17.302899845068183],[78.34962177645005,17.302899845068183],[78.34962177645005,17.302630350482943],[78.34935228186478,17.302630350482943],[78.34935228186478,17.302091361312478],[78.34962177645005,17.302091361312478],[78.34962177645005,17.300743888386293],[78.34989127103526,17.300743888386293],[78.34989127103526,17.298587931704404],[78.34962177645005,17.298587931704404],[78.34962177645005,17.29831843711918]],[[78.36417448405277,17.3150271014038],[78.36417448405277,17.315296595989025],[78.36444397863804,17.315296595989025],[78.36444397863804,17.315566090574265],[78.36390498946756,17.315566090574265],[78.36390498946756,17.3150271014038],[78.36417448405277,17.3150271014038]],[[78.34450137933058,17.305864285505777],[78.34450137933058,17.306133780091017],[78.34423188474531,17.306133780091017],[78.34423188474531,17.305864285505777],[78.34450137933058,17.305864285505777]],[[78.35016076562053,17.303169339653422],[78.35016076562053,17.303438834238648],[78.34989127103526,17.303438834238648],[78.34989127103526,17.303169339653422],[78.35016076562053,17.303169339653422]],[[78.34746581976813,17.302360855897703],[78.34746581976813,17.302899845068183],[78.34692683059765,17.302899845068183],[78.34692683059765,17.302360855897703],[78.34746581976813,17.302360855897703]]]},"id":"+958647+247506","properties":{"count":6679,"water":1}},{"type":"Feature","geometry":{"geodesic":false,"type":"Polygon","coordinates":[[[78.36983387034272,17.306672769261482],[78.37010336492799,17.306672769261482],[78.37010336492799,17.30721175843196],[78.37064235409841,17.30721175843196],[78.37064235409841,17.307481253017187],[78.37118134326889,17.307481253017187],[78.37118134326889,17.307750747602427],[78.37064235409841,17.307750747602427],[78.37064235409841,17.308020242187666],[78.3703728595132,17.308020242187666],[78.3703728595132,17.30855923135813],[78.37010336492799,17.30855923135813],[78.37010336492799,17.30909822052861],[78.36983387034272,17.30909822052861],[78.36983387034272,17.309367715113837],[78.36929488117224,17.309367715113837],[78.36929488117224,17.30721175843196],[78.3695643757575,17.30721175843196],[78.3695643757575,17.30694226384672],[78.36983387034272,17.30694226384672],[78.36983387034272,17.306672769261482]]]},"id":"+958720+247475","properties":{"count":36,"water":1}},{"type":"Feature","geometry":{"geodesic":false,"type":"Polygon","coordinates":[[[78.37980516999644,17.302360855897703],[78.38007466458171,17.302360855897703],[78.38007466458171,17.303169339653422],[78.37980516999644,17.303169339653422],[78.37980516999644,17.302360855897703]]]},"id":"+958757+247491","properties":{"count":3,"water":1}},{"type":"Feature","geometry":{"geodesic":false,"type":"Polygon","coordinates":[[[78.38438657794543,17.254390819725728],[78.3846560725307,17.254390819725728],[78.3846560725307,17.254660314310968],[78.38492556711591,17.254660314310968],[78.38492556711591,17.255199303481433],[78.38519506170118,17.255199303481433],[78.38519506170118,17.255468798066673],[78.38627304004214,17.255468798066673],[78.38627304004214,17.255738292651913],[78.38681202921256,17.255738292651913],[78.38681202921256,17.255468798066673],[78.38708152379783,17.255468798066673],[78.38708152379783,17.256007787237138],[78.38681202921256,17.256007787237138],[78.38681202921256,17.256277281822378],[78.38654253462735,17.256277281822378],[78.38654253462735,17.256546776407617],[78.38627304004214,17.256546776407617],[78.38627304004214,17.257085765578083],[78.38573405087166,17.257085765578083],[78.38573405087166,17.257624754748562],[78.3854645562864,17.257624754748562],[78.3854645562864,17.257355260163322],[78.38519506170118,17.257355260163322],[78.38519506170118,17.256277281822378],[78.38492556711591,17.256277281822378],[78.38492556711591,17.255738292651913],[78.3846560725307,17.255738292651913],[78.3846560725307,17.255468798066673],[78.38438657794543,17.255468798066673],[78.38438657794543,17.254390819725728]]]},"id":"+958774+247669","properties":{"count":46,"water":1}},{"type":"Feature","geometry":{"geodesic":false,"type":"Polygon","coordinates":[[[78.38519506170118,17.258163743919027],[78.3854645562864,17.258163743919027],[78.3854645562864,17.258433238504267],[78.38519506170118,17.258433238504267],[78.38519506170118,17.258163743919027]]]},"id":"+958777+247655","properties":{"count":1,"water":1}},{"type":"Feature","geometry":{"geodesic":false,"type":"Polygon","coordinates":[[[78.38573405087166,17.25412132514049],[78.38600354545687,17.25412132514049],[78.38600354545687,17.254929808896193],[78.3854645562864,17.254929808896193],[78.3854645562864,17.254660314310968],[78.38573405087166,17.254660314310968],[78.38573405087166,17.25412132514049]]]},"id":"+958779+247670","properties":{"count":4,"water":1}}]}