{"type":"FeatureCollection","features":[{"type":"Feature","geometry":{"geodesic":false,"type":"Polygon","coordinates":[[[78.33991997138153,17.31098468262526],[78.3401894659668,17.31098468262526],[78.3401894659668,17.311254177210486],[78.33991997138153,17.311254177210486],[78.33991997138153,17.31098468262526]]]},"id":"+958609+247459","properties":{"count":1,"water":1}},{"type":"Feature","geometry":{"geodesic":false,"type":"Polygon","coordinates":[[[78.34045896055201,17.309637209699076],[78.34072845513728,17.309637209699076],[78.34072845513728,17.309906704284316],[78.34099794972249,17.309906704284316],[78.34099794972249,17.310176198869556],[78.34072845513728,17.310176198869556],[78.34072845513728,17.31044569345478],[78.33991997138153,17.31044569345478],[78.33991997138153,17.310176198869556],[78.33965047679632,17.310176198869556],[78.33965047679632,17.309906704284316],[78.33991997138153,17.309906704284316],[78.33991997138153,17.309637209699076],[78.3401894659668,17.309637209699076],[78.3401894659668,17.309906704284316],[78.34045896055201,17.309906704284316],[78.34045896055201,17.309637209699076]]]},"id":"+958611+247464","properties":{"count":10,"water":1}},{"type":"Feature","geometry":{"geodesic":false,"type":"Polygon","coordinates":[[[78.34153693889297,17.30882872594337],[78.34180643347818,17.30882872594337],[78.34180643347818,17.309367715113837],[78.34153693889297,17.309367715113837],[78.34153693889297,17.30882872594337]]]},"id":"+958615+247467","properties":{"count":2,"water":1}},{"type":"Feature","geometry":{"geodesic":false,"type":"Polygon","coordinates":[[[78.34800480893861,17.307750747602427],[78.35069975479095,17.307750747602427],[78.35069975479095,17.308020242187666],[78.35312520605808,17.308020242187666],[78.35312520605808,17.308289736772892],[78.35555065732521,17.308289736772892],[78.35555065732521,17.30855923135813],[78.35743711942186,17.30855923135813],[78.35743711942186,17.30882872594337],[78.35797610859234,17.30882872594337],[78.35797610859234,17.30909822052861],[78.35878459234803,17.30909822052861],[78.35878459234803,17.309367715113837],[78.35932358151851,17.309367715113837],[78.35932358151851,17.309637209699076],[78.36013206527426,17.309637209699076],[78.36013206527426,17.309906704284316],[78.36067105444468,17.309906704284316],[78.36067105444468,17.310176198869556],[78.36147953820043,17.310176198869556],[78.36147953820043,17.31044569345478],[78.3620185273709,17.31044569345478],[78.3620185273709,17.31071518804002],[78.3628270111266,17.31071518804002],[78.3628270111266,17.31098468262526],[78.36336600029708,17.31098468262526],[78.36336600029708,17.311254177210486],[78.36417448405277,17.311254177210486],[78.36417448405277,17.311523671795726],[78.36444397863804,17.311523671795726],[78.36444397863804,17.311793166380966],[78.36498296780846,17.311793166380966],[78.36498296780846,17.312062660966205],[78.36525246239373,17.312062660966205],[78.36525246239373,17.31233215555143],[78.36552195697894,17.31233215555143],[78.36552195697894,17.31260165013667],[78.36498296780846,17.31260165013667],[78.36498296780846,17.31314063930715],[78.36471347322325,17.31314063930715],[78.36471347322325,17.313410133892376],[78.36444397863804,17.313410133892376],[78.36444397863804,17.313949123062855],[78.36417448405277,17.313949123062855],[78.36417448405277,17.31448811223332],[78.36498296780846,17.31448811223332],[78.36498296780846,17.31475760681856],[78.36525246239373,17.31475760681856],[78.36525246239373,17.3150271014038],[78.36498296780846,17.3150271014038],[78.36498296780846,17.315296595989025],[78.36471347322325,17.315296595989025],[78.36471347322325,17.315835585159505],[78.36417448405277,17.315835585159505],[78.36417448405277,17.31637457432997],[78.36471347322325,17.31637457432997],[78.36471347322325,17.31664406891521],[78.36525246239373,17.31664406891521],[78.36525246239373,17.316105079744744],[78.36552195697894,17.316105079744744],[78.36552195697894,17.31637457432997],[78.3657914515642,17.31637457432997],[78.3657914515642,17.31691356350045],[78.36633044073469,17.31691356350045],[78.36633044073469,17.31664406891521],[78.3665999353199,17.31664406891521],[78.3665999353199,17.316105079744744],[78.36767791366086,17.316105079744744],[78.36767791366086,17.315566090574265],[78.36821690283134,17.315566090574265],[78.36821690283134,17.315296595989025],[78.3695643757575,17.315296595989025],[78.3695643757575,17.315835585159505],[78.37010336492799,17.315835585159505],[78.37010336492799,17.316105079744744],[78.37064235409841,17.316105079744744],[78.37064235409841,17.31664406891521],[78.37091184868368,17.31664406891521],[78.37091184868368,17.317183058085675],[78.37064235409841,17.317183058085675],[78.37064235409841,17.317452552670915],[78.3703728595132,17.317452552670915],[78.3703728595132,17.317722047256154],[78.36983387034272,17.317722047256154],[78.36983387034272,17.317991541841394],[78.3695643757575,17.317991541841394],[78.3695643757575,17.31826103642662],[78.36983387034272,17.31826103642662],[78.36983387034272,17.31853053101186],[78.3703728595132,17.31853053101186],[78.3703728595132,17.32014749852327],[78.37064235409841,17.32014749852327],[78.37064235409841,17.321494971449454],[78.3703728595132,17.321494971449454],[78.3703728595132,17.322033960619933],[78.37010336492799,17.322033960619933],[78.37010336492799,17.3225729497904],[78.36983387034272,17.3225729497904],[78.36983387034272,17.322842444375638],[78.36929488117224,17.322842444375638],[78.36929488117224,17.323111938960864],[78.36902538658703,17.323111938960864],[78.36902538658703,17.323650928131343],[78.36875589200176,17.323650928131343],[78.36875589200176,17.32418991730181],[78.36848639741655,17.32418991730181],[78.36848639741655,17.324728906472288],[78.36821690283134,17.324728906472288],[78.36821690283134,17.324998401057528],[78.36794740824607,17.324998401057528],[78.36794740824607,17.325537390227993],[78.36767791366086,17.325537390227993],[78.36767791366086,17.325806884813233],[78.36740841907559,17.325806884813233],[78.36740841907559,17.326345873983698],[78.36713892449038,17.326345873983698],[78.36713892449038,17.326884863154177],[78.36686942990511,17.326884863154177],[78.36686942990511,17.327154357739403],[78.3665999353199,17.327154357739403],[78.3665999353199,17.327693346909882],[78.36633044073469,17.327693346909882],[78.36633044073469,17.328232336080347],[78.36606094614942,17.328232336080347],[78.36606094614942,17.328501830665587],[78.3657914515642,17.328501830665587],[78.3657914515642,17.329040819836067],[78.36525246239373,17.329040819836067],[78.36525246239373,17.329310314421292],[78.36498296780846,17.329310314421292],[78.36498296780846,17.329579809006532],[78.36471347322325,17.329579809006532],[78.36471347322325,17.32984930359177],[78.36444397863804,17.32984930359177],[78.36444397863804,17.330388292762237],[78.36417448405277,17.330388292762237],[78.36417448405277,17.330657787347477],[78.36390498946756,17.330657787347477],[78.36390498946756,17.32984930359177],[78.36336600029708,17.32984930359177],[78.36336600029708,17.330118798176997],[78.36309650571181,17.330118798176997],[78.36309650571181,17.330388292762237],[78.3628270111266,17.330388292762237],[78.3628270111266,17.330927281932716],[78.36255751654139,17.330927281932716],[78.36255751654139,17.332274754858886],[78.3620185273709,17.332274754858886],[78.3620185273709,17.332544249444126],[78.36040155985947,17.332544249444126],[78.36040155985947,17.33362222778507],[78.36067105444468,17.33362222778507],[78.36067105444468,17.33389172237031],[78.36121004361516,17.33389172237031],[78.36121004361516,17.334430711540776],[78.36094054902995,17.334430711540776],[78.36094054902995,17.334700206126016],[78.36067105444468,17.334700206126016],[78.36067105444468,17.334969700711255],[78.36013206527426,17.334969700711255],[78.36013206527426,17.33523919529648],[78.35959307610378,17.33523919529648],[78.35959307610378,17.33550868988172],[78.35932358151851,17.33550868988172],[78.35932358151851,17.33577818446696],[78.3590540869333,17.33577818446696],[78.3590540869333,17.336047679052186],[78.35878459234803,17.336047679052186],[78.35878459234803,17.336586668222665],[78.3590540869333,17.336586668222665],[78.3590540869333,17.33739515197837],[78.35824560317761,17.33739515197837],[78.35824560317761,17.33793414114885],[78.35851509776282,17.33793414114885],[78.35851509776282,17.33766464656361],[78.35878459234803,17.33766464656361],[78.35878459234803,17.33793414114885],[78.35851509776282,17.33793414114885],[78.35851509776282,17.338203635734075],[78.35824560317761,17.338203635734075],[78.35824560317761,17.338473130319315],[78.35797610859234,17.338473130319315],[78.35797610859234,17.33928161407502],[78.35770661400713,17.33928161407502],[78.35770661400713,17.33955110866026],[78.35716762483665,17.33955110866026],[78.35716762483665,17.33928161407502],[78.35608964649569,17.33928161407502],[78.35608964649569,17.340359592415965],[78.35635914108096,17.340359592415965],[78.35635914108096,17.340898581586444],[78.35608964649569,17.340898581586444],[78.35608964649569,17.34116807617167],[78.35555065732521,17.34116807617167],[78.35555065732521,17.34170706534215],[78.35528116274,17.34170706534215],[78.35528116274,17.342246054512614],[78.35501166815473,17.342246054512614],[78.35501166815473,17.34116807617167],[78.35474217356952,17.34116807617167],[78.35474217356952,17.340359592415965],[78.35447267898431,17.340359592415965],[78.35447267898431,17.340090097830725],[78.35474217356952,17.340090097830725],[78.35474217356952,17.3398206032455],[78.35393368981383,17.3398206032455],[78.35393368981383,17.340090097830725],[78.35366419522856,17.340090097830725],[78.35366419522856,17.340629087001204],[78.35339470064335,17.340629087001204],[78.35339470064335,17.34116807617167],[78.35312520605808,17.34116807617167],[78.35312520605808,17.340898581586444],[78.35285571147287,17.340898581586444],[78.35285571147287,17.340629087001204],[78.35339470064335,17.340629087001204],[78.35339470064335,17.3398206032455],[78.35312520605808,17.3398206032455],[78.35312520605808,17.33955110866026],[78.35231672230239,17.33955110866026],[78.35231672230239,17.3398206032455],[78.35204722771718,17.3398206032455],[78.35204722771718,17.340090097830725],[78.35231672230239,17.340090097830725],[78.35231672230239,17.340898581586444],[78.35204722771718,17.340898581586444],[78.35204722771718,17.340629087001204],[78.35123874396143,17.340629087001204],[78.35123874396143,17.340359592415965],[78.35043026020574,17.340359592415965],[78.35043026020574,17.340629087001204],[78.34989127103526,17.340629087001204],[78.34989127103526,17.340359592415965],[78.34962177645005,17.340359592415965],[78.34962177645005,17.340090097830725],[78.34935228186478,17.340090097830725],[78.34935228186478,17.33955110866026],[78.34962177645005,17.33955110866026],[78.34962177645005,17.33928161407502],[78.35016076562053,17.33928161407502],[78.35016076562053,17.33901211948978],[78.35069975479095,17.33901211948978],[78.35069975479095,17.338742624904555],[78.35096924937622,17.338742624904555],[78.35096924937622,17.338473130319315],[78.35123874396143,17.338473130319315],[78.35123874396143,17.336856162807905],[78.35231672230239,17.336856162807905],[78.35231672230239,17.336586668222665],[78.35285571147287,17.336586668222665],[78.35285571147287,17.336317173637426],[78.35339470064335,17.336317173637426],[78.35339470064335,17.33577818446696],[78.35366419522856,17.33577818446696],[78.35366419522856,17.33550868988172],[78.35393368981383,17.33550868988172],[78.35393368981383,17.33523919529648],[78.35420318439904,17.33523919529648],[78.35420318439904,17.334969700711255],[78.35447267898431,17.334969700711255],[78.35447267898431,17.334430711540776],[78.35474217356952,17.334430711540776],[78.35474217356952,17.33389172237031],[78.35501166815473,17.33389172237031],[78.35501166815473,17.33335273319983],[78.35447267898431,17.33335273319983],[78.35447267898431,17.33308323861459],[78.35420318439904,17.33308323861459],[78.35420318439904,17.332813744029366],[78.35393368981383,17.332813744029366],[78.35393368981383,17.332544249444126],[78.35366419522856,17.332544249444126],[78.35366419522856,17.33200526027366],[78.35339470064335,17.33200526027366],[78.35339470064335,17.33119677651794],[78.35366419522856,17.33119677651794],[78.35366419522856,17.330657787347477],[78.35420318439904,17.330657787347477],[78.35420318439904,17.330118798176997],[78.35447267898431,17.330118798176997],[78.35447267898431,17.329579809006532],[78.35420318439904,17.329579809006532],[78.35420318439904,17.329310314421292],[78.35231672230239,17.329310314421292],[78.35231672230239,17.329579809006532],[78.35096924937622,17.329579809006532],[78.35096924937622,17.329310314421292],[78.35069975479095,17.329310314421292],[78.35069975479095,17.329040819836067],[78.35043026020574,17.329040819836067],[78.35043026020574,17.328501830665587],[78.34989127103526,17.328501830665587],[78.34989127103526,17.328232336080347],[78.34962177645005,17.328232336080347],[78.34962177645005,17.327962841495122],[78.34935228186478,17.327962841495122],[78.34935228186478,17.327423852324642],[78.34908278727957,17.327423852324642],[78.34908278727957,17.327154357739403],[78.3488132926943,17.327154357739403],[78.3488132926943,17.326884863154177],[78.34854379810909,17.326884863154177],[78.34854379810909,17.326615368568937],[78.34827430352388,17.326615368568937],[78.34827430352388,17.326345873983698],[78.34800480893861,17.326345873983698],[78.34800480893861,17.326076379398472],[78.34746581976813,17.326076379398472],[78.34746581976813,17.325806884813233],[78.34692683059765,17.325806884813233],[78.34692683059765,17.326076379398472],[78.34611834684196,17.326076379398472],[78.34611834684196,17.326345873983698],[78.34584885225675,17.326345873983698],[78.34584885225675,17.326884863154177],[78.34557935767148,17.326884863154177],[78.34557935767148,17.327154357739403],[78.345040368501,17.327154357739403],[78.345040368501,17.327423852324642],[78.34477087391579,17.327423852324642],[78.34477087391579,17.327693346909882],[78.34423188474531,17.327693346909882],[78.34423188474531,17.327423852324642],[78.3439623901601,17.327423852324642],[78.3439623901601,17.327154357739403],[78.34369289557483,17.327154357739403],[78.34369289557483,17.326615368568937],[78.34315390640435,17.326615368568937],[78.34315390640435,17.326345873983698],[78.34369289557483,17.326345873983698],[78.34369289557483,17.326076379398472],[78.3439623901601,17.326076379398472],[78.3439623901601,17.325806884813233],[78.34423188474531,17.325806884813233],[78.34423188474531,17.324998401057528],[78.34450137933058,17.324998401057528],[78.34450137933058,17.323920422716583],[78.34477087391579,17.323920422716583],[78.34477087391579,17.323650928131343],[78.34530986308627,17.323650928131343],[78.34530986308627,17.323381433546103],[78.34611834684196,17.323381433546103],[78.34611834684196,17.323111938960864],[78.34638784142723,17.323111938960864],[78.34638784142723,17.322842444375638],[78.34665733601244,17.322842444375638],[78.34665733601244,17.3225729497904],[78.34692683059765,17.3225729497904],[78.34692683059765,17.32230345520516],[78.34719632518292,17.32230345520516],[78.34719632518292,17.322033960619933],[78.34746581976813,17.322033960619933],[78.34746581976813,17.321764466034693],[78.3477353143534,17.321764466034693],[78.3477353143534,17.321494971449454],[78.34800480893861,17.321494971449454],[78.34800480893861,17.32095598227899],[78.34827430352388,17.32095598227899],[78.34827430352388,17.32041699310851],[78.34854379810909,17.32041699310851],[78.34854379810909,17.32014749852327],[78.35016076562053,17.32014749852327],[78.35016076562053,17.32041699310851],[78.35123874396143,17.32041699310851],[78.35123874396143,17.32068648769375],[78.3515082385467,17.32068648769375],[78.3515082385467,17.32041699310851],[78.35177773313191,17.32041699310851],[78.35177773313191,17.32014749852327],[78.35204722771718,17.32014749852327],[78.35204722771718,17.319878003938044],[78.35231672230239,17.319878003938044],[78.35231672230239,17.319339014767564],[78.35258621688766,17.319339014767564],[78.35258621688766,17.3188000255971],[78.35231672230239,17.3188000255971],[78.35231672230239,17.317722047256154],[78.35204722771718,17.317722047256154],[78.35204722771718,17.317452552670915],[78.35177773313191,17.317452552670915],[78.35177773313191,17.317183058085675],[78.3515082385467,17.317183058085675],[78.3515082385467,17.316105079744744],[78.35177773313191,17.316105079744744],[78.35177773313191,17.315296595989025],[78.35204722771718,17.315296595989025],[78.35204722771718,17.3150271014038],[78.35177773313191,17.3150271014038],[78.35177773313191,17.31421861764808],[78.3515082385467,17.31421861764808],[78.3515082385467,17.313949123062855],[78.35123874396143,17.313949123062855],[78.35123874396143,17.313679628477615],[78.35096924937622,17.313679628477615],[78.35096924937622,17.313410133892376],[78.35043026020574,17.313410133892376],[78.35043026020574,17.31260165013667],[78.35069975479095,17.31260165013667],[78.35069975479095,17.312062660966205],[78.35096924937622,17.312062660966205],[78.35096924937622,17.311793166380966],[78.35123874396143,17.311793166380966],[78.35123874396143,17.311254177210486],[78.3515082385467,17.311254177210486],[78.3515082385467,17.309367715113837],[78.35123874396143,17.309367715113837],[78.35123874396143,17.30909822052861],[78.35069975479095,17.30909822052861],[78.35069975479095,17.30882872594337],[78.35043026020574,17.30882872594337],[78.35043026020574,17.30855923135813],[78.34962177645005,17.30855923135813],[78.34962177645005,17.30882872594337],[78.34908278727957,17.30882872594337],[78.34908278727957,17.30909822052861],[78.34854379810909,17.30909822052861],[78.34854379810909,17.30882872594337],[78.34746581976813,17.30882872594337],[78.34746581976813,17.30855923135813],[78.34692683059765,17.30855923135813],[78.34692683059765,17.308289736772892],[78.34665733601244,17.308289736772892],[78.34665733601244,17.308020242187666],[78.34800480893861,17.308020242187666],[78.34800480893861,17.307750747602427]],[[78.35555065732521,17.3398206032455],[78.35555065732521,17.340090097830725],[78.35528116274,17.340090097830725],[78.35528116274,17.3398206032455],[78.35555065732521,17.3398206032455]],[[78.36417448405277,17.3150271014038],[78.36417448405277,17.315296595989025],[78.36444397863804,17.315296595989025],[78.36444397863804,17.315566090574265],[78.36390498946756,17.315566090574265],[78.36390498946756,17.3150271014038],[78.36417448405277,17.3150271014038]]]},"id":"+958648+247471","properties":{"count":6159,"water":1}},{"type":"Feature","geometry":{"geodesic":false,"type":"Polygon","coordinates":[[[78.35447267898431,17.342515549097854],[78.35474217356952,17.342515549097854],[78.35474217356952,17.342785043683094],[78.35447267898431,17.342785043683094],[78.35447267898431,17.342515549097854]]]},"id":"+958663+247342","properties":{"count":1,"water":1}},{"type":"Feature","geometry":{"geodesic":false,"type":"Polygon","coordinates":[[[78.35582015191048,17.34170706534215],[78.35608964649569,17.34170706534215],[78.35608964649569,17.341976559927375],[78.35582015191048,17.341976559927375],[78.35582015191048,17.34170706534215]]]},"id":"+958668+247345","properties":{"count":1,"water":1}}]}