{
"type": "FeatureCollection",
"name": "Osman_Sagar_boundary",
"crs": { "type": "name", "properties": { "name": "urn:ogc:def:crs:OGC:1.3:CRS84" } },
"features": [
{ "type": "Feature", "properties": { }, "geometry": { "type": "MultiPolygon", "coordinates": [ [ [ [ 78.277936216777306, 17.389407606928884 ], [ 78.278205711362517, 17.389407606928884 ], [ 78.278205711362517, 17.389946596099364 ], [ 78.279553184288687, 17.389946596099364 ], [ 78.279553184288687, 17.389677101514124 ], [ 78.279822678873956, 17.389677101514124 ], [ 78.279822678873956, 17.388868617758419 ], [ 78.279553184288687, 17.388868617758419 ], [ 78.279553184288687, 17.388599123173179 ], [ 78.279822678873956, 17.388599123173179 ], [ 78.279822678873956, 17.388329628587954 ], [ 78.280361668044435, 17.388329628587954 ], [ 78.280361668044435, 17.388060134002714 ], [ 78.280631162629646, 17.388060134002714 ], [ 78.280631162629646, 17.387790639417474 ], [ 78.281709140970605, 17.387790639417474 ], [ 78.281709140970605, 17.38671266107653 ], [ 78.281978635555816, 17.38671266107653 ], [ 78.281978635555816, 17.38644316649129 ], [ 78.282248130141085, 17.38644316649129 ], [ 78.282248130141085, 17.385365188150359 ], [ 78.282517624726296, 17.385365188150359 ], [ 78.282517624726296, 17.38509569356512 ], [ 78.282787119311564, 17.38509569356512 ], [ 78.282787119311564, 17.38482619897988 ], [ 78.283595603067255, 17.38482619897988 ], [ 78.283595603067255, 17.38455670439464 ], [ 78.284134592237734, 17.38455670439464 ], [ 78.284134592237734, 17.384287209809415 ], [ 78.284673581408214, 17.384287209809415 ], [ 78.284673581408214, 17.384017715224175 ], [ 78.285212570578693, 17.384017715224175 ], [ 78.285212570578693, 17.383748220638935 ], [ 78.286560043504863, 17.383748220638935 ], [ 78.286560043504863, 17.383478726053696 ], [ 78.287099032675343, 17.383478726053696 ], [ 78.287099032675343, 17.38320923146847 ], [ 78.287907516431034, 17.38320923146847 ], [ 78.287907516431034, 17.38293973688323 ], [ 78.288446505601513, 17.38293973688323 ], [ 78.288446505601513, 17.382670242297991 ], [ 78.289254989357204, 17.382670242297991 ], [ 78.289254989357204, 17.38293973688323 ], [ 78.289793978527683, 17.38293973688323 ], [ 78.289793978527683, 17.38320923146847 ], [ 78.290063473112895, 17.38320923146847 ], [ 78.290063473112895, 17.383478726053696 ], [ 78.290602462283374, 17.383478726053696 ], [ 78.290602462283374, 17.384017715224175 ], [ 78.290871956868642, 17.384017715224175 ], [ 78.290871956868642, 17.38455670439464 ], [ 78.291949935209544, 17.38455670439464 ], [ 78.291949935209544, 17.38482619897988 ], [ 78.293297408135771, 17.38482619897988 ], [ 78.293297408135771, 17.38455670439464 ], [ 78.294914375647153, 17.38455670439464 ], [ 78.294914375647153, 17.38482619897988 ], [ 78.296261848573323, 17.38482619897988 ], [ 78.296261848573323, 17.38455670439464 ], [ 78.296531343158591, 17.38455670439464 ], [ 78.296531343158591, 17.384287209809415 ], [ 78.296800837743803, 17.384287209809415 ], [ 78.296800837743803, 17.38455670439464 ], [ 78.297070332329071, 17.38455670439464 ], [ 78.297070332329071, 17.38482619897988 ], [ 78.297339826914282, 17.38482619897988 ], [ 78.297339826914282, 17.38644316649129 ], [ 78.297070332329071, 17.38644316649129 ], [ 78.297070332329071, 17.38671266107653 ], [ 78.296800837743803, 17.38671266107653 ], [ 78.296800837743803, 17.387251650247009 ], [ 78.296531343158591, 17.387251650247009 ], [ 78.296531343158591, 17.387521144832235 ], [ 78.296261848573323, 17.387521144832235 ], [ 78.296261848573323, 17.387790639417474 ], [ 78.295992353988112, 17.387790639417474 ], [ 78.295992353988112, 17.388060134002714 ], [ 78.295722859402844, 17.388060134002714 ], [ 78.295722859402844, 17.388329628587954 ], [ 78.295453364817632, 17.388329628587954 ], [ 78.295453364817632, 17.388599123173179 ], [ 78.295183870232421, 17.388599123173179 ], [ 78.295183870232421, 17.388868617758419 ], [ 78.294914375647153, 17.388868617758419 ], [ 78.294914375647153, 17.389138112343659 ], [ 78.294644881061942, 17.389138112343659 ], [ 78.294644881061942, 17.389407606928884 ], [ 78.294375386476673, 17.389407606928884 ], [ 78.294375386476673, 17.390216090684604 ], [ 78.293836397306194, 17.390216090684604 ], [ 78.293836397306194, 17.391563563610774 ], [ 78.293566902720983, 17.391563563610774 ], [ 78.293566902720983, 17.393180531122198 ], [ 78.293297408135771, 17.393180531122198 ], [ 78.293297408135771, 17.393719520292663 ], [ 78.293027913550503, 17.393719520292663 ], [ 78.293027913550503, 17.394258509463143 ], [ 78.292758418965292, 17.394258509463143 ], [ 78.292758418965292, 17.394528004048368 ], [ 78.292488924380024, 17.394528004048368 ], [ 78.292488924380024, 17.395066993218848 ], [ 78.293027913550503, 17.395066993218848 ], [ 78.293027913550503, 17.395336487804087 ], [ 78.294644881061942, 17.395336487804087 ], [ 78.294644881061942, 17.395066993218848 ], [ 78.295183870232421, 17.395066993218848 ], [ 78.295183870232421, 17.394797498633608 ], [ 78.296261848573323, 17.394797498633608 ], [ 78.296261848573323, 17.394528004048368 ], [ 78.296531343158591, 17.394528004048368 ], [ 78.296531343158591, 17.394258509463143 ], [ 78.296800837743803, 17.394258509463143 ], [ 78.296800837743803, 17.393989014877903 ], [ 78.297070332329071, 17.393989014877903 ], [ 78.297070332329071, 17.393719520292663 ], [ 78.297339826914282, 17.393719520292663 ], [ 78.297339826914282, 17.393450025707423 ], [ 78.298148310669973, 17.393450025707423 ], [ 78.298148310669973, 17.393180531122198 ], [ 78.298687299840452, 17.393180531122198 ], [ 78.298687299840452, 17.392911036536958 ], [ 78.299226289010932, 17.392911036536958 ], [ 78.299226289010932, 17.392641541951718 ], [ 78.300304267351891, 17.392641541951718 ], [ 78.300304267351891, 17.392372047366493 ], [ 78.30219072944854, 17.392372047366493 ], [ 78.30219072944854, 17.392911036536958 ], [ 78.302999213204231, 17.392911036536958 ], [ 78.302999213204231, 17.393180531122198 ], [ 78.303268707789442, 17.393180531122198 ], [ 78.303268707789442, 17.393719520292663 ], [ 78.30353820237471, 17.393719520292663 ], [ 78.30353820237471, 17.393989014877903 ], [ 78.303807696959922, 17.393989014877903 ], [ 78.303807696959922, 17.393719520292663 ], [ 78.304616180715669, 17.393719520292663 ], [ 78.304616180715669, 17.393180531122198 ], [ 78.304885675300881, 17.393180531122198 ], [ 78.304885675300881, 17.391563563610774 ], [ 78.304616180715669, 17.391563563610774 ], [ 78.304616180715669, 17.390755079855069 ], [ 78.304346686130401, 17.390755079855069 ], [ 78.304346686130401, 17.390216090684604 ], [ 78.30407719154519, 17.390216090684604 ], [ 78.30407719154519, 17.389946596099364 ], [ 78.303807696959922, 17.389946596099364 ], [ 78.303807696959922, 17.388599123173179 ], [ 78.30353820237471, 17.388599123173179 ], [ 78.30353820237471, 17.388329628587954 ], [ 78.303807696959922, 17.388329628587954 ], [ 78.303807696959922, 17.387790639417474 ], [ 78.30407719154519, 17.387790639417474 ], [ 78.30407719154519, 17.387251650247009 ], [ 78.304616180715669, 17.387251650247009 ], [ 78.304616180715669, 17.386982155661769 ], [ 78.304885675300881, 17.386982155661769 ], [ 78.304885675300881, 17.38671266107653 ], [ 78.30542466447136, 17.38671266107653 ], [ 78.30542466447136, 17.38644316649129 ], [ 78.305694159056571, 17.38644316649129 ], [ 78.305694159056571, 17.386173671906064 ], [ 78.306233148227051, 17.386173671906064 ], [ 78.306233148227051, 17.385904177320825 ], [ 78.306502642812319, 17.385904177320825 ], [ 78.306502642812319, 17.385634682735585 ], [ 78.30677213739753, 17.385634682735585 ], [ 78.30677213739753, 17.385365188150359 ], [ 78.307580621153221, 17.385365188150359 ], [ 78.307580621153221, 17.385634682735585 ], [ 78.309197588664659, 17.385634682735585 ], [ 78.309197588664659, 17.386982155661769 ], [ 78.309736577835139, 17.386982155661769 ], [ 78.309736577835139, 17.38671266107653 ], [ 78.31000607242035, 17.38671266107653 ], [ 78.31000607242035, 17.38644316649129 ], [ 78.310275567005618, 17.38644316649129 ], [ 78.310275567005618, 17.386173671906064 ], [ 78.31054506159083, 17.386173671906064 ], [ 78.31054506159083, 17.385904177320825 ], [ 78.311084050761309, 17.385904177320825 ], [ 78.311084050761309, 17.385634682735585 ], [ 78.311623039931789, 17.385634682735585 ], [ 78.311623039931789, 17.385365188150359 ], [ 78.312970512857959, 17.385365188150359 ], [ 78.312970512857959, 17.384017715224175 ], [ 78.31324000744317, 17.384017715224175 ], [ 78.31324000744317, 17.383748220638935 ], [ 78.313509502028438, 17.383748220638935 ], [ 78.313509502028438, 17.383478726053696 ], [ 78.313778996613649, 17.383478726053696 ], [ 78.313778996613649, 17.382670242297991 ], [ 78.313509502028438, 17.382670242297991 ], [ 78.313509502028438, 17.38132276937182 ], [ 78.31324000744317, 17.38132276937182 ], [ 78.31324000744317, 17.381053274786581 ], [ 78.312970512857959, 17.381053274786581 ], [ 78.312970512857959, 17.380783780201341 ], [ 78.314317985784129, 17.380783780201341 ], [ 78.314317985784129, 17.38132276937182 ], [ 78.314587480369397, 17.38132276937182 ], [ 78.314587480369397, 17.381053274786581 ], [ 78.315395964125088, 17.381053274786581 ], [ 78.315395964125088, 17.380783780201341 ], [ 78.315665458710299, 17.380783780201341 ], [ 78.315665458710299, 17.380514285616101 ], [ 78.316473942466047, 17.380514285616101 ], [ 78.316473942466047, 17.378088834348986 ], [ 78.316204447880779, 17.378088834348986 ], [ 78.316204447880779, 17.377549845178507 ], [ 78.31512646953982, 17.377549845178507 ], [ 78.31512646953982, 17.377280350593281 ], [ 78.314856974954608, 17.377280350593281 ], [ 78.314856974954608, 17.377010856008042 ], [ 78.31512646953982, 17.377010856008042 ], [ 78.31512646953982, 17.376741361422802 ], [ 78.315395964125088, 17.376741361422802 ], [ 78.315395964125088, 17.376471866837576 ], [ 78.315934953295567, 17.376471866837576 ], [ 78.315934953295567, 17.376202372252337 ], [ 78.316473942466047, 17.376202372252337 ], [ 78.316473942466047, 17.375932877667097 ], [ 78.316743437051258, 17.375932877667097 ], [ 78.316743437051258, 17.375393888496632 ], [ 78.317012931636526, 17.375393888496632 ], [ 78.317012931636526, 17.374585404740913 ], [ 78.317282426221738, 17.374585404740913 ], [ 78.317282426221738, 17.374315910155687 ], [ 78.317821415392217, 17.374315910155687 ], [ 78.317821415392217, 17.373776920985208 ], [ 78.318090909977428, 17.373776920985208 ], [ 78.318090909977428, 17.373507426399982 ], [ 78.318360404562696, 17.373507426399982 ], [ 78.318360404562696, 17.373237931814742 ], [ 78.318629899147908, 17.373237931814742 ], [ 78.318629899147908, 17.372968437229503 ], [ 78.319168888318387, 17.372968437229503 ], [ 78.319168888318387, 17.372698942644263 ], [ 78.319438382903598, 17.372698942644263 ], [ 78.319438382903598, 17.370542985962388 ], [ 78.318899393733176, 17.370542985962388 ], [ 78.318899393733176, 17.370273491377148 ], [ 78.318629899147908, 17.370273491377148 ], [ 78.318629899147908, 17.369734502206668 ], [ 78.319168888318387, 17.369734502206668 ], [ 78.319168888318387, 17.369465007621443 ], [ 78.319707877488867, 17.369465007621443 ], [ 78.319707877488867, 17.369195513036203 ], [ 78.319977372074078, 17.369195513036203 ], [ 78.319977372074078, 17.368926018450964 ], [ 78.320516361244557, 17.368926018450964 ], [ 78.320516361244557, 17.368656523865724 ], [ 78.321055350415037, 17.368656523865724 ], [ 78.321055350415037, 17.368387029280498 ], [ 78.321324845000248, 17.368387029280498 ], [ 78.321324845000248, 17.367848040110019 ], [ 78.321594339585516, 17.367848040110019 ], [ 78.321594339585516, 17.367309050939554 ], [ 78.321324845000248, 17.367309050939554 ], [ 78.321324845000248, 17.367039556354314 ], [ 78.321055350415037, 17.367039556354314 ], [ 78.321055350415037, 17.366770061769074 ], [ 78.317551920806949, 17.366770061769074 ], [ 78.317551920806949, 17.366231072598609 ], [ 78.317282426221738, 17.366231072598609 ], [ 78.317282426221738, 17.365961578013369 ], [ 78.317012931636526, 17.365961578013369 ], [ 78.317012931636526, 17.365422588842904 ], [ 78.316204447880779, 17.365422588842904 ], [ 78.316204447880779, 17.365153094257664 ], [ 78.315934953295567, 17.365153094257664 ], [ 78.315934953295567, 17.364883599672424 ], [ 78.315665458710299, 17.364883599672424 ], [ 78.315665458710299, 17.364614105087199 ], [ 78.31512646953982, 17.364614105087199 ], [ 78.31512646953982, 17.364344610501959 ], [ 78.314856974954608, 17.364344610501959 ], [ 78.314856974954608, 17.36380562133148 ], [ 78.31512646953982, 17.36380562133148 ], [ 78.31512646953982, 17.36245814840531 ], [ 78.314856974954608, 17.36245814840531 ], [ 78.314856974954608, 17.36191915923483 ], [ 78.314587480369397, 17.36191915923483 ], [ 78.314587480369397, 17.361649664649605 ], [ 78.314317985784129, 17.361649664649605 ], [ 78.314317985784129, 17.361380170064365 ], [ 78.314048491198918, 17.361380170064365 ], [ 78.314048491198918, 17.36030219172342 ], [ 78.313778996613649, 17.36030219172342 ], [ 78.313778996613649, 17.36003269713818 ], [ 78.313509502028438, 17.36003269713818 ], [ 78.313509502028438, 17.359493707967715 ], [ 78.313778996613649, 17.359493707967715 ], [ 78.313778996613649, 17.358954718797236 ], [ 78.313509502028438, 17.358954718797236 ], [ 78.313509502028438, 17.357607245871066 ], [ 78.313778996613649, 17.357607245871066 ], [ 78.313778996613649, 17.357337751285826 ], [ 78.314048491198918, 17.357337751285826 ], [ 78.314048491198918, 17.355451289189176 ], [ 78.314317985784129, 17.355451289189176 ], [ 78.314317985784129, 17.355181794603936 ], [ 78.314587480369397, 17.355181794603936 ], [ 78.314587480369397, 17.354912300018697 ], [ 78.314856974954608, 17.354912300018697 ], [ 78.314856974954608, 17.354373310848231 ], [ 78.31512646953982, 17.354373310848231 ], [ 78.31512646953982, 17.354103816262992 ], [ 78.315665458710299, 17.354103816262992 ], [ 78.315665458710299, 17.353025837922047 ], [ 78.315395964125088, 17.353025837922047 ], [ 78.315395964125088, 17.353295332507287 ], [ 78.314856974954608, 17.353295332507287 ], [ 78.314856974954608, 17.353025837922047 ], [ 78.314317985784129, 17.353025837922047 ], [ 78.314317985784129, 17.352756343336821 ], [ 78.313509502028438, 17.352756343336821 ], [ 78.313509502028438, 17.353025837922047 ], [ 78.313778996613649, 17.353025837922047 ], [ 78.313778996613649, 17.353295332507287 ], [ 78.312162029102268, 17.353295332507287 ], [ 78.312162029102268, 17.353025837922047 ], [ 78.311892534517, 17.353025837922047 ], [ 78.311892534517, 17.352756343336821 ], [ 78.311623039931789, 17.352756343336821 ], [ 78.311623039931789, 17.352486848751582 ], [ 78.31135354534652, 17.352486848751582 ], [ 78.31135354534652, 17.351947859581102 ], [ 78.310814556176098, 17.351947859581102 ], [ 78.310814556176098, 17.352486848751582 ], [ 78.311084050761309, 17.352486848751582 ], [ 78.311084050761309, 17.353295332507287 ], [ 78.310814556176098, 17.353295332507287 ], [ 78.310814556176098, 17.353834321677752 ], [ 78.311084050761309, 17.353834321677752 ], [ 78.311084050761309, 17.355451289189176 ], [ 78.310814556176098, 17.355451289189176 ], [ 78.310814556176098, 17.355720783774416 ], [ 78.31054506159083, 17.355720783774416 ], [ 78.31054506159083, 17.355990278359641 ], [ 78.310275567005618, 17.355990278359641 ], [ 78.310275567005618, 17.356259772944881 ], [ 78.31000607242035, 17.356259772944881 ], [ 78.31000607242035, 17.357337751285826 ], [ 78.309736577835139, 17.357337751285826 ], [ 78.309736577835139, 17.358146235041531 ], [ 78.309467083249871, 17.358146235041531 ], [ 78.309467083249871, 17.35841572962677 ], [ 78.308928094079448, 17.35841572962677 ], [ 78.308928094079448, 17.35868522421201 ], [ 78.3081196103237, 17.35868522421201 ], [ 78.3081196103237, 17.358954718797236 ], [ 78.30865859949418, 17.358954718797236 ], [ 78.30865859949418, 17.359224213382475 ], [ 78.309197588664659, 17.359224213382475 ], [ 78.309197588664659, 17.359763202552941 ], [ 78.309467083249871, 17.359763202552941 ], [ 78.309467083249871, 17.36003269713818 ], [ 78.309736577835139, 17.36003269713818 ], [ 78.309736577835139, 17.361110675479125 ], [ 78.309467083249871, 17.361110675479125 ], [ 78.309467083249871, 17.361649664649605 ], [ 78.308928094079448, 17.361649664649605 ], [ 78.308928094079448, 17.36218865382007 ], [ 78.30865859949418, 17.36218865382007 ], [ 78.30865859949418, 17.362997137575775 ], [ 78.308389104908969, 17.362997137575775 ], [ 78.308389104908969, 17.364075115916719 ], [ 78.30865859949418, 17.364075115916719 ], [ 78.30865859949418, 17.364344610501959 ], [ 78.308389104908969, 17.364344610501959 ], [ 78.308389104908969, 17.364883599672424 ], [ 78.3081196103237, 17.364883599672424 ], [ 78.3081196103237, 17.365961578013369 ], [ 78.308389104908969, 17.365961578013369 ], [ 78.308389104908969, 17.366231072598609 ], [ 78.30865859949418, 17.366231072598609 ], [ 78.30865859949418, 17.366500567183849 ], [ 78.309197588664659, 17.366500567183849 ], [ 78.309197588664659, 17.366770061769074 ], [ 78.309467083249871, 17.366770061769074 ], [ 78.309467083249871, 17.367039556354314 ], [ 78.309736577835139, 17.367039556354314 ], [ 78.309736577835139, 17.367578545524793 ], [ 78.309467083249871, 17.367578545524793 ], [ 78.309467083249871, 17.367848040110019 ], [ 78.309197588664659, 17.367848040110019 ], [ 78.309197588664659, 17.368656523865724 ], [ 78.30865859949418, 17.368656523865724 ], [ 78.30865859949418, 17.368926018450964 ], [ 78.30731112656801, 17.368926018450964 ], [ 78.30731112656801, 17.369195513036203 ], [ 78.306502642812319, 17.369195513036203 ], [ 78.306502642812319, 17.368926018450964 ], [ 78.306233148227051, 17.368926018450964 ], [ 78.306233148227051, 17.368656523865724 ], [ 78.30596365364184, 17.368656523865724 ], [ 78.30596365364184, 17.368387029280498 ], [ 78.305155169886149, 17.368387029280498 ], [ 78.305155169886149, 17.368117534695259 ], [ 78.304885675300881, 17.368117534695259 ], [ 78.304885675300881, 17.367848040110019 ], [ 78.304616180715669, 17.367848040110019 ], [ 78.304616180715669, 17.367309050939554 ], [ 78.30407719154519, 17.367309050939554 ], [ 78.30407719154519, 17.367039556354314 ], [ 78.30353820237471, 17.367039556354314 ], [ 78.30353820237471, 17.366770061769074 ], [ 78.303268707789442, 17.366770061769074 ], [ 78.303268707789442, 17.366500567183849 ], [ 78.30272971861902, 17.366500567183849 ], [ 78.30272971861902, 17.366231072598609 ], [ 78.30219072944854, 17.366231072598609 ], [ 78.30219072944854, 17.365961578013369 ], [ 78.301921234863272, 17.365961578013369 ], [ 78.301921234863272, 17.365692083428129 ], [ 78.301651740278061, 17.365692083428129 ], [ 78.301651740278061, 17.365153094257664 ], [ 78.301382245692793, 17.365153094257664 ], [ 78.301382245692793, 17.364075115916719 ], [ 78.301112751107581, 17.364075115916719 ], [ 78.301112751107581, 17.363536126746254 ], [ 78.301382245692793, 17.363536126746254 ], [ 78.301382245692793, 17.363266632161015 ], [ 78.301651740278061, 17.363266632161015 ], [ 78.301651740278061, 17.362997137575775 ], [ 78.301921234863272, 17.362997137575775 ], [ 78.301921234863272, 17.36191915923483 ], [ 78.301651740278061, 17.36191915923483 ], [ 78.301651740278061, 17.361649664649605 ], [ 78.301112751107581, 17.361649664649605 ], [ 78.301112751107581, 17.36191915923483 ], [ 78.299765278181411, 17.36191915923483 ], [ 78.299765278181411, 17.36218865382007 ], [ 78.299495783596143, 17.36218865382007 ], [ 78.299495783596143, 17.36245814840531 ], [ 78.29895679442572, 17.36245814840531 ], [ 78.29895679442572, 17.362727642990535 ], [ 78.298417805255241, 17.362727642990535 ], [ 78.298417805255241, 17.362997137575775 ], [ 78.297878816084761, 17.362997137575775 ], [ 78.297878816084761, 17.363266632161015 ], [ 78.296531343158591, 17.363266632161015 ], [ 78.296531343158591, 17.362997137575775 ], [ 78.295992353988112, 17.362997137575775 ], [ 78.295992353988112, 17.362727642990535 ], [ 78.295722859402844, 17.362727642990535 ], [ 78.295722859402844, 17.36218865382007 ], [ 78.295453364817632, 17.36218865382007 ], [ 78.295453364817632, 17.361380170064365 ], [ 78.295183870232421, 17.361380170064365 ], [ 78.295183870232421, 17.36030219172342 ], [ 78.294914375647153, 17.36030219172342 ], [ 78.294914375647153, 17.359224213382475 ], [ 78.294644881061942, 17.359224213382475 ], [ 78.294644881061942, 17.35868522421201 ], [ 78.294375386476673, 17.35868522421201 ], [ 78.294375386476673, 17.357337751285826 ], [ 78.293836397306194, 17.357337751285826 ], [ 78.293836397306194, 17.357068256700586 ], [ 78.293566902720983, 17.357068256700586 ], [ 78.293566902720983, 17.356529267530121 ], [ 78.293297408135771, 17.356529267530121 ], [ 78.293297408135771, 17.355720783774416 ], [ 78.293027913550503, 17.355720783774416 ], [ 78.293027913550503, 17.355990278359641 ], [ 78.292488924380024, 17.355990278359641 ], [ 78.292488924380024, 17.356798762115346 ], [ 78.292219429794812, 17.356798762115346 ], [ 78.292219429794812, 17.357337751285826 ], [ 78.291949935209544, 17.357337751285826 ], [ 78.291949935209544, 17.357607245871066 ], [ 78.292219429794812, 17.357607245871066 ], [ 78.292219429794812, 17.357876740456291 ], [ 78.291949935209544, 17.357876740456291 ], [ 78.291949935209544, 17.35841572962677 ], [ 78.291680440624333, 17.35841572962677 ], [ 78.291680440624333, 17.359224213382475 ], [ 78.291410946039065, 17.359224213382475 ], [ 78.291410946039065, 17.359493707967715 ], [ 78.290063473112895, 17.359493707967715 ], [ 78.290063473112895, 17.358954718797236 ], [ 78.289793978527683, 17.358954718797236 ], [ 78.289793978527683, 17.35868522421201 ], [ 78.289524483942415, 17.35868522421201 ], [ 78.289524483942415, 17.358954718797236 ], [ 78.289254989357204, 17.358954718797236 ], [ 78.289254989357204, 17.361380170064365 ], [ 78.289793978527683, 17.361380170064365 ], [ 78.289793978527683, 17.361649664649605 ], [ 78.290063473112895, 17.361649664649605 ], [ 78.290063473112895, 17.36191915923483 ], [ 78.290602462283374, 17.36191915923483 ], [ 78.290602462283374, 17.36245814840531 ], [ 78.290871956868642, 17.36245814840531 ], [ 78.290871956868642, 17.362727642990535 ], [ 78.290602462283374, 17.362727642990535 ], [ 78.290602462283374, 17.364614105087199 ], [ 78.290871956868642, 17.364614105087199 ], [ 78.290871956868642, 17.365422588842904 ], [ 78.290602462283374, 17.365422588842904 ], [ 78.290602462283374, 17.368387029280498 ], [ 78.290871956868642, 17.368387029280498 ], [ 78.290871956868642, 17.370003996791908 ], [ 78.291141451453854, 17.370003996791908 ], [ 78.291141451453854, 17.370542985962388 ], [ 78.291410946039065, 17.370542985962388 ], [ 78.291410946039065, 17.371351469718093 ], [ 78.291680440624333, 17.371351469718093 ], [ 78.291680440624333, 17.372159953473798 ], [ 78.291410946039065, 17.372159953473798 ], [ 78.291410946039065, 17.372429448059037 ], [ 78.290602462283374, 17.372429448059037 ], [ 78.290602462283374, 17.372698942644263 ], [ 78.290063473112895, 17.372698942644263 ], [ 78.290063473112895, 17.372159953473798 ], [ 78.288985494771993, 17.372159953473798 ], [ 78.288985494771993, 17.372429448059037 ], [ 78.288177011016245, 17.372429448059037 ], [ 78.288177011016245, 17.372698942644263 ], [ 78.287638021845765, 17.372698942644263 ], [ 78.287638021845765, 17.372968437229503 ], [ 78.287099032675343, 17.372968437229503 ], [ 78.287099032675343, 17.373237931814742 ], [ 78.286021054334384, 17.373237931814742 ], [ 78.286021054334384, 17.373507426399982 ], [ 78.285751559749116, 17.373507426399982 ], [ 78.285751559749116, 17.373776920985208 ], [ 78.285212570578693, 17.373776920985208 ], [ 78.285212570578693, 17.374046415570447 ], [ 78.284943075993425, 17.374046415570447 ], [ 78.284943075993425, 17.374315910155687 ], [ 78.284404086822946, 17.374315910155687 ], [ 78.284404086822946, 17.374585404740913 ], [ 78.284134592237734, 17.374585404740913 ], [ 78.284134592237734, 17.375124393911392 ], [ 78.283865097652466, 17.375124393911392 ], [ 78.283865097652466, 17.375393888496632 ], [ 78.283326108482044, 17.375393888496632 ], [ 78.283326108482044, 17.375663383081857 ], [ 78.282787119311564, 17.375663383081857 ], [ 78.282787119311564, 17.375932877667097 ], [ 78.282248130141085, 17.375932877667097 ], [ 78.282248130141085, 17.376202372252337 ], [ 78.281709140970605, 17.376202372252337 ], [ 78.281709140970605, 17.376471866837576 ], [ 78.281439646385337, 17.376471866837576 ], [ 78.281439646385337, 17.376741361422802 ], [ 78.281170151800126, 17.376741361422802 ], [ 78.281170151800126, 17.377010856008042 ], [ 78.279283689703476, 17.377010856008042 ], [ 78.279283689703476, 17.377280350593281 ], [ 78.278744700532997, 17.377280350593281 ], [ 78.278744700532997, 17.377549845178507 ], [ 78.277936216777306, 17.377549845178507 ], [ 78.277936216777306, 17.377819339763747 ], [ 78.277397227606826, 17.377819339763747 ], [ 78.277397227606826, 17.378088834348986 ], [ 78.276858238436347, 17.378088834348986 ], [ 78.276858238436347, 17.378358328934226 ], [ 78.276049754680656, 17.378358328934226 ], [ 78.276049754680656, 17.378627823519452 ], [ 78.274971776339697, 17.378627823519452 ], [ 78.274971776339697, 17.378897318104691 ], [ 78.274702281754486, 17.378897318104691 ], [ 78.274702281754486, 17.379166812689931 ], [ 78.274163292584007, 17.379166812689931 ], [ 78.274163292584007, 17.380783780201341 ], [ 78.274432787169218, 17.380783780201341 ], [ 78.274432787169218, 17.381053274786581 ], [ 78.274971776339697, 17.381053274786581 ], [ 78.274971776339697, 17.38132276937182 ], [ 78.275510765510177, 17.38132276937182 ], [ 78.275510765510177, 17.381592263957046 ], [ 78.275780260095388, 17.381592263957046 ], [ 78.275780260095388, 17.381861758542286 ], [ 78.276049754680656, 17.381861758542286 ], [ 78.276049754680656, 17.383478726053696 ], [ 78.276319249265867, 17.383478726053696 ], [ 78.276319249265867, 17.383748220638935 ], [ 78.276588743851136, 17.383748220638935 ], [ 78.276588743851136, 17.384287209809415 ], [ 78.276858238436347, 17.384287209809415 ], [ 78.276858238436347, 17.38482619897988 ], [ 78.276319249265867, 17.38482619897988 ], [ 78.276319249265867, 17.38455670439464 ], [ 78.275510765510177, 17.38455670439464 ], [ 78.275510765510177, 17.38482619897988 ], [ 78.274971776339697, 17.38482619897988 ], [ 78.274971776339697, 17.38455670439464 ], [ 78.273893797998738, 17.38455670439464 ], [ 78.273893797998738, 17.384287209809415 ], [ 78.273085314243048, 17.384287209809415 ], [ 78.273085314243048, 17.38455670439464 ], [ 78.273354808828316, 17.38455670439464 ], [ 78.273354808828316, 17.385634682735585 ], [ 78.273624303413527, 17.385634682735585 ], [ 78.273624303413527, 17.385904177320825 ], [ 78.273354808828316, 17.385904177320825 ], [ 78.273354808828316, 17.38644316649129 ], [ 78.272815819657836, 17.38644316649129 ], [ 78.272815819657836, 17.38671266107653 ], [ 78.275510765510177, 17.38671266107653 ], [ 78.275510765510177, 17.386982155661769 ], [ 78.275780260095388, 17.386982155661769 ], [ 78.275780260095388, 17.387521144832235 ], [ 78.275510765510177, 17.387521144832235 ], [ 78.275510765510177, 17.387790639417474 ], [ 78.274971776339697, 17.387790639417474 ], [ 78.274971776339697, 17.388060134002714 ], [ 78.274432787169218, 17.388060134002714 ], [ 78.274432787169218, 17.388599123173179 ], [ 78.274163292584007, 17.388599123173179 ], [ 78.274163292584007, 17.388868617758419 ], [ 78.274432787169218, 17.388868617758419 ], [ 78.274432787169218, 17.389677101514124 ], [ 78.274702281754486, 17.389677101514124 ], [ 78.274702281754486, 17.390216090684604 ], [ 78.275780260095388, 17.390216090684604 ], [ 78.275780260095388, 17.389946596099364 ], [ 78.275241270924965, 17.389946596099364 ], [ 78.275241270924965, 17.389677101514124 ], [ 78.276319249265867, 17.389677101514124 ], [ 78.276319249265867, 17.389407606928884 ], [ 78.277397227606826, 17.389407606928884 ], [ 78.277397227606826, 17.389677101514124 ], [ 78.277936216777306, 17.389677101514124 ], [ 78.277936216777306, 17.389407606928884 ] ], [ [ 78.277666722192038, 17.388868617758419 ], [ 78.277666722192038, 17.389138112343659 ], [ 78.277397227606826, 17.389138112343659 ], [ 78.277397227606826, 17.388868617758419 ], [ 78.277666722192038, 17.388868617758419 ] ], [ [ 78.277666722192038, 17.389138112343659 ], [ 78.277936216777306, 17.389138112343659 ], [ 78.277936216777306, 17.389407606928884 ], [ 78.277666722192038, 17.389407606928884 ], [ 78.277666722192038, 17.389138112343659 ] ], [ [ 78.312970512857959, 17.380783780201341 ], [ 78.312431523687479, 17.380783780201341 ], [ 78.312431523687479, 17.380514285616101 ], [ 78.312970512857959, 17.380514285616101 ], [ 78.312970512857959, 17.380783780201341 ] ], [ [ 78.309467083249871, 17.38293973688323 ], [ 78.309467083249871, 17.38320923146847 ], [ 78.309197588664659, 17.38320923146847 ], [ 78.309197588664659, 17.383478726053696 ], [ 78.308389104908969, 17.383478726053696 ], [ 78.308389104908969, 17.383748220638935 ], [ 78.307850115738489, 17.383748220638935 ], [ 78.307850115738489, 17.38293973688323 ], [ 78.30865859949418, 17.38293973688323 ], [ 78.30865859949418, 17.38320923146847 ], [ 78.308928094079448, 17.38320923146847 ], [ 78.308928094079448, 17.38293973688323 ], [ 78.309467083249871, 17.38293973688323 ] ], [ [ 78.276858238436347, 17.388868617758419 ], [ 78.276858238436347, 17.389138112343659 ], [ 78.276588743851136, 17.389138112343659 ], [ 78.276588743851136, 17.388868617758419 ], [ 78.276858238436347, 17.388868617758419 ] ], [ [ 78.276049754680656, 17.38509569356512 ], [ 78.276049754680656, 17.385365188150359 ], [ 78.275510765510177, 17.385365188150359 ], [ 78.275510765510177, 17.38509569356512 ], [ 78.276049754680656, 17.38509569356512 ] ], [ [ 78.276049754680656, 17.388868617758419 ], [ 78.276049754680656, 17.389138112343659 ], [ 78.275510765510177, 17.389138112343659 ], [ 78.275510765510177, 17.388868617758419 ], [ 78.276049754680656, 17.388868617758419 ] ] ], [ [ [ 78.310814556176098, 17.351947859581102 ], [ 78.310814556176098, 17.351678364995877 ], [ 78.31054506159083, 17.351678364995877 ], [ 78.31054506159083, 17.351947859581102 ], [ 78.310814556176098, 17.351947859581102 ] ] ] ] } }
]
}
