{
"type": "FeatureCollection",
"name": "Saroor_Nagar_OSM_boundary",
"crs": { "type": "name", "properties": { "name": "urn:ogc:def:crs:OGC:1.3:CRS84" } },
"features": [
{ "type": "Feature", "properties": { "name": "Saroor_Nagar", "osm_id": "W27934981", "osm_name": "Saroor Nagar Lake, Ward 18 Lingojiguda, Greater Hyderabad Municipal Corporation South Zone, Hyderabad, Saroornagar mandal, Ranga Reddy, Telangana, India" }, "geometry": { "type": "Polygon", "coordinates": [ [ [ 78.5234043, 17.3568108 ], [ 78.5234472, 17.356263 ], [ 78.5235357, 17.3561273 ], [ 78.5236537, 17.356071 ], [ 78.5236993, 17.3559865 ], [ 78.5236216, 17.3558406 ], [ 78.5234955, 17.3556613 ], [ 78.5234204, 17.3555001 ], [ 78.5234465, 17.3547333 ], [ 78.523466, 17.354476 ], [ 78.5235223, 17.3543096 ], [ 78.5236716, 17.354255 ], [ 78.5237852, 17.3541893 ], [ 78.5238675, 17.3541736 ], [ 78.5241582, 17.3541784 ], [ 78.5242814, 17.354179 ], [ 78.524386, 17.3542315 ], [ 78.5244338, 17.3542789 ], [ 78.5245657, 17.3542994 ], [ 78.524783, 17.3543327 ], [ 78.5251611, 17.3543915 ], [ 78.5255004, 17.3544555 ], [ 78.5257687, 17.3544939 ], [ 78.5259373, 17.354518 ], [ 78.5265425, 17.3545042 ], [ 78.5266873, 17.3544402 ], [ 78.5269196, 17.3541545 ], [ 78.5272704, 17.3534418 ], [ 78.5277966, 17.3525233 ], [ 78.5280472, 17.351978 ], [ 78.5280445, 17.3516938 ], [ 78.5280673, 17.3515575 ], [ 78.5280727, 17.3514909 ], [ 78.5280834, 17.3514282 ], [ 78.5281049, 17.3513808 ], [ 78.5281035, 17.3512951 ], [ 78.5280391, 17.3510951 ], [ 78.5280021, 17.3508682 ], [ 78.5280365, 17.3507305 ], [ 78.5282296, 17.3505923 ], [ 78.5282777, 17.3504329 ], [ 78.5282055, 17.3501724 ], [ 78.5281946, 17.349891 ], [ 78.5281277, 17.3496911 ], [ 78.5279809, 17.349476 ], [ 78.5277264, 17.3492466 ], [ 78.5277186, 17.3489858 ], [ 78.5277441, 17.348941 ], [ 78.5278071, 17.3489115 ], [ 78.5278863, 17.3489205 ], [ 78.5280725, 17.3491073 ], [ 78.5281139, 17.3491657 ], [ 78.5281423, 17.349205 ], [ 78.5282618, 17.3493276 ], [ 78.5284053, 17.3495029 ], [ 78.5285784, 17.3497441 ], [ 78.5287392, 17.3501494 ], [ 78.5288277, 17.3502569 ], [ 78.5289699, 17.3503132 ], [ 78.5292193, 17.3503209 ], [ 78.5292917, 17.3503363 ], [ 78.5293802, 17.3503995 ], [ 78.5294003, 17.3505717 ], [ 78.5295171, 17.3507894 ], [ 78.5298914, 17.3510405 ], [ 78.5303625, 17.3513753 ], [ 78.5305577, 17.3513859 ], [ 78.530623, 17.3514267 ], [ 78.5306355, 17.35156 ], [ 78.5306194, 17.3517085 ], [ 78.5306302, 17.3518673 ], [ 78.5306007, 17.3519517 ], [ 78.5304558, 17.3520413 ], [ 78.5303122, 17.3521234 ], [ 78.5303594, 17.3524188 ], [ 78.5302843, 17.3525556 ], [ 78.5300324, 17.3527794 ], [ 78.5300195, 17.3530193 ], [ 78.5300606, 17.3538325 ], [ 78.5300975, 17.3541457 ], [ 78.5301087, 17.3542283 ], [ 78.5301809, 17.3543608 ], [ 78.5301849, 17.3545119 ], [ 78.5301098, 17.3546719 ], [ 78.5300307, 17.3548549 ], [ 78.5299543, 17.3550508 ], [ 78.5298282, 17.355262 ], [ 78.529745, 17.3554655 ], [ 78.5297249, 17.3556383 ], [ 78.5297719, 17.3557189 ], [ 78.5301138, 17.355879 ], [ 78.5302868, 17.3559391 ], [ 78.5303633, 17.3559839 ], [ 78.5304076, 17.3560439 ], [ 78.5303928, 17.3562233 ], [ 78.5303123, 17.3563654 ], [ 78.5301366, 17.3564115 ], [ 78.529214, 17.3567596 ], [ 78.5281706, 17.3571052 ], [ 78.5275483, 17.3573561 ], [ 78.5267651, 17.3578169 ], [ 78.5261455, 17.3581574 ], [ 78.5255527, 17.3584621 ], [ 78.5251933, 17.3586259 ], [ 78.5249144, 17.3586925 ], [ 78.5247172, 17.3587859 ], [ 78.5246301, 17.3588346 ], [ 78.5245442, 17.3588768 ], [ 78.5244799, 17.3589024 ], [ 78.5244289, 17.3589165 ], [ 78.5243189, 17.3589536 ], [ 78.5242961, 17.3589434 ], [ 78.5243042, 17.3589075 ], [ 78.5243927, 17.3588666 ], [ 78.5244986, 17.3588205 ], [ 78.5245241, 17.3588026 ], [ 78.5245469, 17.3587462 ], [ 78.5245703, 17.3586298 ], [ 78.5245778, 17.3585926 ], [ 78.5245641, 17.3584452 ], [ 78.5245649, 17.3583523 ], [ 78.5245938, 17.358249 ], [ 78.5246217, 17.3581359 ], [ 78.5246592, 17.3579622 ], [ 78.5246189, 17.3578105 ], [ 78.5244038, 17.3577484 ], [ 78.5241687, 17.3576121 ], [ 78.52403, 17.3574734 ], [ 78.5238342, 17.3573426 ], [ 78.5235894, 17.3572775 ], [ 78.5235187, 17.3571952 ], [ 78.5234043, 17.3568108 ] ] ] } }
]
}
