{
"type": "FeatureCollection",
"name": "Saroor_Nagar_boundary",
"crs": { "type": "name", "properties": { "name": "urn:ogc:def:crs:OGC:1.3:CRS84" } },
"features": [
{ "type": "Feature", "properties": { }, "geometry": { "type": "Polygon", "coordinates": [ [ [ 78.529105170217093, 17.351408870410637 ], [ 78.529105170217093, 17.351678364995873 ], [ 78.528835675631882, 17.351678364995873 ], [ 78.528835675631882, 17.351408870410641 ], [ 78.528296686461402, 17.351408870410641 ], [ 78.528296686461402, 17.352217354166346 ], [ 78.528027191876191, 17.352217354166342 ], [ 78.528027191876191, 17.352486848751578 ], [ 78.527757697290923, 17.352486848751578 ], [ 78.527757697290923, 17.353295332507287 ], [ 78.527488202705712, 17.353295332507287 ], [ 78.527488202705712, 17.353834321677748 ], [ 78.527218708120444, 17.353834321677752 ], [ 78.527218708120444, 17.354103816262988 ], [ 78.526949213535232, 17.354103816262992 ], [ 78.526949213535232, 17.354373310848231 ], [ 78.526679718950021, 17.354373310848231 ], [ 78.526679718950021, 17.354642805433468 ], [ 78.526410224364753, 17.354642805433468 ], [ 78.526410224364753, 17.354912300018697 ], [ 78.525871235194288, 17.354912300018693 ], [ 78.525871235194288, 17.354642805433468 ], [ 78.525062751438583, 17.354642805433471 ], [ 78.525062751438583, 17.354912300018697 ], [ 78.524793256853371, 17.354912300018697 ], [ 78.524793256853371, 17.354642805433468 ], [ 78.523984773097624, 17.354642805433471 ], [ 78.523984773097624, 17.355720783774412 ], [ 78.523715278512412, 17.355720783774412 ], [ 78.523715278512412, 17.356529267530121 ], [ 78.523984773097624, 17.356529267530121 ], [ 78.523984773097624, 17.357068256700583 ], [ 78.524523762268103, 17.357068256700583 ], [ 78.524523762268103, 17.357337751285826 ], [ 78.524793256853371, 17.357337751285822 ], [ 78.524793256853371, 17.357607245871066 ], [ 78.525062751438583, 17.357607245871066 ], [ 78.525062751438583, 17.358146235041531 ], [ 78.525601740609062, 17.358146235041531 ], [ 78.525601740609062, 17.357876740456291 ], [ 78.525871235194288, 17.357876740456287 ], [ 78.525871235194288, 17.357607245871066 ], [ 78.526140729779556, 17.357607245871066 ], [ 78.526140729779556, 17.357876740456287 ], [ 78.526410224364753, 17.357876740456287 ], [ 78.526410224364753, 17.357607245871062 ], [ 78.526949213535232, 17.357607245871066 ], [ 78.526949213535232, 17.356798762115346 ], [ 78.527488202705712, 17.35679876211535 ], [ 78.527488202705712, 17.35706825670059 ], [ 78.527757697290923, 17.357068256700586 ], [ 78.527757697290923, 17.35679876211535 ], [ 78.528566181046671, 17.356798762115343 ], [ 78.528566181046671, 17.356529267530124 ], [ 78.529374664802361, 17.356529267530121 ], [ 78.529374664802361, 17.356259772944885 ], [ 78.530183148558066, 17.356259772944881 ], [ 78.530183148558066, 17.355990278359641 ], [ 78.529374664802361, 17.355990278359638 ], [ 78.529374664802361, 17.355181794603936 ], [ 78.529913653972841, 17.355181794603936 ], [ 78.529913653972841, 17.354912300018693 ], [ 78.529644159387573, 17.354912300018693 ], [ 78.529644159387573, 17.354642805433471 ], [ 78.529913653972841, 17.354642805433471 ], [ 78.529913653972841, 17.354373310848231 ], [ 78.529644159387573, 17.354373310848231 ], [ 78.529644159387573, 17.353025837922043 ], [ 78.529913653972841, 17.35302583792204 ], [ 78.529913653972841, 17.352217354166338 ], [ 78.530183148558066, 17.352217354166338 ], [ 78.530183148558066, 17.351678364995877 ], [ 78.529913653972841, 17.351678364995873 ], [ 78.529913653972841, 17.351408870410637 ], [ 78.529105170217093, 17.351408870410637 ] ] ] } }
]
}
