{"type":"FeatureCollection","features":[{"type":"Feature","geometry":{"geodesic":false,"type":"Polygon","coordinates":[[[78.52937466480236,17.351408870410637],[78.52991365397284,17.351408870410637],[78.52991365397284,17.351678364995877],[78.53018314855805,17.351678364995877],[78.53018314855805,17.352217354166342],[78.52991365397284,17.352217354166342],[78.52991365397284,17.353025837922047],[78.52964415938757,17.353025837922047],[78.52964415938757,17.35437331084823],[78.52991365397284,17.35437331084823],[78.52991365397284,17.35464280543347],[78.52964415938757,17.35464280543347],[78.52964415938757,17.354912300018697],[78.52991365397284,17.354912300018697],[78.52991365397284,17.355181794603936],[78.52937466480236,17.355181794603936],[78.52937466480236,17.351408870410637]]]},"id":"+959313+247309","properties":{"count":24,"water":1}},{"type":"Feature","geometry":{"geodesic":false,"type":"Polygon","coordinates":[[[78.52964415938757,17.35599027835964],[78.53018314855805,17.35599027835964],[78.53018314855805,17.35625977294488],[78.52964415938757,17.35625977294488],[78.52964415938757,17.35599027835964]]]},"id":"+959314+247292","properties":{"count":2,"water":1}},{"type":"Feature","geometry":{"geodesic":false,"type":"Polygon","coordinates":[[[78.54446636157556,17.342246054512614],[78.54500535074604,17.342246054512614],[78.54500535074604,17.342515549097854],[78.54446636157556,17.342515549097854],[78.54446636157556,17.342246054512614]]]},"id":"+959369+247343","properties":{"count":2,"water":1}},{"type":"Feature","geometry":{"geodesic":false,"type":"Polygon","coordinates":[[[78.56710390673535,17.3646141050872],[78.56737340132062,17.3646141050872],[78.56737340132062,17.364883599672424],[78.56764289590583,17.364883599672424],[78.56764289590583,17.365153094257664],[78.5687208742468,17.365153094257664],[78.5687208742468,17.365422588842904],[78.56845137966152,17.365422588842904],[78.56845137966152,17.36569208342813],[78.568990368832,17.36569208342813],[78.568990368832,17.36596157801337],[78.56818188507631,17.36596157801337],[78.56818188507631,17.36623107259861],[78.5679123904911,17.36623107259861],[78.5679123904911,17.36650056718385],[78.56764289590583,17.36650056718385],[78.56764289590583,17.36623107259861],[78.56710390673535,17.36623107259861],[78.56710390673535,17.3646141050872]]]},"id":"+959452+247260","properties":{"count":26,"water":1}}]}