{"type":"FeatureCollection","features":[{"type":"Feature","geometry":{"geodesic":false,"type":"Polygon","coordinates":[[[78.50835408715395,17.340898581586444],[78.50889307632443,17.340898581586444],[78.50889307632443,17.34116807617167],[78.50916257090964,17.34116807617167],[78.50916257090964,17.34170706534215],[78.50862358173922,17.34170706534215],[78.50862358173922,17.34143757075691],[78.50835408715395,17.34143757075691],[78.50835408715395,17.340898581586444]]]},"id":"+959235+247348","properties":{"count":7,"water":1}},{"type":"Feature","geometry":{"geodesic":false,"type":"Polygon","coordinates":[[[78.5291051702171,17.351408870410637],[78.52991365397284,17.351408870410637],[78.52991365397284,17.351678364995877],[78.53018314855805,17.351678364995877],[78.53018314855805,17.352217354166342],[78.52991365397284,17.352217354166342],[78.52991365397284,17.353025837922047],[78.52964415938757,17.353025837922047],[78.52964415938757,17.35437331084823],[78.52991365397284,17.35437331084823],[78.52991365397284,17.35464280543347],[78.52964415938757,17.35464280543347],[78.52964415938757,17.354912300018697],[78.52991365397284,17.354912300018697],[78.52991365397284,17.355181794603936],[78.52937466480236,17.355181794603936],[78.52937466480236,17.35599027835964],[78.53018314855805,17.35599027835964],[78.53018314855805,17.35625977294488],[78.52937466480236,17.35625977294488],[78.52937466480236,17.35652926753012],[78.52856618104667,17.35652926753012],[78.52856618104667,17.356798762115346],[78.52775769729092,17.356798762115346],[78.52775769729092,17.357068256700586],[78.52748820270571,17.357068256700586],[78.52748820270571,17.356798762115346],[78.52694921353523,17.356798762115346],[78.52694921353523,17.357607245871066],[78.52641022436475,17.357607245871066],[78.52641022436475,17.35787674045629],[78.52614072977954,17.35787674045629],[78.52614072977954,17.357607245871066],[78.52587123519427,17.357607245871066],[78.52587123519427,17.35787674045629],[78.52560174060906,17.35787674045629],[78.52560174060906,17.35814623504153],[78.52506275143858,17.35814623504153],[78.52506275143858,17.357607245871066],[78.52479325685337,17.357607245871066],[78.52479325685337,17.357337751285826],[78.5245237622681,17.357337751285826],[78.5245237622681,17.357068256700586],[78.52398477309762,17.357068256700586],[78.52398477309762,17.35652926753012],[78.52371527851241,17.35652926753012],[78.52371527851241,17.355720783774416],[78.52398477309762,17.355720783774416],[78.52398477309762,17.35464280543347],[78.52479325685337,17.35464280543347],[78.52479325685337,17.354912300018697],[78.52506275143858,17.354912300018697],[78.52506275143858,17.35464280543347],[78.52587123519427,17.35464280543347],[78.52587123519427,17.354912300018697],[78.52641022436475,17.354912300018697],[78.52641022436475,17.35464280543347],[78.52667971895002,17.35464280543347],[78.52667971895002,17.35437331084823],[78.52694921353523,17.35437331084823],[78.52694921353523,17.35410381626299],[78.52721870812044,17.35410381626299],[78.52721870812044,17.353834321677752],[78.52748820270571,17.353834321677752],[78.52748820270571,17.353295332507287],[78.52775769729092,17.353295332507287],[78.52775769729092,17.35248684875158],[78.52802719187619,17.35248684875158],[78.52802719187619,17.352217354166342],[78.5282966864614,17.352217354166342],[78.5282966864614,17.351408870410637],[78.52883567563188,17.351408870410637],[78.52883567563188,17.351678364995877],[78.5291051702171,17.351678364995877],[78.5291051702171,17.351408870410637]]]},"id":"+959313+247309","properties":{"count":294,"water":1}},{"type":"Feature","geometry":{"geodesic":false,"type":"Polygon","coordinates":[[[78.53045264314332,17.31475760681856],[78.53072213772853,17.31475760681856],[78.53072213772853,17.3150271014038],[78.53099163231374,17.3150271014038],[78.53099163231374,17.315296595989025],[78.53018314855805,17.315296595989025],[78.53018314855805,17.315566090574265],[78.52991365397284,17.315566090574265],[78.52991365397284,17.316105079744744],[78.53045264314332,17.316105079744744],[78.53045264314332,17.31664406891521],[78.53018314855805,17.31664406891521],[78.53018314855805,17.31691356350045],[78.52964415938757,17.31691356350045],[78.52964415938757,17.31664406891521],[78.52937466480236,17.31664406891521],[78.52937466480236,17.31637457432997],[78.5291051702171,17.31637457432997],[78.5291051702171,17.316105079744744],[78.52856618104667,17.316105079744744],[78.52856618104667,17.315835585159505],[78.52883567563188,17.315835585159505],[78.52883567563188,17.315566090574265],[78.5291051702171,17.315566090574265],[78.5291051702171,17.315296595989025],[78.53018314855805,17.315296595989025],[78.53018314855805,17.3150271014038],[78.53045264314332,17.3150271014038],[78.53045264314332,17.31475760681856]]]},"id":"+959316+247445","properties":{"count":28,"water":1}},{"type":"Feature","geometry":{"geodesic":false,"type":"Polygon","coordinates":[[[78.53449506192183,17.381861758542286],[78.53503405109231,17.381861758542286],[78.53503405109231,17.382131253127525],[78.53530354567752,17.382131253127525],[78.53530354567752,17.382400747712765],[78.53503405109231,17.382400747712765],[78.53503405109231,17.382131253127525],[78.53449506192183,17.382131253127525],[78.53449506192183,17.381861758542286]]]},"id":"+959332+247196","properties":{"count":3,"water":1}},{"type":"Feature","geometry":{"geodesic":false,"type":"Polygon","coordinates":[[[78.54446636157556,17.342246054512614],[78.54500535074604,17.342246054512614],[78.54500535074604,17.342515549097854],[78.54446636157556,17.342515549097854],[78.54446636157556,17.342246054512614]]]},"id":"+959369+247343","properties":{"count":2,"water":1}},{"type":"Feature","geometry":{"geodesic":false,"type":"Polygon","coordinates":[[[78.56710390673535,17.3646141050872],[78.56737340132062,17.3646141050872],[78.56737340132062,17.364883599672424],[78.56764289590583,17.364883599672424],[78.56764289590583,17.365153094257664],[78.5687208742468,17.365153094257664],[78.5687208742468,17.365422588842904],[78.56845137966152,17.365422588842904],[78.56845137966152,17.36569208342813],[78.568990368832,17.36569208342813],[78.568990368832,17.36596157801337],[78.56818188507631,17.36596157801337],[78.56818188507631,17.36623107259861],[78.5679123904911,17.36623107259861],[78.5679123904911,17.36650056718385],[78.56764289590583,17.36650056718385],[78.56764289590583,17.36623107259861],[78.56710390673535,17.36623107259861],[78.56710390673535,17.3646141050872]]]},"id":"+959452+247260","properties":{"count":26,"water":1}}]}