{
"type": "FeatureCollection",
"name": "Shamirpet_Lake_boundary",
"crs": { "type": "name", "properties": { "name": "urn:ogc:def:crs:OGC:1.3:CRS84" } },
"features": [
{ "type": "Feature", "properties": { }, "geometry": { "type": "Polygon", "coordinates": [ [ [ 78.556324123325936, 17.607159231799454 ], [ 78.556054628740739, 17.607159231799457 ], [ 78.556054628740739, 17.60769822096994 ], [ 78.559019069178277, 17.607698220969937 ], [ 78.559019069178277, 17.607967715555176 ], [ 78.559288563763545, 17.607967715555176 ], [ 78.559288563763545, 17.608237210140402 ], [ 78.56009704751925, 17.608237210140398 ], [ 78.56009704751925, 17.608506704725645 ], [ 78.560366542104518, 17.608506704725642 ], [ 78.560366542104518, 17.608237210140398 ], [ 78.560905531274926, 17.608237210140398 ], [ 78.560905531274926, 17.609315188481347 ], [ 78.560636036689715, 17.609315188481343 ], [ 78.560636036689715, 17.609854177651826 ], [ 78.559558058348756, 17.609854177651826 ], [ 78.559558058348756, 17.610393166822291 ], [ 78.559827552934024, 17.610393166822291 ], [ 78.559827552934024, 17.611201650577986 ], [ 78.56009704751925, 17.611201650577993 ], [ 78.56009704751925, 17.611740639748476 ], [ 78.560636036689715, 17.611740639748476 ], [ 78.560636036689715, 17.612010134333712 ], [ 78.561444520445406, 17.612010134333715 ], [ 78.561444520445406, 17.612279628918934 ], [ 78.562253004201153, 17.612279628918937 ], [ 78.562253004201153, 17.613088112674642 ], [ 78.561983509615885, 17.613088112674646 ], [ 78.561983509615885, 17.613357607259886 ], [ 78.561444520445406, 17.613357607259886 ], [ 78.561444520445406, 17.613627101845125 ], [ 78.560366542104518, 17.613627101845122 ], [ 78.560366542104518, 17.613896596430369 ], [ 78.56009704751925, 17.613896596430369 ], [ 78.56009704751925, 17.614166091015591 ], [ 78.561714015030674, 17.614166091015591 ], [ 78.561714015030674, 17.61443558560083 ], [ 78.562253004201153, 17.61443558560083 ], [ 78.562253004201153, 17.614705080186067 ], [ 78.562522498786365, 17.614705080186067 ], [ 78.562522498786365, 17.61443558560083 ], [ 78.563061487956844, 17.61443558560083 ], [ 78.563061487956844, 17.614705080186067 ], [ 78.564678455468226, 17.61470508018607 ], [ 78.564678455468226, 17.614435585600834 ], [ 78.565486939223973, 17.614435585600834 ], [ 78.565486939223973, 17.614166091015591 ], [ 78.565756433809185, 17.614166091015594 ], [ 78.565756433809185, 17.613896596430369 ], [ 78.566025928394453, 17.613896596430365 ], [ 78.566025928394453, 17.613627101845122 ], [ 78.565756433809185, 17.613627101845125 ], [ 78.565756433809185, 17.613088112674649 ], [ 78.565486939223973, 17.613088112674646 ], [ 78.565486939223973, 17.612818618089417 ], [ 78.564947950053494, 17.612818618089417 ], [ 78.564947950053494, 17.612549123504177 ], [ 78.564678455468226, 17.612549123504181 ], [ 78.564678455468226, 17.612279628918941 ], [ 78.564408960883014, 17.612279628918937 ], [ 78.564408960883014, 17.612010134333712 ], [ 78.564139466297803, 17.612010134333712 ], [ 78.564139466297803, 17.611471145163232 ], [ 78.564408960883014, 17.611471145163232 ], [ 78.564408960883014, 17.611201650577996 ], [ 78.564678455468226, 17.611201650577989 ], [ 78.564678455468226, 17.610123672237048 ], [ 78.564947950053494, 17.610123672237052 ], [ 78.564947950053494, 17.610393166822284 ], [ 78.566025928394453, 17.610393166822288 ], [ 78.566025928394453, 17.610123672237052 ], [ 78.566564917564875, 17.610123672237052 ], [ 78.566564917564875, 17.609854177651822 ], [ 78.566834412150143, 17.609854177651822 ], [ 78.566834412150143, 17.609584683066586 ], [ 78.566564917564875, 17.60958468306659 ], [ 78.566564917564875, 17.609315188481343 ], [ 78.566834412150143, 17.609315188481343 ], [ 78.566834412150143, 17.609045693896121 ], [ 78.567373401320623, 17.609045693896114 ], [ 78.567373401320623, 17.609315188481347 ], [ 78.567103906735355, 17.609315188481347 ], [ 78.567103906735355, 17.60958468306659 ], [ 78.567912390491102, 17.609584683066586 ], [ 78.567912390491102, 17.609854177651819 ], [ 78.568451379661525, 17.609854177651819 ], [ 78.568451379661525, 17.609584683066586 ], [ 78.568720874246793, 17.609584683066586 ], [ 78.568720874246793, 17.607428726384686 ], [ 78.568451379661525, 17.60742872638469 ], [ 78.568451379661525, 17.606889737214232 ], [ 78.568181885076314, 17.606889737214232 ], [ 78.568181885076314, 17.607159231799457 ], [ 78.567912390491102, 17.607159231799461 ], [ 78.567912390491102, 17.607428726384693 ], [ 78.566834412150143, 17.607428726384693 ], [ 78.566834412150143, 17.60715923179945 ], [ 78.566564917564875, 17.607159231799457 ], [ 78.566564917564875, 17.606620242628988 ], [ 78.566295422979664, 17.606620242628995 ], [ 78.566295422979664, 17.606889737214232 ], [ 78.565217444638705, 17.606889737214232 ], [ 78.565217444638705, 17.607159231799454 ], [ 78.564408960883014, 17.60715923179945 ], [ 78.564408960883014, 17.606889737214232 ], [ 78.564139466297803, 17.606889737214232 ], [ 78.564139466297803, 17.60715923179945 ], [ 78.563869971712535, 17.607159231799454 ], [ 78.563869971712535, 17.607967715555176 ], [ 78.563330982542055, 17.607967715555169 ], [ 78.563330982542055, 17.607698220969933 ], [ 78.562522498786365, 17.607698220969937 ], [ 78.562522498786365, 17.60742872638469 ], [ 78.562253004201153, 17.607428726384693 ], [ 78.562253004201153, 17.606620242628992 ], [ 78.561983509615885, 17.606620242628992 ], [ 78.561983509615885, 17.606081253458527 ], [ 78.562253004201153, 17.606081253458527 ], [ 78.562253004201153, 17.605811758873283 ], [ 78.561983509615885, 17.605811758873287 ], [ 78.561983509615885, 17.604733780532339 ], [ 78.561714015030674, 17.604733780532346 ], [ 78.561714015030674, 17.604194791361863 ], [ 78.561983509615885, 17.604194791361863 ], [ 78.561983509615885, 17.603925296776637 ], [ 78.562253004201153, 17.603925296776637 ], [ 78.562253004201153, 17.603655802191394 ], [ 78.562522498786365, 17.603655802191398 ], [ 78.562522498786365, 17.603386307606158 ], [ 78.561714015030674, 17.603386307606158 ], [ 78.561714015030674, 17.603655802191398 ], [ 78.561175025860194, 17.603655802191394 ], [ 78.561175025860194, 17.603925296776637 ], [ 78.56009704751925, 17.603925296776637 ], [ 78.56009704751925, 17.604194791361863 ], [ 78.559558058348756, 17.604194791361866 ], [ 78.559558058348756, 17.604464285947106 ], [ 78.557941090837375, 17.604464285947103 ], [ 78.557941090837375, 17.604733780532346 ], [ 78.557402101666895, 17.604733780532346 ], [ 78.557402101666895, 17.605811758873283 ], [ 78.557132607081627, 17.605811758873287 ], [ 78.557132607081627, 17.605542264288051 ], [ 78.556863112496416, 17.605542264288051 ], [ 78.556863112496416, 17.605003275117578 ], [ 78.556593617911147, 17.605003275117578 ], [ 78.556593617911147, 17.605272769702811 ], [ 78.556324123325936, 17.605272769702808 ], [ 78.556324123325936, 17.605542264288047 ], [ 78.556593617911147, 17.605542264288047 ], [ 78.556593617911147, 17.606081253458527 ], [ 78.556324123325936, 17.606081253458527 ], [ 78.556324123325936, 17.607159231799454 ] ], [ [ 78.556324123325936, 17.607159231799454 ], [ 78.556863112496416, 17.607159231799454 ], [ 78.556863112496416, 17.60742872638469 ], [ 78.556324123325936, 17.60742872638469 ], [ 78.556324123325936, 17.607159231799454 ] ], [ [ 78.564678455468226, 17.61281861808942 ], [ 78.564678455468226, 17.613357607259882 ], [ 78.564139466297803, 17.613357607259882 ], [ 78.564139466297803, 17.613088112674646 ], [ 78.564408960883014, 17.613088112674646 ], [ 78.564408960883014, 17.61281861808942 ], [ 78.564678455468226, 17.61281861808942 ] ] ] } }
]
}
