{"type":"FeatureCollection","features":[{"type":"Feature","geometry":{"geodesic":false,"type":"Polygon","coordinates":[[[78.55012574786551,17.652703816704317],[78.55039524245078,17.652703816704317],[78.55039524245078,17.652973311289557],[78.55012574786551,17.652973311289557],[78.55012574786551,17.652703816704317]]]},"id":"+959389+246191","properties":{"count":1,"water":1}},{"type":"Feature","geometry":{"geodesic":false,"type":"Polygon","coordinates":[[[78.55443766122929,17.626832336521687],[78.55524614498498,17.626832336521687],[78.55524614498498,17.627101831106913],[78.5547071558145,17.627101831106913],[78.5547071558145,17.627371325692152],[78.55416816664408,17.627371325692152],[78.55416816664408,17.627101831106913],[78.55443766122929,17.627101831106913],[78.55443766122929,17.626832336521687]]]},"id":"+959407+246287","properties":{"count":5,"water":1}},{"type":"Feature","geometry":{"geodesic":false,"type":"Polygon","coordinates":[[[78.55821058542259,17.626562841936448],[78.55848008000785,17.626562841936448],[78.55848008000785,17.626832336521687],[78.55821058542259,17.626832336521687],[78.55821058542259,17.626562841936448]]]},"id":"+959419+246288","properties":{"count":1,"water":1}},{"type":"Feature","geometry":{"geodesic":false,"type":"Polygon","coordinates":[[[78.56171401503067,17.603386307606158],[78.56252249878636,17.603386307606158],[78.56252249878636,17.603655802191398],[78.56225300420115,17.603655802191398],[78.56225300420115,17.603925296776637],[78.56198350961589,17.603925296776637],[78.56198350961589,17.604194791361863],[78.56171401503067,17.604194791361863],[78.56171401503067,17.604733780532342],[78.56198350961589,17.604733780532342],[78.56198350961589,17.605811758873287],[78.56225300420115,17.605811758873287],[78.56225300420115,17.606081253458527],[78.56198350961589,17.606081253458527],[78.56198350961589,17.606620242628992],[78.56225300420115,17.606620242628992],[78.56225300420115,17.607428726384697],[78.56252249878636,17.607428726384697],[78.56252249878636,17.607698220969937],[78.56333098254206,17.607698220969937],[78.56333098254206,17.607967715555176],[78.56386997171253,17.607967715555176],[78.56386997171253,17.607159231799457],[78.5641394662978,17.607159231799457],[78.5641394662978,17.60688973721423],[78.56440896088301,17.60688973721423],[78.56440896088301,17.607159231799457],[78.5652174446387,17.607159231799457],[78.5652174446387,17.60688973721423],[78.56629542297966,17.60688973721423],[78.56629542297966,17.606620242628992],[78.56656491756488,17.606620242628992],[78.56656491756488,17.607159231799457],[78.56683441215014,17.607159231799457],[78.56683441215014,17.607428726384697],[78.5679123904911,17.607428726384697],[78.5679123904911,17.607159231799457],[78.56818188507631,17.607159231799457],[78.56818188507631,17.60688973721423],[78.56845137966152,17.60688973721423],[78.56845137966152,17.607428726384697],[78.5687208742468,17.607428726384697],[78.5687208742468,17.609584683066586],[78.56845137966152,17.609584683066586],[78.56845137966152,17.609854177651826],[78.5679123904911,17.609854177651826],[78.5679123904911,17.609584683066586],[78.56710390673535,17.609584683066586],[78.56710390673535,17.609315188481347],[78.56737340132062,17.609315188481347],[78.56737340132062,17.60904569389612],[78.56683441215014,17.60904569389612],[78.56683441215014,17.609315188481347],[78.56656491756488,17.609315188481347],[78.56656491756488,17.609584683066586],[78.56683441215014,17.609584683066586],[78.56683441215014,17.609854177651826],[78.56656491756488,17.609854177651826],[78.56656491756488,17.61012367223705],[78.56602592839445,17.61012367223705],[78.56602592839445,17.61039316682229],[78.5649479500535,17.61039316682229],[78.5649479500535,17.61012367223705],[78.56467845546823,17.61012367223705],[78.56467845546823,17.611201650577996],[78.56440896088301,17.611201650577996],[78.56440896088301,17.611471145163236],[78.5641394662978,17.611471145163236],[78.5641394662978,17.612010134333715],[78.56440896088301,17.612010134333715],[78.56440896088301,17.61227962891894],[78.56467845546823,17.61227962891894],[78.56467845546823,17.61254912350418],[78.5649479500535,17.61254912350418],[78.5649479500535,17.61281861808942],[78.56548693922397,17.61281861808942],[78.56548693922397,17.613088112674646],[78.56575643380918,17.613088112674646],[78.56575643380918,17.613627101845125],[78.56602592839445,17.613627101845125],[78.56602592839445,17.613896596430365],[78.56575643380918,17.613896596430365],[78.56575643380918,17.61416609101559],[78.56548693922397,17.61416609101559],[78.56548693922397,17.61443558560083],[78.56467845546823,17.61443558560083],[78.56467845546823,17.61470508018607],[78.56306148795684,17.61470508018607],[78.56306148795684,17.61443558560083],[78.56252249878636,17.61443558560083],[78.56252249878636,17.61470508018607],[78.56225300420115,17.61470508018607],[78.56225300420115,17.61443558560083],[78.56171401503067,17.61443558560083],[78.56171401503067,17.61416609101559],[78.56009704751924,17.61416609101559],[78.56009704751924,17.613896596430365],[78.5603665421045,17.613896596430365],[78.5603665421045,17.613627101845125],[78.5614445204454,17.613627101845125],[78.5614445204454,17.613357607259886],[78.56198350961589,17.613357607259886],[78.56198350961589,17.613088112674646],[78.56225300420115,17.613088112674646],[78.56225300420115,17.61227962891894],[78.5614445204454,17.61227962891894],[78.5614445204454,17.612010134333715],[78.56063603668971,17.612010134333715],[78.56063603668971,17.611740639748476],[78.56009704751924,17.611740639748476],[78.56009704751924,17.611201650577996],[78.55982755293402,17.611201650577996],[78.55982755293402,17.61039316682229],[78.55955805834876,17.61039316682229],[78.55955805834876,17.609854177651826],[78.56063603668971,17.609854177651826],[78.56063603668971,17.609315188481347],[78.56090553127493,17.609315188481347],[78.56090553127493,17.608237210140402],[78.5603665421045,17.608237210140402],[78.5603665421045,17.60850670472564],[78.56009704751924,17.60850670472564],[78.56009704751924,17.608237210140402],[78.55928856376354,17.608237210140402],[78.55928856376354,17.607967715555176],[78.55901906917828,17.607967715555176],[78.55901906917828,17.607698220969937],[78.55605462874072,17.607698220969937],[78.55605462874072,17.607159231799457],[78.55632412332594,17.607159231799457],[78.55632412332594,17.606081253458527],[78.55659361791115,17.606081253458527],[78.55659361791115,17.605542264288047],[78.55632412332594,17.605542264288047],[78.55632412332594,17.605272769702808],[78.55659361791115,17.605272769702808],[78.55659361791115,17.605003275117582],[78.55686311249642,17.605003275117582],[78.55686311249642,17.605542264288047],[78.55713260708163,17.605542264288047],[78.55713260708163,17.605811758873287],[78.5574021016669,17.605811758873287],[78.5574021016669,17.604733780532342],[78.55794109083737,17.604733780532342],[78.55794109083737,17.604464285947103],[78.55955805834876,17.604464285947103],[78.55955805834876,17.604194791361863],[78.56009704751924,17.604194791361863],[78.56009704751924,17.603925296776637],[78.5611750258602,17.603925296776637],[78.5611750258602,17.603655802191398],[78.56171401503067,17.603655802191398],[78.56171401503067,17.603386307606158]],[[78.56467845546823,17.61281861808942],[78.56467845546823,17.613357607259886],[78.5641394662978,17.613357607259886],[78.5641394662978,17.613088112674646],[78.56440896088301,17.613088112674646],[78.56440896088301,17.61281861808942],[78.56467845546823,17.61281861808942]],[[78.55686311249642,17.607159231799457],[78.55686311249642,17.607428726384697],[78.55632412332594,17.607428726384697],[78.55632412332594,17.607159231799457],[78.55686311249642,17.607159231799457]]]},"id":"+959434+246374","properties":{"count":816,"water":1}}]}