{"type":"FeatureCollection","features":[{"type":"Feature","geometry":{"geodesic":false,"type":"Polygon","coordinates":[[[78.31054506159083,17.351678364995877],[78.3108145561761,17.351678364995877],[78.3108145561761,17.351947859581102],[78.31135354534652,17.351947859581102],[78.31135354534652,17.35248684875158],[78.31162303993179,17.35248684875158],[78.31162303993179,17.35275634333682],[78.311892534517,17.35275634333682],[78.311892534517,17.353025837922047],[78.31216202910227,17.353025837922047],[78.31216202910227,17.353295332507287],[78.31377899661365,17.353295332507287],[78.31377899661365,17.353025837922047],[78.31350950202844,17.353025837922047],[78.31350950202844,17.35275634333682],[78.31431798578413,17.35275634333682],[78.31431798578413,17.353025837922047],[78.31485697495461,17.353025837922047],[78.31485697495461,17.353295332507287],[78.31539596412509,17.353295332507287],[78.31539596412509,17.353025837922047],[78.3156654587103,17.353025837922047],[78.3156654587103,17.35410381626299],[78.31512646953982,17.35410381626299],[78.31512646953982,17.35437331084823],[78.31485697495461,17.35437331084823],[78.31485697495461,17.354912300018697],[78.3145874803694,17.354912300018697],[78.3145874803694,17.355181794603936],[78.31431798578413,17.355181794603936],[78.31431798578413,17.355451289189176],[78.31404849119892,17.355451289189176],[78.31404849119892,17.357337751285826],[78.31377899661365,17.357337751285826],[78.31377899661365,17.357607245871066],[78.31350950202844,17.357607245871066],[78.31350950202844,17.358954718797236],[78.31377899661365,17.358954718797236],[78.31377899661365,17.359493707967715],[78.31350950202844,17.359493707967715],[78.31350950202844,17.36003269713818],[78.31377899661365,17.36003269713818],[78.31377899661365,17.36030219172342],[78.31404849119892,17.36030219172342],[78.31404849119892,17.361380170064365],[78.31431798578413,17.361380170064365],[78.31431798578413,17.361649664649605],[78.3145874803694,17.361649664649605],[78.3145874803694,17.36191915923483],[78.31485697495461,17.36191915923483],[78.31485697495461,17.36245814840531],[78.31512646953982,17.36245814840531],[78.31512646953982,17.36380562133148],[78.31485697495461,17.36380562133148],[78.31485697495461,17.36434461050196],[78.31512646953982,17.36434461050196],[78.31512646953982,17.3646141050872],[78.3156654587103,17.3646141050872],[78.3156654587103,17.364883599672424],[78.31593495329557,17.364883599672424],[78.31593495329557,17.365153094257664],[78.31620444788078,17.365153094257664],[78.31620444788078,17.365422588842904],[78.31701293163653,17.365422588842904],[78.31701293163653,17.36596157801337],[78.31728242622174,17.36596157801337],[78.31728242622174,17.36623107259861],[78.31755192080695,17.36623107259861],[78.31755192080695,17.366770061769074],[78.32105535041504,17.366770061769074],[78.32105535041504,17.367039556354314],[78.32132484500025,17.367039556354314],[78.32132484500025,17.367309050939554],[78.32159433958552,17.367309050939554],[78.32159433958552,17.36784804011002],[78.32132484500025,17.36784804011002],[78.32132484500025,17.3683870292805],[78.32105535041504,17.3683870292805],[78.32105535041504,17.368656523865724],[78.32051636124456,17.368656523865724],[78.32051636124456,17.368926018450964],[78.31997737207408,17.368926018450964],[78.31997737207408,17.368656523865724],[78.3194383829036,17.368656523865724],[78.3194383829036,17.3683870292805],[78.31916888831839,17.3683870292805],[78.31916888831839,17.36811753469526],[78.31889939373318,17.36811753469526],[78.31889939373318,17.36784804011002],[78.31862989914791,17.36784804011002],[78.31862989914791,17.367578545524793],[78.31809090997743,17.367578545524793],[78.31809090997743,17.367309050939554],[78.31782141539222,17.367309050939554],[78.31782141539222,17.367039556354314],[78.31755192080695,17.367039556354314],[78.31755192080695,17.366770061769074],[78.31728242622174,17.366770061769074],[78.31728242622174,17.36650056718385],[78.31701293163653,17.36650056718385],[78.31701293163653,17.36623107259861],[78.31647394246605,17.36623107259861],[78.31647394246605,17.36596157801337],[78.31620444788078,17.36596157801337],[78.31620444788078,17.36569208342813],[78.31593495329557,17.36569208342813],[78.31593495329557,17.365422588842904],[78.3156654587103,17.365422588842904],[78.3156654587103,17.365153094257664],[78.31512646953982,17.365153094257664],[78.31512646953982,17.364883599672424],[78.31485697495461,17.364883599672424],[78.31485697495461,17.3646141050872],[78.3145874803694,17.3646141050872],[78.3145874803694,17.36434461050196],[78.31431798578413,17.36434461050196],[78.31431798578413,17.36407511591672],[78.31404849119892,17.36407511591672],[78.31404849119892,17.363536126746254],[78.31377899661365,17.363536126746254],[78.31377899661365,17.363266632161015],[78.31350950202844,17.363266632161015],[78.31350950202844,17.362727642990535],[78.31324000744317,17.362727642990535],[78.31324000744317,17.36245814840531],[78.31297051285796,17.36245814840531],[78.31297051285796,17.36191915923483],[78.31270101827275,17.36191915923483],[78.31270101827275,17.361649664649605],[78.31243152368748,17.361649664649605],[78.31243152368748,17.361110675479125],[78.31216202910227,17.361110675479125],[78.31216202910227,17.360841180893885],[78.311892534517,17.360841180893885],[78.311892534517,17.36030219172342],[78.31162303993179,17.36030219172342],[78.31162303993179,17.36003269713818],[78.31135354534652,17.36003269713818],[78.31135354534652,17.359493707967715],[78.31108405076131,17.359493707967715],[78.31108405076131,17.359224213382475],[78.3108145561761,17.359224213382475],[78.3108145561761,17.358954718797236],[78.31054506159083,17.358954718797236],[78.31054506159083,17.35841572962677],[78.31027556700562,17.35841572962677],[78.31027556700562,17.35814623504153],[78.31000607242035,17.35814623504153],[78.31000607242035,17.357607245871066],[78.30973657783514,17.357607245871066],[78.30973657783514,17.357337751285826],[78.31000607242035,17.357337751285826],[78.31000607242035,17.35625977294488],[78.31027556700562,17.35625977294488],[78.31027556700562,17.35599027835964],[78.31054506159083,17.35599027835964],[78.31054506159083,17.355720783774416],[78.3108145561761,17.355720783774416],[78.3108145561761,17.355451289189176],[78.31108405076131,17.355451289189176],[78.31108405076131,17.353834321677752],[78.3108145561761,17.353834321677752],[78.3108145561761,17.353295332507287],[78.31108405076131,17.353295332507287],[78.31108405076131,17.35248684875158],[78.3108145561761,17.35248684875158],[78.3108145561761,17.351947859581102],[78.31054506159083,17.351947859581102],[78.31054506159083,17.351678364995877]]]},"id":"+958500+247308","properties":{"count":550,"water":1}},{"type":"Feature","geometry":{"geodesic":false,"type":"Polygon","coordinates":[[[78.33991997138153,17.31098468262526],[78.3401894659668,17.31098468262526],[78.3401894659668,17.311254177210486],[78.33991997138153,17.311254177210486],[78.33991997138153,17.31098468262526]]]},"id":"+958609+247459","properties":{"count":1,"water":1}},{"type":"Feature","geometry":{"geodesic":false,"type":"Polygon","coordinates":[[[78.34045896055201,17.309637209699076],[78.34072845513728,17.309637209699076],[78.34072845513728,17.309906704284316],[78.34099794972249,17.309906704284316],[78.34099794972249,17.310176198869556],[78.34072845513728,17.310176198869556],[78.34072845513728,17.31044569345478],[78.33991997138153,17.31044569345478],[78.33991997138153,17.310176198869556],[78.33965047679632,17.310176198869556],[78.33965047679632,17.309906704284316],[78.33991997138153,17.309906704284316],[78.33991997138153,17.309637209699076],[78.3401894659668,17.309637209699076],[78.3401894659668,17.309906704284316],[78.34045896055201,17.309906704284316],[78.34045896055201,17.309637209699076]]]},"id":"+958611+247464","properties":{"count":10,"water":1}},{"type":"Feature","geometry":{"geodesic":false,"type":"Polygon","coordinates":[[[78.34530986308627,17.365422588842904],[78.34638784142723,17.365422588842904],[78.34638784142723,17.36569208342813],[78.34611834684196,17.36569208342813],[78.34611834684196,17.36623107259861],[78.34557935767148,17.36623107259861],[78.34557935767148,17.36596157801337],[78.34530986308627,17.36596157801337],[78.34530986308627,17.365422588842904]]]},"id":"+958632+247257","properties":{"count":9,"water":1}},{"type":"Feature","geometry":{"geodesic":false,"type":"Polygon","coordinates":[[[78.34692683059765,17.298587931704404],[78.34719632518292,17.298587931704404],[78.34719632518292,17.298857426289644],[78.34692683059765,17.298857426289644],[78.34692683059765,17.298587931704404]]]},"id":"+958635+247505","properties":{"count":1,"water":1}},{"type":"Feature","geometry":{"geodesic":false,"type":"Polygon","coordinates":[[[78.34719632518292,17.299126920874883],[78.34746581976813,17.299126920874883],[78.34746581976813,17.29939641546011],[78.3477353143534,17.29939641546011],[78.3477353143534,17.29966591004535],[78.34800480893861,17.29966591004535],[78.34800480893861,17.300204899215828],[78.34827430352388,17.300204899215828],[78.34827430352388,17.300743888386293],[78.34854379810909,17.300743888386293],[78.34854379810909,17.301552372141998],[78.3488132926943,17.301552372141998],[78.3488132926943,17.302091361312478],[78.34908278727957,17.302091361312478],[78.34908278727957,17.302360855897703],[78.3488132926943,17.302360855897703],[78.3488132926943,17.302630350482943],[78.34827430352388,17.302630350482943],[78.34827430352388,17.302091361312478],[78.34800480893861,17.302091361312478],[78.34800480893861,17.300743888386293],[78.3477353143534,17.300743888386293],[78.3477353143534,17.299935404630588],[78.34746581976813,17.299935404630588],[78.34746581976813,17.29939641546011],[78.34719632518292,17.29939641546011],[78.34719632518292,17.299126920874883]]]},"id":"+958636+247503","properties":{"count":26,"water":1}},{"type":"Feature","geometry":{"geodesic":false,"type":"Polygon","coordinates":[[[78.34962177645005,17.29831843711918],[78.35043026020574,17.29831843711918],[78.35043026020574,17.298857426289644],[78.35069975479095,17.298857426289644],[78.35069975479095,17.29939641546011],[78.35096924937622,17.29939641546011],[78.35096924937622,17.29966591004535],[78.35123874396143,17.29966591004535],[78.35123874396143,17.299935404630588],[78.35177773313191,17.299935404630588],[78.35177773313191,17.300474393801053],[78.35204722771718,17.300474393801053],[78.35204722771718,17.301013382971533],[78.35231672230239,17.301013382971533],[78.35231672230239,17.302091361312478],[78.35204722771718,17.302091361312478],[78.35204722771718,17.302630350482943],[78.35231672230239,17.302630350482943],[78.35231672230239,17.302899845068183],[78.35258621688766,17.302899845068183],[78.35258621688766,17.303438834238648],[78.35285571147287,17.303438834238648],[78.35285571147287,17.303708328823888],[78.35312520605808,17.303708328823888],[78.35312520605808,17.303977823409127],[78.35339470064335,17.303977823409127],[78.35339470064335,17.304247317994367],[78.35555065732521,17.304247317994367],[78.35555065732521,17.303977823409127],[78.35582015191048,17.303977823409127],[78.35582015191048,17.302899845068183],[78.35608964649569,17.302899845068183],[78.35608964649569,17.302360855897703],[78.35635914108096,17.302360855897703],[78.35635914108096,17.302091361312478],[78.35662863566617,17.302091361312478],[78.35662863566617,17.301552372141998],[78.35689813025138,17.301552372141998],[78.35689813025138,17.301282877556773],[78.35716762483665,17.301282877556773],[78.35716762483665,17.301013382971533],[78.35797610859234,17.301013382971533],[78.35797610859234,17.300474393801053],[78.35851509776282,17.300474393801053],[78.35851509776282,17.299935404630588],[78.35878459234803,17.299935404630588],[78.35878459234803,17.29939641546011],[78.35986257068899,17.29939641546011],[78.35986257068899,17.29966591004535],[78.36013206527426,17.29966591004535],[78.36013206527426,17.29939641546011],[78.36040155985947,17.29939641546011],[78.36040155985947,17.299126920874883],[78.36094054902995,17.299126920874883],[78.36094054902995,17.29966591004535],[78.36067105444468,17.29966591004535],[78.36067105444468,17.299935404630588],[78.35986257068899,17.299935404630588],[78.35986257068899,17.300204899215828],[78.35959307610378,17.300204899215828],[78.35959307610378,17.300743888386293],[78.35878459234803,17.300743888386293],[78.35878459234803,17.301013382971533],[78.3590540869333,17.301013382971533],[78.3590540869333,17.301282877556773],[78.35932358151851,17.301282877556773],[78.35932358151851,17.302091361312478],[78.35959307610378,17.302091361312478],[78.35959307610378,17.302630350482943],[78.35986257068899,17.302630350482943],[78.35986257068899,17.303169339653422],[78.36013206527426,17.303169339653422],[78.36013206527426,17.303708328823888],[78.36040155985947,17.303708328823888],[78.36040155985947,17.303977823409127],[78.36067105444468,17.303977823409127],[78.36067105444468,17.304247317994367],[78.36147953820043,17.304247317994367],[78.36147953820043,17.303977823409127],[78.36228802195612,17.303977823409127],[78.36228802195612,17.304247317994367],[78.36255751654139,17.304247317994367],[78.36255751654139,17.304516812579593],[78.3628270111266,17.304516812579593],[78.3628270111266,17.304247317994367],[78.36309650571181,17.304247317994367],[78.36309650571181,17.303977823409127],[78.36336600029708,17.303977823409127],[78.36336600029708,17.303708328823888],[78.36471347322325,17.303708328823888],[78.36471347322325,17.303977823409127],[78.36525246239373,17.303977823409127],[78.36525246239373,17.303708328823888],[78.3657914515642,17.303708328823888],[78.3657914515642,17.303977823409127],[78.36606094614942,17.303977823409127],[78.36606094614942,17.304516812579593],[78.36633044073469,17.304516812579593],[78.36633044073469,17.304786307164832],[78.3665999353199,17.304786307164832],[78.3665999353199,17.305055801750072],[78.36740841907559,17.305055801750072],[78.36740841907559,17.305864285505777],[78.36767791366086,17.305864285505777],[78.36767791366086,17.306133780091017],[78.36794740824607,17.306133780091017],[78.36794740824607,17.306403274676242],[78.36821690283134,17.306403274676242],[78.36821690283134,17.306672769261482],[78.36848639741655,17.306672769261482],[78.36848639741655,17.30694226384672],[78.36875589200176,17.30694226384672],[78.36875589200176,17.307481253017187],[78.36902538658703,17.307481253017187],[78.36902538658703,17.30909822052861],[78.36794740824607,17.30909822052861],[78.36794740824607,17.309367715113837],[78.36767791366086,17.309367715113837],[78.36767791366086,17.31098468262526],[78.36740841907559,17.31098468262526],[78.36740841907559,17.311793166380966],[78.36713892449038,17.311793166380966],[78.36713892449038,17.31233215555143],[78.3665999353199,17.31233215555143],[78.3665999353199,17.312062660966205],[78.3657914515642,17.312062660966205],[78.3657914515642,17.31233215555143],[78.36552195697894,17.31233215555143],[78.36552195697894,17.31260165013667],[78.36498296780846,17.31260165013667],[78.36498296780846,17.31314063930715],[78.36471347322325,17.31314063930715],[78.36471347322325,17.313410133892376],[78.36444397863804,17.313410133892376],[78.36444397863804,17.313949123062855],[78.36417448405277,17.313949123062855],[78.36417448405277,17.31448811223332],[78.36498296780846,17.31448811223332],[78.36498296780846,17.31475760681856],[78.36525246239373,17.31475760681856],[78.36525246239373,17.3150271014038],[78.36498296780846,17.3150271014038],[78.36498296780846,17.315296595989025],[78.36471347322325,17.315296595989025],[78.36471347322325,17.315835585159505],[78.36417448405277,17.315835585159505],[78.36417448405277,17.31637457432997],[78.36471347322325,17.31637457432997],[78.36471347322325,17.31664406891521],[78.36525246239373,17.31664406891521],[78.36525246239373,17.316105079744744],[78.36552195697894,17.316105079744744],[78.36552195697894,17.31637457432997],[78.3657914515642,17.31637457432997],[78.3657914515642,17.31691356350045],[78.36633044073469,17.31691356350045],[78.36633044073469,17.31664406891521],[78.3665999353199,17.31664406891521],[78.3665999353199,17.316105079744744],[78.36767791366086,17.316105079744744],[78.36767791366086,17.315566090574265],[78.36821690283134,17.315566090574265],[78.36821690283134,17.315296595989025],[78.3695643757575,17.315296595989025],[78.3695643757575,17.315835585159505],[78.37010336492799,17.315835585159505],[78.37010336492799,17.316105079744744],[78.37064235409841,17.316105079744744],[78.37064235409841,17.31637457432997],[78.37091184868368,17.31637457432997],[78.37091184868368,17.317183058085675],[78.37064235409841,17.317183058085675],[78.37064235409841,17.317452552670915],[78.3703728595132,17.317452552670915],[78.3703728595132,17.317722047256154],[78.36983387034272,17.317722047256154],[78.36983387034272,17.317991541841394],[78.3695643757575,17.317991541841394],[78.3695643757575,17.31826103642662],[78.36983387034272,17.31826103642662],[78.36983387034272,17.31853053101186],[78.3703728595132,17.31853053101186],[78.3703728595132,17.32014749852327],[78.37064235409841,17.32014749852327],[78.37064235409841,17.321494971449454],[78.3703728595132,17.321494971449454],[78.3703728595132,17.322033960619933],[78.37010336492799,17.322033960619933],[78.37010336492799,17.3225729497904],[78.36983387034272,17.3225729497904],[78.36983387034272,17.322842444375638],[78.36929488117224,17.322842444375638],[78.36929488117224,17.323111938960864],[78.36902538658703,17.323111938960864],[78.36902538658703,17.323650928131343],[78.36875589200176,17.323650928131343],[78.36875589200176,17.32418991730181],[78.36848639741655,17.32418991730181],[78.36848639741655,17.324728906472288],[78.36821690283134,17.324728906472288],[78.36821690283134,17.324998401057528],[78.36794740824607,17.324998401057528],[78.36794740824607,17.325537390227993],[78.36767791366086,17.325537390227993],[78.36767791366086,17.325806884813233],[78.36740841907559,17.325806884813233],[78.36740841907559,17.326345873983698],[78.36713892449038,17.326345873983698],[78.36713892449038,17.326884863154177],[78.36686942990511,17.326884863154177],[78.36686942990511,17.327154357739403],[78.3665999353199,17.327154357739403],[78.3665999353199,17.327693346909882],[78.36633044073469,17.327693346909882],[78.36633044073469,17.328232336080347],[78.36606094614942,17.328232336080347],[78.36606094614942,17.328501830665587],[78.3657914515642,17.328501830665587],[78.3657914515642,17.329040819836067],[78.36525246239373,17.329040819836067],[78.36525246239373,17.329310314421292],[78.36498296780846,17.329310314421292],[78.36498296780846,17.329579809006532],[78.36471347322325,17.329579809006532],[78.36471347322325,17.32984930359177],[78.36444397863804,17.32984930359177],[78.36444397863804,17.330388292762237],[78.36417448405277,17.330388292762237],[78.36417448405277,17.330657787347477],[78.36390498946756,17.330657787347477],[78.36390498946756,17.32984930359177],[78.36336600029708,17.32984930359177],[78.36336600029708,17.330118798176997],[78.36309650571181,17.330118798176997],[78.36309650571181,17.330388292762237],[78.3628270111266,17.330388292762237],[78.3628270111266,17.330927281932716],[78.36255751654139,17.330927281932716],[78.36255751654139,17.332274754858886],[78.3620185273709,17.332274754858886],[78.3620185273709,17.332544249444126],[78.36040155985947,17.332544249444126],[78.36040155985947,17.33362222778507],[78.36067105444468,17.33362222778507],[78.36067105444468,17.33389172237031],[78.36121004361516,17.33389172237031],[78.36121004361516,17.334430711540776],[78.36094054902995,17.334430711540776],[78.36094054902995,17.334700206126016],[78.36067105444468,17.334700206126016],[78.36067105444468,17.334969700711255],[78.36013206527426,17.334969700711255],[78.36013206527426,17.33523919529648],[78.35959307610378,17.33523919529648],[78.35959307610378,17.33550868988172],[78.35932358151851,17.33550868988172],[78.35932358151851,17.33577818446696],[78.3590540869333,17.33577818446696],[78.3590540869333,17.336047679052186],[78.35878459234803,17.336047679052186],[78.35878459234803,17.336586668222665],[78.3590540869333,17.336586668222665],[78.3590540869333,17.33739515197837],[78.35824560317761,17.33739515197837],[78.35824560317761,17.33793414114885],[78.35851509776282,17.33793414114885],[78.35851509776282,17.33766464656361],[78.35878459234803,17.33766464656361],[78.35878459234803,17.33793414114885],[78.35851509776282,17.33793414114885],[78.35851509776282,17.338203635734075],[78.35824560317761,17.338203635734075],[78.35824560317761,17.338473130319315],[78.35797610859234,17.338473130319315],[78.35797610859234,17.33928161407502],[78.35770661400713,17.33928161407502],[78.35770661400713,17.33955110866026],[78.35716762483665,17.33955110866026],[78.35716762483665,17.33928161407502],[78.35608964649569,17.33928161407502],[78.35608964649569,17.340359592415965],[78.35635914108096,17.340359592415965],[78.35635914108096,17.340898581586444],[78.35608964649569,17.340898581586444],[78.35608964649569,17.34116807617167],[78.35555065732521,17.34116807617167],[78.35555065732521,17.34170706534215],[78.35528116274,17.34170706534215],[78.35528116274,17.342246054512614],[78.35501166815473,17.342246054512614],[78.35501166815473,17.34116807617167],[78.35474217356952,17.34116807617167],[78.35474217356952,17.340359592415965],[78.35447267898431,17.340359592415965],[78.35447267898431,17.340090097830725],[78.35474217356952,17.340090097830725],[78.35474217356952,17.3398206032455],[78.35393368981383,17.3398206032455],[78.35393368981383,17.340090097830725],[78.35366419522856,17.340090097830725],[78.35366419522856,17.340629087001204],[78.35339470064335,17.340629087001204],[78.35339470064335,17.34116807617167],[78.35312520605808,17.34116807617167],[78.35312520605808,17.340898581586444],[78.35285571147287,17.340898581586444],[78.35285571147287,17.340629087001204],[78.35339470064335,17.340629087001204],[78.35339470064335,17.3398206032455],[78.35312520605808,17.3398206032455],[78.35312520605808,17.33955110866026],[78.35231672230239,17.33955110866026],[78.35231672230239,17.3398206032455],[78.35204722771718,17.3398206032455],[78.35204722771718,17.340090097830725],[78.35231672230239,17.340090097830725],[78.35231672230239,17.340898581586444],[78.35204722771718,17.340898581586444],[78.35204722771718,17.340629087001204],[78.35123874396143,17.340629087001204],[78.35123874396143,17.340359592415965],[78.35043026020574,17.340359592415965],[78.35043026020574,17.340629087001204],[78.34989127103526,17.340629087001204],[78.34989127103526,17.340359592415965],[78.34962177645005,17.340359592415965],[78.34962177645005,17.340090097830725],[78.34935228186478,17.340090097830725],[78.34935228186478,17.33955110866026],[78.34962177645005,17.33955110866026],[78.34962177645005,17.33928161407502],[78.35016076562053,17.33928161407502],[78.35016076562053,17.33901211948978],[78.35069975479095,17.33901211948978],[78.35069975479095,17.338742624904555],[78.35096924937622,17.338742624904555],[78.35096924937622,17.338473130319315],[78.35123874396143,17.338473130319315],[78.35123874396143,17.336856162807905],[78.35231672230239,17.336856162807905],[78.35231672230239,17.336586668222665],[78.35285571147287,17.336586668222665],[78.35285571147287,17.336317173637426],[78.35339470064335,17.336317173637426],[78.35339470064335,17.33577818446696],[78.35366419522856,17.33577818446696],[78.35366419522856,17.33550868988172],[78.35393368981383,17.33550868988172],[78.35393368981383,17.33523919529648],[78.35420318439904,17.33523919529648],[78.35420318439904,17.334969700711255],[78.35447267898431,17.334969700711255],[78.35447267898431,17.334430711540776],[78.35474217356952,17.334430711540776],[78.35474217356952,17.33389172237031],[78.35501166815473,17.33389172237031],[78.35501166815473,17.33335273319983],[78.35447267898431,17.33335273319983],[78.35447267898431,17.33308323861459],[78.35420318439904,17.33308323861459],[78.35420318439904,17.332813744029366],[78.35393368981383,17.332813744029366],[78.35393368981383,17.332544249444126],[78.35366419522856,17.332544249444126],[78.35366419522856,17.33200526027366],[78.35339470064335,17.33200526027366],[78.35339470064335,17.33119677651794],[78.35366419522856,17.33119677651794],[78.35366419522856,17.330657787347477],[78.35420318439904,17.330657787347477],[78.35420318439904,17.330118798176997],[78.35447267898431,17.330118798176997],[78.35447267898431,17.329579809006532],[78.35420318439904,17.329579809006532],[78.35420318439904,17.329310314421292],[78.35231672230239,17.329310314421292],[78.35231672230239,17.329579809006532],[78.35096924937622,17.329579809006532],[78.35096924937622,17.329310314421292],[78.35069975479095,17.329310314421292],[78.35069975479095,17.329040819836067],[78.35043026020574,17.329040819836067],[78.35043026020574,17.328501830665587],[78.34989127103526,17.328501830665587],[78.34989127103526,17.328232336080347],[78.34962177645005,17.328232336080347],[78.34962177645005,17.327962841495122],[78.34935228186478,17.327962841495122],[78.34935228186478,17.327423852324642],[78.34908278727957,17.327423852324642],[78.34908278727957,17.327154357739403],[78.3488132926943,17.327154357739403],[78.3488132926943,17.326884863154177],[78.34854379810909,17.326884863154177],[78.34854379810909,17.326615368568937],[78.34827430352388,17.326615368568937],[78.34827430352388,17.326345873983698],[78.34800480893861,17.326345873983698],[78.34800480893861,17.326076379398472],[78.34746581976813,17.326076379398472],[78.34746581976813,17.325806884813233],[78.34692683059765,17.325806884813233],[78.34692683059765,17.326076379398472],[78.34611834684196,17.326076379398472],[78.34611834684196,17.326345873983698],[78.34584885225675,17.326345873983698],[78.34584885225675,17.326884863154177],[78.34557935767148,17.326884863154177],[78.34557935767148,17.327154357739403],[78.345040368501,17.327154357739403],[78.345040368501,17.327423852324642],[78.34477087391579,17.327423852324642],[78.34477087391579,17.327693346909882],[78.34423188474531,17.327693346909882],[78.34423188474531,17.327423852324642],[78.3439623901601,17.327423852324642],[78.3439623901601,17.327154357739403],[78.34369289557483,17.327154357739403],[78.34369289557483,17.326615368568937],[78.34315390640435,17.326615368568937],[78.34315390640435,17.326345873983698],[78.34369289557483,17.326345873983698],[78.34369289557483,17.326076379398472],[78.3439623901601,17.326076379398472],[78.3439623901601,17.325806884813233],[78.34423188474531,17.325806884813233],[78.34423188474531,17.324998401057528],[78.34450137933058,17.324998401057528],[78.34450137933058,17.323920422716583],[78.34477087391579,17.323920422716583],[78.34477087391579,17.323650928131343],[78.34530986308627,17.323650928131343],[78.34530986308627,17.323381433546103],[78.34611834684196,17.323381433546103],[78.34611834684196,17.323111938960864],[78.34638784142723,17.323111938960864],[78.34638784142723,17.322842444375638],[78.34665733601244,17.322842444375638],[78.34665733601244,17.3225729497904],[78.34692683059765,17.3225729497904],[78.34692683059765,17.32230345520516],[78.34719632518292,17.32230345520516],[78.34719632518292,17.322033960619933],[78.34746581976813,17.322033960619933],[78.34746581976813,17.321764466034693],[78.3477353143534,17.321764466034693],[78.3477353143534,17.321494971449454],[78.34800480893861,17.321494971449454],[78.34800480893861,17.32095598227899],[78.34827430352388,17.32095598227899],[78.34827430352388,17.32041699310851],[78.34854379810909,17.32041699310851],[78.34854379810909,17.32014749852327],[78.35016076562053,17.32014749852327],[78.35016076562053,17.32041699310851],[78.35123874396143,17.32041699310851],[78.35123874396143,17.32068648769375],[78.3515082385467,17.32068648769375],[78.3515082385467,17.32041699310851],[78.35177773313191,17.32041699310851],[78.35177773313191,17.32014749852327],[78.35204722771718,17.32014749852327],[78.35204722771718,17.319878003938044],[78.35231672230239,17.319878003938044],[78.35231672230239,17.319339014767564],[78.35258621688766,17.319339014767564],[78.35258621688766,17.3188000255971],[78.35231672230239,17.3188000255971],[78.35231672230239,17.317722047256154],[78.35204722771718,17.317722047256154],[78.35204722771718,17.317452552670915],[78.35177773313191,17.317452552670915],[78.35177773313191,17.317183058085675],[78.3515082385467,17.317183058085675],[78.3515082385467,17.316105079744744],[78.35177773313191,17.316105079744744],[78.35177773313191,17.315296595989025],[78.35204722771718,17.315296595989025],[78.35204722771718,17.3150271014038],[78.35177773313191,17.3150271014038],[78.35177773313191,17.31421861764808],[78.3515082385467,17.31421861764808],[78.3515082385467,17.313949123062855],[78.35123874396143,17.313949123062855],[78.35123874396143,17.313679628477615],[78.35096924937622,17.313679628477615],[78.35096924937622,17.313410133892376],[78.35043026020574,17.313410133892376],[78.35043026020574,17.31260165013667],[78.35069975479095,17.31260165013667],[78.35069975479095,17.312062660966205],[78.35096924937622,17.312062660966205],[78.35096924937622,17.311793166380966],[78.35123874396143,17.311793166380966],[78.35123874396143,17.311254177210486],[78.3515082385467,17.311254177210486],[78.3515082385467,17.309367715113837],[78.35123874396143,17.309367715113837],[78.35123874396143,17.30909822052861],[78.35069975479095,17.30909822052861],[78.35069975479095,17.30882872594337],[78.35043026020574,17.30882872594337],[78.35043026020574,17.30855923135813],[78.34962177645005,17.30855923135813],[78.34962177645005,17.30882872594337],[78.34908278727957,17.30882872594337],[78.34908278727957,17.30909822052861],[78.34854379810909,17.30909822052861],[78.34854379810909,17.30882872594337],[78.34746581976813,17.30882872594337],[78.34746581976813,17.30855923135813],[78.34692683059765,17.30855923135813],[78.34692683059765,17.308289736772892],[78.34665733601244,17.308289736772892],[78.34665733601244,17.307481253017187],[78.34692683059765,17.307481253017187],[78.34692683059765,17.30721175843196],[78.34638784142723,17.30721175843196],[78.34638784142723,17.30694226384672],[78.34611834684196,17.30694226384672],[78.34611834684196,17.306672769261482],[78.34557935767148,17.306672769261482],[78.34557935767148,17.306403274676242],[78.34530986308627,17.306403274676242],[78.34530986308627,17.306133780091017],[78.34477087391579,17.306133780091017],[78.34477087391579,17.306403274676242],[78.34450137933058,17.306403274676242],[78.34450137933058,17.30694226384672],[78.34423188474531,17.30694226384672],[78.34423188474531,17.307750747602427],[78.3439623901601,17.307750747602427],[78.3439623901601,17.308020242187666],[78.34342340098962,17.308020242187666],[78.34342340098962,17.308289736772892],[78.34288441181914,17.308289736772892],[78.34288441181914,17.30855923135813],[78.34234542264866,17.30855923135813],[78.34234542264866,17.30882872594337],[78.34180643347818,17.30882872594337],[78.34180643347818,17.309367715113837],[78.34153693889297,17.309367715113837],[78.34153693889297,17.30909822052861],[78.34099794972249,17.30909822052861],[78.34099794972249,17.30882872594337],[78.34072845513728,17.30882872594337],[78.34072845513728,17.30855923135813],[78.3401894659668,17.30855923135813],[78.3401894659668,17.308289736772892],[78.34045896055201,17.308289736772892],[78.34045896055201,17.308020242187666],[78.34072845513728,17.308020242187666],[78.34072845513728,17.307750747602427],[78.34099794972249,17.307750747602427],[78.34099794972249,17.306672769261482],[78.3412674443077,17.306672769261482],[78.3412674443077,17.305055801750072],[78.34153693889297,17.305055801750072],[78.34153693889297,17.304247317994367],[78.3412674443077,17.304247317994367],[78.3412674443077,17.303169339653422],[78.34153693889297,17.303169339653422],[78.34153693889297,17.302899845068183],[78.34207592806345,17.302899845068183],[78.34207592806345,17.302630350482943],[78.34261491723393,17.302630350482943],[78.34261491723393,17.302360855897703],[78.34342340098962,17.302360855897703],[78.34342340098962,17.302091361312478],[78.34423188474531,17.302091361312478],[78.34423188474531,17.301821866727238],[78.34557935767148,17.301821866727238],[78.34557935767148,17.301552372141998],[78.34611834684196,17.301552372141998],[78.34611834684196,17.301821866727238],[78.34665733601244,17.301821866727238],[78.34665733601244,17.301552372141998],[78.34719632518292,17.301552372141998],[78.34719632518292,17.301821866727238],[78.34746581976813,17.301821866727238],[78.34746581976813,17.302360855897703],[78.34800480893861,17.302360855897703],[78.34800480893861,17.302899845068183],[78.3477353143534,17.302899845068183],[78.3477353143534,17.303169339653422],[78.34800480893861,17.303169339653422],[78.34800480893861,17.303438834238648],[78.3488132926943,17.303438834238648],[78.3488132926943,17.303708328823888],[78.34935228186478,17.303708328823888],[78.34935228186478,17.303438834238648],[78.34962177645005,17.303438834238648],[78.34962177645005,17.303169339653422],[78.34989127103526,17.303169339653422],[78.34989127103526,17.302899845068183],[78.34962177645005,17.302899845068183],[78.34962177645005,17.302630350482943],[78.34935228186478,17.302630350482943],[78.34935228186478,17.302091361312478],[78.34962177645005,17.302091361312478],[78.34962177645005,17.300743888386293],[78.34989127103526,17.300743888386293],[78.34989127103526,17.298587931704404],[78.34962177645005,17.298587931704404],[78.34962177645005,17.29831843711918]],[[78.35555065732521,17.3398206032455],[78.35555065732521,17.340090097830725],[78.35528116274,17.340090097830725],[78.35528116274,17.3398206032455],[78.35555065732521,17.3398206032455]],[[78.36417448405277,17.3150271014038],[78.36417448405277,17.315296595989025],[78.36444397863804,17.315296595989025],[78.36444397863804,17.315566090574265],[78.36390498946756,17.315566090574265],[78.36390498946756,17.3150271014038],[78.36417448405277,17.3150271014038]],[[78.34450137933058,17.305864285505777],[78.34450137933058,17.306133780091017],[78.34423188474531,17.306133780091017],[78.34423188474531,17.305864285505777],[78.34450137933058,17.305864285505777]],[[78.35016076562053,17.303169339653422],[78.35016076562053,17.303438834238648],[78.34989127103526,17.303438834238648],[78.34989127103526,17.303169339653422],[78.35016076562053,17.303169339653422]],[[78.34746581976813,17.302360855897703],[78.34746581976813,17.302899845068183],[78.34692683059765,17.302899845068183],[78.34692683059765,17.302360855897703],[78.34746581976813,17.302360855897703]]]},"id":"+958647+247506","properties":{"count":8536,"water":1}},{"type":"Feature","geometry":{"geodesic":false,"type":"Polygon","coordinates":[[[78.35312520605808,17.371890458888558],[78.35366419522856,17.371890458888558],[78.35366419522856,17.372159953473798],[78.35312520605808,17.372159953473798],[78.35312520605808,17.371890458888558]]]},"id":"+958659+247233","properties":{"count":2,"water":1}},{"type":"Feature","geometry":{"geodesic":false,"type":"Polygon","coordinates":[[[78.35447267898431,17.342515549097854],[78.35474217356952,17.342515549097854],[78.35474217356952,17.342785043683094],[78.35447267898431,17.342785043683094],[78.35447267898431,17.342515549097854]]]},"id":"+958663+247342","properties":{"count":1,"water":1}},{"type":"Feature","geometry":{"geodesic":false,"type":"Polygon","coordinates":[[[78.35582015191048,17.34170706534215],[78.35608964649569,17.34170706534215],[78.35608964649569,17.341976559927375],[78.35582015191048,17.341976559927375],[78.35582015191048,17.34170706534215]]]},"id":"+958668+247345","properties":{"count":1,"water":1}},{"type":"Feature","geometry":{"geodesic":false,"type":"Polygon","coordinates":[[[78.36983387034272,17.306672769261482],[78.37010336492799,17.306672769261482],[78.37010336492799,17.30721175843196],[78.37064235409841,17.30721175843196],[78.37064235409841,17.307481253017187],[78.37118134326889,17.307481253017187],[78.37118134326889,17.307750747602427],[78.37064235409841,17.307750747602427],[78.37064235409841,17.308020242187666],[78.3703728595132,17.308020242187666],[78.3703728595132,17.30855923135813],[78.37010336492799,17.30855923135813],[78.37010336492799,17.30909822052861],[78.36983387034272,17.30909822052861],[78.36983387034272,17.309367715113837],[78.36929488117224,17.309367715113837],[78.36929488117224,17.30721175843196],[78.3695643757575,17.30721175843196],[78.3695643757575,17.30694226384672],[78.36983387034272,17.30694226384672],[78.36983387034272,17.306672769261482]]]},"id":"+958720+247475","properties":{"count":36,"water":1}},{"type":"Feature","geometry":{"geodesic":false,"type":"Polygon","coordinates":[[[78.37980516999644,17.302360855897703],[78.38007466458171,17.302360855897703],[78.38007466458171,17.303169339653422],[78.37980516999644,17.303169339653422],[78.37980516999644,17.302360855897703]]]},"id":"+958757+247491","properties":{"count":3,"water":1}}]}