{
"type": "FeatureCollection",
"name": "Himayat_Sagar_boundary",
"crs": { "type": "name", "properties": { "name": "urn:ogc:def:crs:OGC:1.3:CRS84" } },
"features": [
{ "type": "Feature", "properties": { }, "geometry": { "type": "Polygon", "coordinates": [ [ [ 78.34962177645005, 17.298318437119178 ], [ 78.350430260205741, 17.298318437119178 ], [ 78.350430260205741, 17.298857426289644 ], [ 78.350699754790952, 17.298857426289644 ], [ 78.350699754790952, 17.299396415460109 ], [ 78.35096924937622, 17.299396415460109 ], [ 78.35096924937622, 17.299665910045348 ], [ 78.351238743961432, 17.299665910045348 ], [ 78.351238743961432, 17.299935404630588 ], [ 78.351777733131911, 17.299935404630588 ], [ 78.351777733131911, 17.300474393801053 ], [ 78.352047227717179, 17.300474393801053 ], [ 78.352047227717179, 17.301013382971533 ], [ 78.35231672230239, 17.301013382971533 ], [ 78.35231672230239, 17.302091361312478 ], [ 78.352047227717179, 17.302091361312478 ], [ 78.352047227717179, 17.302630350482943 ], [ 78.35231672230239, 17.302630350482943 ], [ 78.35231672230239, 17.302899845068183 ], [ 78.352586216887659, 17.302899845068183 ], [ 78.352586216887659, 17.303438834238648 ], [ 78.35285571147287, 17.303438834238648 ], [ 78.35285571147287, 17.303708328823888 ], [ 78.353125206058081, 17.303708328823888 ], [ 78.353125206058081, 17.303977823409127 ], [ 78.353394700643349, 17.303977823409127 ], [ 78.353394700643349, 17.304247317994367 ], [ 78.35555065732521, 17.304247317994367 ], [ 78.35555065732521, 17.303977823409127 ], [ 78.355820151910478, 17.303977823409127 ], [ 78.355820151910478, 17.302899845068183 ], [ 78.35608964649569, 17.302899845068183 ], [ 78.35608964649569, 17.302360855897703 ], [ 78.356359141080958, 17.302360855897703 ], [ 78.356359141080958, 17.302091361312478 ], [ 78.356628635666169, 17.302091361312478 ], [ 78.356628635666169, 17.301552372141998 ], [ 78.356898130251381, 17.301552372141998 ], [ 78.356898130251381, 17.301282877556773 ], [ 78.357167624836649, 17.301282877556773 ], [ 78.357167624836649, 17.301013382971533 ], [ 78.357976108592339, 17.301013382971533 ], [ 78.357976108592339, 17.300474393801053 ], [ 78.358515097762819, 17.300474393801053 ], [ 78.358515097762819, 17.299935404630588 ], [ 78.35878459234803, 17.299935404630588 ], [ 78.35878459234803, 17.299396415460109 ], [ 78.359862570688989, 17.299396415460109 ], [ 78.359862570688989, 17.299665910045348 ], [ 78.360132065274257, 17.299665910045348 ], [ 78.360132065274257, 17.299396415460109 ], [ 78.360401559859469, 17.299396415460109 ], [ 78.360401559859469, 17.299126920874883 ], [ 78.360940549029948, 17.299126920874883 ], [ 78.360940549029948, 17.299665910045348 ], [ 78.36067105444468, 17.299665910045348 ], [ 78.36067105444468, 17.299935404630588 ], [ 78.359862570688989, 17.299935404630588 ], [ 78.359862570688989, 17.300204899215828 ], [ 78.359593076103778, 17.300204899215828 ], [ 78.359593076103778, 17.300743888386293 ], [ 78.35878459234803, 17.300743888386293 ], [ 78.35878459234803, 17.301013382971533 ], [ 78.359054086933298, 17.301013382971533 ], [ 78.359054086933298, 17.301282877556773 ], [ 78.35932358151851, 17.301282877556773 ], [ 78.35932358151851, 17.302091361312478 ], [ 78.359593076103778, 17.302091361312478 ], [ 78.359593076103778, 17.302630350482943 ], [ 78.359862570688989, 17.302630350482943 ], [ 78.359862570688989, 17.303169339653422 ], [ 78.360132065274257, 17.303169339653422 ], [ 78.360132065274257, 17.303708328823888 ], [ 78.360401559859469, 17.303708328823888 ], [ 78.360401559859469, 17.303977823409127 ], [ 78.36067105444468, 17.303977823409127 ], [ 78.36067105444468, 17.304247317994367 ], [ 78.361479538200427, 17.304247317994367 ], [ 78.361479538200427, 17.303977823409127 ], [ 78.362288021956118, 17.303977823409127 ], [ 78.362288021956118, 17.304247317994367 ], [ 78.362557516541386, 17.304247317994367 ], [ 78.362557516541386, 17.304516812579593 ], [ 78.362827011126598, 17.304516812579593 ], [ 78.362827011126598, 17.304247317994367 ], [ 78.363096505711809, 17.304247317994367 ], [ 78.363096505711809, 17.303977823409127 ], [ 78.363366000297077, 17.303977823409127 ], [ 78.363366000297077, 17.303708328823888 ], [ 78.364713473223247, 17.303708328823888 ], [ 78.364713473223247, 17.303977823409127 ], [ 78.365252462393727, 17.303977823409127 ], [ 78.365252462393727, 17.303708328823888 ], [ 78.365791451564206, 17.303708328823888 ], [ 78.365791451564206, 17.303977823409127 ], [ 78.366060946149418, 17.303977823409127 ], [ 78.366060946149418, 17.304516812579593 ], [ 78.366330440734686, 17.304516812579593 ], [ 78.366330440734686, 17.304786307164832 ], [ 78.366599935319897, 17.304786307164832 ], [ 78.366599935319897, 17.305055801750072 ], [ 78.367408419075588, 17.305055801750072 ], [ 78.367408419075588, 17.305864285505777 ], [ 78.367677913660856, 17.305864285505777 ], [ 78.367677913660856, 17.306133780091017 ], [ 78.367947408246067, 17.306133780091017 ], [ 78.367947408246067, 17.306403274676242 ], [ 78.368216902831335, 17.306403274676242 ], [ 78.368216902831335, 17.306672769261482 ], [ 78.368486397416547, 17.306672769261482 ], [ 78.368486397416547, 17.306942263846722 ], [ 78.368755892001758, 17.306942263846722 ], [ 78.368755892001758, 17.307481253017187 ], [ 78.369025386587026, 17.307481253017187 ], [ 78.369025386587026, 17.309098220528611 ], [ 78.367947408246067, 17.309098220528611 ], [ 78.367947408246067, 17.309367715113837 ], [ 78.367677913660856, 17.309367715113837 ], [ 78.367677913660856, 17.310984682625261 ], [ 78.367408419075588, 17.310984682625261 ], [ 78.367408419075588, 17.311793166380966 ], [ 78.367138924490376, 17.311793166380966 ], [ 78.367138924490376, 17.312332155551431 ], [ 78.366599935319897, 17.312332155551431 ], [ 78.366599935319897, 17.312062660966205 ], [ 78.365791451564206, 17.312062660966205 ], [ 78.365791451564206, 17.312332155551431 ], [ 78.365521956978938, 17.312332155551431 ], [ 78.365521956978938, 17.312601650136671 ], [ 78.364982967808459, 17.312601650136671 ], [ 78.364982967808459, 17.31314063930715 ], [ 78.364713473223247, 17.31314063930715 ], [ 78.364713473223247, 17.313410133892376 ], [ 78.364443978638036, 17.313410133892376 ], [ 78.364443978638036, 17.313949123062855 ], [ 78.364174484052768, 17.313949123062855 ], [ 78.364174484052768, 17.31448811223332 ], [ 78.364982967808459, 17.31448811223332 ], [ 78.364982967808459, 17.31475760681856 ], [ 78.365252462393727, 17.31475760681856 ], [ 78.365252462393727, 17.3150271014038 ], [ 78.364982967808459, 17.3150271014038 ], [ 78.364982967808459, 17.315296595989025 ], [ 78.364713473223247, 17.315296595989025 ], [ 78.364713473223247, 17.315835585159505 ], [ 78.364174484052768, 17.315835585159505 ], [ 78.364174484052768, 17.31637457432997 ], [ 78.364713473223247, 17.31637457432997 ], [ 78.364713473223247, 17.31664406891521 ], [ 78.365252462393727, 17.31664406891521 ], [ 78.365252462393727, 17.316105079744744 ], [ 78.365521956978938, 17.316105079744744 ], [ 78.365521956978938, 17.31637457432997 ], [ 78.365791451564206, 17.31637457432997 ], [ 78.365791451564206, 17.316913563500449 ], [ 78.366330440734686, 17.316913563500449 ], [ 78.366330440734686, 17.31664406891521 ], [ 78.366599935319897, 17.31664406891521 ], [ 78.366599935319897, 17.316105079744744 ], [ 78.367677913660856, 17.316105079744744 ], [ 78.367677913660856, 17.315566090574265 ], [ 78.368216902831335, 17.315566090574265 ], [ 78.368216902831335, 17.315296595989025 ], [ 78.369564375757506, 17.315296595989025 ], [ 78.369564375757506, 17.315835585159505 ], [ 78.370103364927985, 17.315835585159505 ], [ 78.370103364927985, 17.316105079744744 ], [ 78.370642354098408, 17.316105079744744 ], [ 78.370642354098408, 17.31637457432997 ], [ 78.370911848683676, 17.31637457432997 ], [ 78.370911848683676, 17.317183058085675 ], [ 78.370642354098408, 17.317183058085675 ], [ 78.370642354098408, 17.317452552670915 ], [ 78.370372859513196, 17.317452552670915 ], [ 78.370372859513196, 17.317722047256154 ], [ 78.369833870342717, 17.317722047256154 ], [ 78.369833870342717, 17.317991541841394 ], [ 78.369564375757506, 17.317991541841394 ], [ 78.369564375757506, 17.31826103642662 ], [ 78.369833870342717, 17.31826103642662 ], [ 78.369833870342717, 17.318530531011859 ], [ 78.370372859513196, 17.318530531011859 ], [ 78.370372859513196, 17.320147498523269 ], [ 78.370642354098408, 17.320147498523269 ], [ 78.370642354098408, 17.321494971449454 ], [ 78.370372859513196, 17.321494971449454 ], [ 78.370372859513196, 17.322033960619933 ], [ 78.370103364927985, 17.322033960619933 ], [ 78.370103364927985, 17.322572949790398 ], [ 78.369833870342717, 17.322572949790398 ], [ 78.369833870342717, 17.322842444375638 ], [ 78.369294881172237, 17.322842444375638 ], [ 78.369294881172237, 17.323111938960864 ], [ 78.369025386587026, 17.323111938960864 ], [ 78.369025386587026, 17.323650928131343 ], [ 78.368755892001758, 17.323650928131343 ], [ 78.368755892001758, 17.324189917301808 ], [ 78.368486397416547, 17.324189917301808 ], [ 78.368486397416547, 17.324728906472288 ], [ 78.368216902831335, 17.324728906472288 ], [ 78.368216902831335, 17.324998401057528 ], [ 78.367947408246067, 17.324998401057528 ], [ 78.367947408246067, 17.325537390227993 ], [ 78.367677913660856, 17.325537390227993 ], [ 78.367677913660856, 17.325806884813233 ], [ 78.367408419075588, 17.325806884813233 ], [ 78.367408419075588, 17.326345873983698 ], [ 78.367138924490376, 17.326345873983698 ], [ 78.367138924490376, 17.326884863154177 ], [ 78.366869429905108, 17.326884863154177 ], [ 78.366869429905108, 17.327154357739403 ], [ 78.366599935319897, 17.327154357739403 ], [ 78.366599935319897, 17.327693346909882 ], [ 78.366330440734686, 17.327693346909882 ], [ 78.366330440734686, 17.328232336080347 ], [ 78.366060946149418, 17.328232336080347 ], [ 78.366060946149418, 17.328501830665587 ], [ 78.365791451564206, 17.328501830665587 ], [ 78.365791451564206, 17.329040819836067 ], [ 78.365252462393727, 17.329040819836067 ], [ 78.365252462393727, 17.329310314421292 ], [ 78.364982967808459, 17.329310314421292 ], [ 78.364982967808459, 17.329579809006532 ], [ 78.364713473223247, 17.329579809006532 ], [ 78.364713473223247, 17.329849303591772 ], [ 78.364443978638036, 17.329849303591772 ], [ 78.364443978638036, 17.330388292762237 ], [ 78.364174484052768, 17.330388292762237 ], [ 78.364174484052768, 17.330657787347477 ], [ 78.363904989467557, 17.330657787347477 ], [ 78.363904989467557, 17.329849303591772 ], [ 78.363366000297077, 17.329849303591772 ], [ 78.363366000297077, 17.330118798176997 ], [ 78.363096505711809, 17.330118798176997 ], [ 78.363096505711809, 17.330388292762237 ], [ 78.362827011126598, 17.330388292762237 ], [ 78.362827011126598, 17.330927281932716 ], [ 78.362557516541386, 17.330927281932716 ], [ 78.362557516541386, 17.332274754858886 ], [ 78.362018527370907, 17.332274754858886 ], [ 78.362018527370907, 17.332544249444126 ], [ 78.360401559859469, 17.332544249444126 ], [ 78.360401559859469, 17.333622227785071 ], [ 78.36067105444468, 17.333622227785071 ], [ 78.36067105444468, 17.333891722370311 ], [ 78.361210043615159, 17.333891722370311 ], [ 78.361210043615159, 17.334430711540776 ], [ 78.360940549029948, 17.334430711540776 ], [ 78.360940549029948, 17.334700206126016 ], [ 78.36067105444468, 17.334700206126016 ], [ 78.36067105444468, 17.334969700711255 ], [ 78.360132065274257, 17.334969700711255 ], [ 78.360132065274257, 17.335239195296481 ], [ 78.359593076103778, 17.335239195296481 ], [ 78.359593076103778, 17.335508689881721 ], [ 78.35932358151851, 17.335508689881721 ], [ 78.35932358151851, 17.33577818446696 ], [ 78.359054086933298, 17.33577818446696 ], [ 78.359054086933298, 17.336047679052186 ], [ 78.35878459234803, 17.336047679052186 ], [ 78.35878459234803, 17.336586668222665 ], [ 78.359054086933298, 17.336586668222665 ], [ 78.359054086933298, 17.33739515197837 ], [ 78.358245603177608, 17.33739515197837 ], [ 78.358245603177608, 17.33793414114885 ], [ 78.358515097762819, 17.33793414114885 ], [ 78.358515097762819, 17.33766464656361 ], [ 78.35878459234803, 17.33766464656361 ], [ 78.35878459234803, 17.33793414114885 ], [ 78.358515097762819, 17.33793414114885 ], [ 78.358515097762819, 17.338203635734075 ], [ 78.358245603177608, 17.338203635734075 ], [ 78.358245603177608, 17.338473130319315 ], [ 78.357976108592339, 17.338473130319315 ], [ 78.357976108592339, 17.33928161407502 ], [ 78.357706614007128, 17.33928161407502 ], [ 78.357706614007128, 17.33955110866026 ], [ 78.357167624836649, 17.33955110866026 ], [ 78.357167624836649, 17.33928161407502 ], [ 78.35608964649569, 17.33928161407502 ], [ 78.35608964649569, 17.340359592415965 ], [ 78.356359141080958, 17.340359592415965 ], [ 78.356359141080958, 17.340898581586444 ], [ 78.35608964649569, 17.340898581586444 ], [ 78.35608964649569, 17.34116807617167 ], [ 78.35555065732521, 17.34116807617167 ], [ 78.35555065732521, 17.341707065342149 ], [ 78.355281162739999, 17.341707065342149 ], [ 78.355281162739999, 17.342246054512614 ], [ 78.355011668154731, 17.342246054512614 ], [ 78.355011668154731, 17.34116807617167 ], [ 78.35474217356952, 17.34116807617167 ], [ 78.35474217356952, 17.340359592415965 ], [ 78.354472678984308, 17.340359592415965 ], [ 78.354472678984308, 17.340090097830725 ], [ 78.35474217356952, 17.340090097830725 ], [ 78.35474217356952, 17.339820603245499 ], [ 78.353933689813829, 17.339820603245499 ], [ 78.353933689813829, 17.340090097830725 ], [ 78.353664195228561, 17.340090097830725 ], [ 78.353664195228561, 17.340629087001204 ], [ 78.353394700643349, 17.340629087001204 ], [ 78.353394700643349, 17.34116807617167 ], [ 78.353125206058081, 17.34116807617167 ], [ 78.353125206058081, 17.340898581586444 ], [ 78.35285571147287, 17.340898581586444 ], [ 78.35285571147287, 17.340629087001204 ], [ 78.353394700643349, 17.340629087001204 ], [ 78.353394700643349, 17.339820603245499 ], [ 78.353125206058081, 17.339820603245499 ], [ 78.353125206058081, 17.33955110866026 ], [ 78.35231672230239, 17.33955110866026 ], [ 78.35231672230239, 17.339820603245499 ], [ 78.352047227717179, 17.339820603245499 ], [ 78.352047227717179, 17.340090097830725 ], [ 78.35231672230239, 17.340090097830725 ], [ 78.35231672230239, 17.340898581586444 ], [ 78.352047227717179, 17.340898581586444 ], [ 78.352047227717179, 17.340629087001204 ], [ 78.351238743961432, 17.340629087001204 ], [ 78.351238743961432, 17.340359592415965 ], [ 78.350430260205741, 17.340359592415965 ], [ 78.350430260205741, 17.340629087001204 ], [ 78.349891271035261, 17.340629087001204 ], [ 78.349891271035261, 17.340359592415965 ], [ 78.34962177645005, 17.340359592415965 ], [ 78.34962177645005, 17.340090097830725 ], [ 78.349352281864782, 17.340090097830725 ], [ 78.349352281864782, 17.33955110866026 ], [ 78.34962177645005, 17.33955110866026 ], [ 78.34962177645005, 17.33928161407502 ], [ 78.350160765620529, 17.33928161407502 ], [ 78.350160765620529, 17.33901211948978 ], [ 78.350699754790952, 17.33901211948978 ], [ 78.350699754790952, 17.338742624904555 ], [ 78.35096924937622, 17.338742624904555 ], [ 78.35096924937622, 17.338473130319315 ], [ 78.351238743961432, 17.338473130319315 ], [ 78.351238743961432, 17.336856162807905 ], [ 78.35231672230239, 17.336856162807905 ], [ 78.35231672230239, 17.336586668222665 ], [ 78.35285571147287, 17.336586668222665 ], [ 78.35285571147287, 17.336317173637426 ], [ 78.353394700643349, 17.336317173637426 ], [ 78.353394700643349, 17.33577818446696 ], [ 78.353664195228561, 17.33577818446696 ], [ 78.353664195228561, 17.335508689881721 ], [ 78.353933689813829, 17.335508689881721 ], [ 78.353933689813829, 17.335239195296481 ], [ 78.35420318439904, 17.335239195296481 ], [ 78.35420318439904, 17.334969700711255 ], [ 78.354472678984308, 17.334969700711255 ], [ 78.354472678984308, 17.334430711540776 ], [ 78.35474217356952, 17.334430711540776 ], [ 78.35474217356952, 17.333891722370311 ], [ 78.355011668154731, 17.333891722370311 ], [ 78.355011668154731, 17.333352733199831 ], [ 78.354472678984308, 17.333352733199831 ], [ 78.354472678984308, 17.333083238614591 ], [ 78.35420318439904, 17.333083238614591 ], [ 78.35420318439904, 17.332813744029366 ], [ 78.353933689813829, 17.332813744029366 ], [ 78.353933689813829, 17.332544249444126 ], [ 78.353664195228561, 17.332544249444126 ], [ 78.353664195228561, 17.332005260273661 ], [ 78.353394700643349, 17.332005260273661 ], [ 78.353394700643349, 17.331196776517942 ], [ 78.353664195228561, 17.331196776517942 ], [ 78.353664195228561, 17.330657787347477 ], [ 78.35420318439904, 17.330657787347477 ], [ 78.35420318439904, 17.330118798176997 ], [ 78.354472678984308, 17.330118798176997 ], [ 78.354472678984308, 17.329579809006532 ], [ 78.35420318439904, 17.329579809006532 ], [ 78.35420318439904, 17.329310314421292 ], [ 78.35231672230239, 17.329310314421292 ], [ 78.35231672230239, 17.329579809006532 ], [ 78.35096924937622, 17.329579809006532 ], [ 78.35096924937622, 17.329310314421292 ], [ 78.350699754790952, 17.329310314421292 ], [ 78.350699754790952, 17.329040819836067 ], [ 78.350430260205741, 17.329040819836067 ], [ 78.350430260205741, 17.328501830665587 ], [ 78.349891271035261, 17.328501830665587 ], [ 78.349891271035261, 17.328232336080347 ], [ 78.34962177645005, 17.328232336080347 ], [ 78.34962177645005, 17.327962841495122 ], [ 78.349352281864782, 17.327962841495122 ], [ 78.349352281864782, 17.327423852324642 ], [ 78.349082787279571, 17.327423852324642 ], [ 78.349082787279571, 17.327154357739403 ], [ 78.348813292694302, 17.327154357739403 ], [ 78.348813292694302, 17.326884863154177 ], [ 78.348543798109091, 17.326884863154177 ], [ 78.348543798109091, 17.326615368568937 ], [ 78.34827430352388, 17.326615368568937 ], [ 78.34827430352388, 17.326345873983698 ], [ 78.348004808938612, 17.326345873983698 ], [ 78.348004808938612, 17.326076379398472 ], [ 78.347465819768132, 17.326076379398472 ], [ 78.347465819768132, 17.325806884813233 ], [ 78.346926830597653, 17.325806884813233 ], [ 78.346926830597653, 17.326076379398472 ], [ 78.346118346841962, 17.326076379398472 ], [ 78.346118346841962, 17.326345873983698 ], [ 78.345848852256751, 17.326345873983698 ], [ 78.345848852256751, 17.326884863154177 ], [ 78.345579357671483, 17.326884863154177 ], [ 78.345579357671483, 17.327154357739403 ], [ 78.345040368501003, 17.327154357739403 ], [ 78.345040368501003, 17.327423852324642 ], [ 78.344770873915792, 17.327423852324642 ], [ 78.344770873915792, 17.327693346909882 ], [ 78.344231884745312, 17.327693346909882 ], [ 78.344231884745312, 17.327423852324642 ], [ 78.343962390160101, 17.327423852324642 ], [ 78.343962390160101, 17.327154357739403 ], [ 78.343692895574833, 17.327154357739403 ], [ 78.343692895574833, 17.326615368568937 ], [ 78.343153906404353, 17.326615368568937 ], [ 78.343153906404353, 17.326345873983698 ], [ 78.343692895574833, 17.326345873983698 ], [ 78.343692895574833, 17.326076379398472 ], [ 78.343962390160101, 17.326076379398472 ], [ 78.343962390160101, 17.325806884813233 ], [ 78.344231884745312, 17.325806884813233 ], [ 78.344231884745312, 17.324998401057528 ], [ 78.34450137933058, 17.324998401057528 ], [ 78.34450137933058, 17.323920422716583 ], [ 78.344770873915792, 17.323920422716583 ], [ 78.344770873915792, 17.323650928131343 ], [ 78.345309863086271, 17.323650928131343 ], [ 78.345309863086271, 17.323381433546103 ], [ 78.346118346841962, 17.323381433546103 ], [ 78.346118346841962, 17.323111938960864 ], [ 78.34638784142723, 17.323111938960864 ], [ 78.34638784142723, 17.322842444375638 ], [ 78.346657336012441, 17.322842444375638 ], [ 78.346657336012441, 17.322572949790398 ], [ 78.346926830597653, 17.322572949790398 ], [ 78.346926830597653, 17.322303455205159 ], [ 78.347196325182921, 17.322303455205159 ], [ 78.347196325182921, 17.322033960619933 ], [ 78.347465819768132, 17.322033960619933 ], [ 78.347465819768132, 17.321764466034693 ], [ 78.3477353143534, 17.321764466034693 ], [ 78.3477353143534, 17.321494971449454 ], [ 78.348004808938612, 17.321494971449454 ], [ 78.348004808938612, 17.320955982278988 ], [ 78.34827430352388, 17.320955982278988 ], [ 78.34827430352388, 17.320416993108509 ], [ 78.348543798109091, 17.320416993108509 ], [ 78.348543798109091, 17.320147498523269 ], [ 78.350160765620529, 17.320147498523269 ], [ 78.350160765620529, 17.320416993108509 ], [ 78.351238743961432, 17.320416993108509 ], [ 78.351238743961432, 17.320686487693749 ], [ 78.3515082385467, 17.320686487693749 ], [ 78.3515082385467, 17.320416993108509 ], [ 78.351777733131911, 17.320416993108509 ], [ 78.351777733131911, 17.320147498523269 ], [ 78.352047227717179, 17.320147498523269 ], [ 78.352047227717179, 17.319878003938044 ], [ 78.35231672230239, 17.319878003938044 ], [ 78.35231672230239, 17.319339014767564 ], [ 78.352586216887659, 17.319339014767564 ], [ 78.352586216887659, 17.318800025597099 ], [ 78.35231672230239, 17.318800025597099 ], [ 78.35231672230239, 17.317722047256154 ], [ 78.352047227717179, 17.317722047256154 ], [ 78.352047227717179, 17.317452552670915 ], [ 78.351777733131911, 17.317452552670915 ], [ 78.351777733131911, 17.317183058085675 ], [ 78.3515082385467, 17.317183058085675 ], [ 78.3515082385467, 17.316105079744744 ], [ 78.351777733131911, 17.316105079744744 ], [ 78.351777733131911, 17.315296595989025 ], [ 78.352047227717179, 17.315296595989025 ], [ 78.352047227717179, 17.3150271014038 ], [ 78.351777733131911, 17.3150271014038 ], [ 78.351777733131911, 17.314218617648081 ], [ 78.3515082385467, 17.314218617648081 ], [ 78.3515082385467, 17.313949123062855 ], [ 78.351238743961432, 17.313949123062855 ], [ 78.351238743961432, 17.313679628477615 ], [ 78.35096924937622, 17.313679628477615 ], [ 78.35096924937622, 17.313410133892376 ], [ 78.350430260205741, 17.313410133892376 ], [ 78.350430260205741, 17.312601650136671 ], [ 78.350699754790952, 17.312601650136671 ], [ 78.350699754790952, 17.312062660966205 ], [ 78.35096924937622, 17.312062660966205 ], [ 78.35096924937622, 17.311793166380966 ], [ 78.351238743961432, 17.311793166380966 ], [ 78.351238743961432, 17.311254177210486 ], [ 78.3515082385467, 17.311254177210486 ], [ 78.3515082385467, 17.309367715113837 ], [ 78.351238743961432, 17.309367715113837 ], [ 78.351238743961432, 17.309098220528611 ], [ 78.350699754790952, 17.309098220528611 ], [ 78.350699754790952, 17.308828725943371 ], [ 78.350430260205741, 17.308828725943371 ], [ 78.350430260205741, 17.308559231358132 ], [ 78.34962177645005, 17.308559231358132 ], [ 78.34962177645005, 17.308828725943371 ], [ 78.349082787279571, 17.308828725943371 ], [ 78.349082787279571, 17.309098220528611 ], [ 78.348543798109091, 17.309098220528611 ], [ 78.348543798109091, 17.308828725943371 ], [ 78.347465819768132, 17.308828725943371 ], [ 78.347465819768132, 17.308559231358132 ], [ 78.346926830597653, 17.308559231358132 ], [ 78.346926830597653, 17.308289736772892 ], [ 78.346657336012441, 17.308289736772892 ], [ 78.346657336012441, 17.307481253017187 ], [ 78.346926830597653, 17.307481253017187 ], [ 78.346926830597653, 17.307211758431961 ], [ 78.34638784142723, 17.307211758431961 ], [ 78.34638784142723, 17.306942263846722 ], [ 78.346118346841962, 17.306942263846722 ], [ 78.346118346841962, 17.306672769261482 ], [ 78.345579357671483, 17.306672769261482 ], [ 78.345579357671483, 17.306403274676242 ], [ 78.345309863086271, 17.306403274676242 ], [ 78.345309863086271, 17.306133780091017 ], [ 78.344770873915792, 17.306133780091017 ], [ 78.344770873915792, 17.306403274676242 ], [ 78.34450137933058, 17.306403274676242 ], [ 78.34450137933058, 17.306942263846722 ], [ 78.344231884745312, 17.306942263846722 ], [ 78.344231884745312, 17.307750747602427 ], [ 78.343962390160101, 17.307750747602427 ], [ 78.343962390160101, 17.308020242187666 ], [ 78.343423400989622, 17.308020242187666 ], [ 78.343423400989622, 17.308289736772892 ], [ 78.342884411819142, 17.308289736772892 ], [ 78.342884411819142, 17.308559231358132 ], [ 78.342345422648663, 17.308559231358132 ], [ 78.342345422648663, 17.308828725943371 ], [ 78.341806433478183, 17.308828725943371 ], [ 78.341806433478183, 17.309367715113837 ], [ 78.341536938892972, 17.309367715113837 ], [ 78.341536938892972, 17.309098220528611 ], [ 78.340997949722492, 17.309098220528611 ], [ 78.340997949722492, 17.308828725943371 ], [ 78.340728455137281, 17.308828725943371 ], [ 78.340728455137281, 17.308559231358132 ], [ 78.340189465966802, 17.308559231358132 ], [ 78.340189465966802, 17.308289736772892 ], [ 78.340458960552013, 17.308289736772892 ], [ 78.340458960552013, 17.308020242187666 ], [ 78.340728455137281, 17.308020242187666 ], [ 78.340728455137281, 17.307750747602427 ], [ 78.340997949722492, 17.307750747602427 ], [ 78.340997949722492, 17.306672769261482 ], [ 78.341267444307704, 17.306672769261482 ], [ 78.341267444307704, 17.305055801750072 ], [ 78.341536938892972, 17.305055801750072 ], [ 78.341536938892972, 17.304247317994367 ], [ 78.341267444307704, 17.304247317994367 ], [ 78.341267444307704, 17.303169339653422 ], [ 78.341536938892972, 17.303169339653422 ], [ 78.341536938892972, 17.302899845068183 ], [ 78.342075928063451, 17.302899845068183 ], [ 78.342075928063451, 17.302630350482943 ], [ 78.342614917233931, 17.302630350482943 ], [ 78.342614917233931, 17.302360855897703 ], [ 78.343423400989622, 17.302360855897703 ], [ 78.343423400989622, 17.302091361312478 ], [ 78.344231884745312, 17.302091361312478 ], [ 78.344231884745312, 17.301821866727238 ], [ 78.345579357671483, 17.301821866727238 ], [ 78.345579357671483, 17.301552372141998 ], [ 78.346118346841962, 17.301552372141998 ], [ 78.346118346841962, 17.301821866727238 ], [ 78.346657336012441, 17.301821866727238 ], [ 78.346657336012441, 17.301552372141998 ], [ 78.347196325182921, 17.301552372141998 ], [ 78.347196325182921, 17.301821866727238 ], [ 78.347465819768132, 17.301821866727238 ], [ 78.347465819768132, 17.302360855897703 ], [ 78.348004808938612, 17.302360855897703 ], [ 78.348004808938612, 17.302899845068183 ], [ 78.3477353143534, 17.302899845068183 ], [ 78.3477353143534, 17.303169339653422 ], [ 78.348004808938612, 17.303169339653422 ], [ 78.348004808938612, 17.303438834238648 ], [ 78.348813292694302, 17.303438834238648 ], [ 78.348813292694302, 17.303708328823888 ], [ 78.349352281864782, 17.303708328823888 ], [ 78.349352281864782, 17.303438834238648 ], [ 78.34962177645005, 17.303438834238648 ], [ 78.34962177645005, 17.303169339653422 ], [ 78.349891271035261, 17.303169339653422 ], [ 78.349891271035261, 17.302899845068183 ], [ 78.34962177645005, 17.302899845068183 ], [ 78.34962177645005, 17.302630350482943 ], [ 78.349352281864782, 17.302630350482943 ], [ 78.349352281864782, 17.302091361312478 ], [ 78.34962177645005, 17.302091361312478 ], [ 78.34962177645005, 17.300743888386293 ], [ 78.349891271035261, 17.300743888386293 ], [ 78.349891271035261, 17.298587931704404 ], [ 78.34962177645005, 17.298587931704404 ], [ 78.34962177645005, 17.298318437119178 ] ], [ [ 78.35555065732521, 17.339820603245499 ], [ 78.35555065732521, 17.340090097830725 ], [ 78.355281162739999, 17.340090097830725 ], [ 78.355281162739999, 17.339820603245499 ], [ 78.35555065732521, 17.339820603245499 ] ], [ [ 78.364174484052768, 17.3150271014038 ], [ 78.364174484052768, 17.315296595989025 ], [ 78.364443978638036, 17.315296595989025 ], [ 78.364443978638036, 17.315566090574265 ], [ 78.363904989467557, 17.315566090574265 ], [ 78.363904989467557, 17.3150271014038 ], [ 78.364174484052768, 17.3150271014038 ] ], [ [ 78.34450137933058, 17.305864285505777 ], [ 78.34450137933058, 17.306133780091017 ], [ 78.344231884745312, 17.306133780091017 ], [ 78.344231884745312, 17.305864285505777 ], [ 78.34450137933058, 17.305864285505777 ] ], [ [ 78.350160765620529, 17.303169339653422 ], [ 78.350160765620529, 17.303438834238648 ], [ 78.349891271035261, 17.303438834238648 ], [ 78.349891271035261, 17.303169339653422 ], [ 78.350160765620529, 17.303169339653422 ] ], [ [ 78.347465819768132, 17.302360855897703 ], [ 78.347465819768132, 17.302899845068183 ], [ 78.346926830597653, 17.302899845068183 ], [ 78.346926830597653, 17.302360855897703 ], [ 78.347465819768132, 17.302360855897703 ] ] ] } }
]
}
