{"type":"FeatureCollection","features":[{"type":"Feature","geometry":{"geodesic":false,"type":"Polygon","coordinates":[[[78.27335480882832,17.391833058196013],[78.27362430341353,17.391833058196013],[78.27362430341353,17.392102552781253],[78.27335480882832,17.392102552781253],[78.27335480882832,17.391833058196013]]]},"id":"+958362+247159","properties":{"count":1,"water":1}},{"type":"Feature","geometry":{"geodesic":false,"type":"Polygon","coordinates":[[[78.31054506159083,17.351678364995877],[78.3108145561761,17.351678364995877],[78.3108145561761,17.351947859581102],[78.31135354534652,17.351947859581102],[78.31135354534652,17.35248684875158],[78.31162303993179,17.35248684875158],[78.31162303993179,17.35275634333682],[78.311892534517,17.35275634333682],[78.311892534517,17.353025837922047],[78.31216202910227,17.353025837922047],[78.31216202910227,17.353295332507287],[78.31377899661365,17.353295332507287],[78.31377899661365,17.353025837922047],[78.31350950202844,17.353025837922047],[78.31350950202844,17.35275634333682],[78.31431798578413,17.35275634333682],[78.31431798578413,17.353025837922047],[78.31485697495461,17.353025837922047],[78.31485697495461,17.353295332507287],[78.31539596412509,17.353295332507287],[78.31539596412509,17.353025837922047],[78.3156654587103,17.353025837922047],[78.3156654587103,17.35410381626299],[78.31512646953982,17.35410381626299],[78.31512646953982,17.35437331084823],[78.31485697495461,17.35437331084823],[78.31485697495461,17.354912300018697],[78.3145874803694,17.354912300018697],[78.3145874803694,17.355181794603936],[78.31431798578413,17.355181794603936],[78.31431798578413,17.355451289189176],[78.31404849119892,17.355451289189176],[78.31404849119892,17.357337751285826],[78.31377899661365,17.357337751285826],[78.31377899661365,17.357607245871066],[78.31350950202844,17.357607245871066],[78.31350950202844,17.358954718797236],[78.31377899661365,17.358954718797236],[78.31377899661365,17.359493707967715],[78.31350950202844,17.359493707967715],[78.31350950202844,17.36003269713818],[78.31377899661365,17.36003269713818],[78.31377899661365,17.36030219172342],[78.31404849119892,17.36030219172342],[78.31404849119892,17.361380170064365],[78.31431798578413,17.361380170064365],[78.31431798578413,17.361649664649605],[78.3145874803694,17.361649664649605],[78.3145874803694,17.36191915923483],[78.31485697495461,17.36191915923483],[78.31485697495461,17.36245814840531],[78.31512646953982,17.36245814840531],[78.31512646953982,17.36380562133148],[78.31485697495461,17.36380562133148],[78.31485697495461,17.36434461050196],[78.31512646953982,17.36434461050196],[78.31512646953982,17.3646141050872],[78.3156654587103,17.3646141050872],[78.3156654587103,17.364883599672424],[78.31593495329557,17.364883599672424],[78.31593495329557,17.365153094257664],[78.31620444788078,17.365153094257664],[78.31620444788078,17.365422588842904],[78.31701293163653,17.365422588842904],[78.31701293163653,17.36596157801337],[78.31728242622174,17.36596157801337],[78.31728242622174,17.36623107259861],[78.31755192080695,17.36623107259861],[78.31755192080695,17.366770061769074],[78.32105535041504,17.366770061769074],[78.32105535041504,17.367039556354314],[78.32132484500025,17.367039556354314],[78.32132484500025,17.367309050939554],[78.32159433958552,17.367309050939554],[78.32159433958552,17.36784804011002],[78.32132484500025,17.36784804011002],[78.32132484500025,17.3683870292805],[78.32105535041504,17.3683870292805],[78.32105535041504,17.368656523865724],[78.32051636124456,17.368656523865724],[78.32051636124456,17.368926018450964],[78.31997737207408,17.368926018450964],[78.31997737207408,17.369195513036203],[78.31970787748887,17.369195513036203],[78.31970787748887,17.369465007621443],[78.31916888831839,17.369465007621443],[78.31916888831839,17.36973450220667],[78.31862989914791,17.36973450220667],[78.31862989914791,17.370273491377148],[78.31889939373318,17.370273491377148],[78.31889939373318,17.370542985962388],[78.3194383829036,17.370542985962388],[78.3194383829036,17.372698942644263],[78.31916888831839,17.372698942644263],[78.31916888831839,17.372968437229503],[78.31862989914791,17.372968437229503],[78.31862989914791,17.373237931814742],[78.3183604045627,17.373237931814742],[78.3183604045627,17.373507426399982],[78.31809090997743,17.373507426399982],[78.31809090997743,17.373776920985208],[78.31782141539222,17.373776920985208],[78.31782141539222,17.374315910155687],[78.31728242622174,17.374315910155687],[78.31728242622174,17.374585404740913],[78.31701293163653,17.374585404740913],[78.31701293163653,17.37539388849663],[78.31674343705126,17.37539388849663],[78.31674343705126,17.375932877667097],[78.31647394246605,17.375932877667097],[78.31647394246605,17.376202372252337],[78.31593495329557,17.376202372252337],[78.31593495329557,17.376471866837576],[78.31539596412509,17.376471866837576],[78.31539596412509,17.376741361422802],[78.31512646953982,17.376741361422802],[78.31512646953982,17.37701085600804],[78.31485697495461,17.37701085600804],[78.31485697495461,17.37728035059328],[78.31512646953982,17.37728035059328],[78.31512646953982,17.377549845178507],[78.31620444788078,17.377549845178507],[78.31620444788078,17.378088834348986],[78.31647394246605,17.378088834348986],[78.31647394246605,17.3805142856161],[78.3156654587103,17.3805142856161],[78.3156654587103,17.38078378020134],[78.31539596412509,17.38078378020134],[78.31539596412509,17.38105327478658],[78.3145874803694,17.38105327478658],[78.3145874803694,17.38132276937182],[78.31431798578413,17.38132276937182],[78.31431798578413,17.38078378020134],[78.31297051285796,17.38078378020134],[78.31297051285796,17.38105327478658],[78.31324000744317,17.38105327478658],[78.31324000744317,17.38132276937182],[78.31350950202844,17.38132276937182],[78.31350950202844,17.38267024229799],[78.31377899661365,17.38267024229799],[78.31377899661365,17.383478726053696],[78.31350950202844,17.383478726053696],[78.31350950202844,17.383748220638935],[78.31324000744317,17.383748220638935],[78.31324000744317,17.384017715224175],[78.31297051285796,17.384017715224175],[78.31297051285796,17.38536518815036],[78.31162303993179,17.38536518815036],[78.31162303993179,17.385634682735585],[78.31108405076131,17.385634682735585],[78.31108405076131,17.385904177320825],[78.31054506159083,17.385904177320825],[78.31054506159083,17.386173671906064],[78.31027556700562,17.386173671906064],[78.31027556700562,17.38644316649129],[78.31000607242035,17.38644316649129],[78.31000607242035,17.38671266107653],[78.30973657783514,17.38671266107653],[78.30973657783514,17.38698215566177],[78.30919758866466,17.38698215566177],[78.30919758866466,17.385634682735585],[78.30758062115322,17.385634682735585],[78.30758062115322,17.38536518815036],[78.30677213739753,17.38536518815036],[78.30677213739753,17.385634682735585],[78.30650264281232,17.385634682735585],[78.30650264281232,17.385904177320825],[78.30623314822705,17.385904177320825],[78.30623314822705,17.386173671906064],[78.30569415905657,17.386173671906064],[78.30569415905657,17.38644316649129],[78.30542466447136,17.38644316649129],[78.30542466447136,17.38671266107653],[78.30488567530088,17.38671266107653],[78.30488567530088,17.38698215566177],[78.30461618071567,17.38698215566177],[78.30461618071567,17.38725165024701],[78.30407719154519,17.38725165024701],[78.30407719154519,17.387790639417474],[78.30380769695992,17.387790639417474],[78.30380769695992,17.388329628587954],[78.30353820237471,17.388329628587954],[78.30353820237471,17.38859912317318],[78.30380769695992,17.38859912317318],[78.30380769695992,17.389946596099364],[78.30407719154519,17.389946596099364],[78.30407719154519,17.390216090684604],[78.3043466861304,17.390216090684604],[78.3043466861304,17.39075507985507],[78.30461618071567,17.39075507985507],[78.30461618071567,17.391563563610774],[78.30488567530088,17.391563563610774],[78.30488567530088,17.393180531122198],[78.30461618071567,17.393180531122198],[78.30461618071567,17.393719520292663],[78.30380769695992,17.393719520292663],[78.30380769695992,17.393989014877903],[78.30353820237471,17.393989014877903],[78.30353820237471,17.393719520292663],[78.30326870778944,17.393719520292663],[78.30326870778944,17.393180531122198],[78.30299921320423,17.393180531122198],[78.30299921320423,17.392911036536958],[78.30219072944854,17.392911036536958],[78.30219072944854,17.392372047366493],[78.30030426735189,17.392372047366493],[78.30030426735189,17.39264154195172],[78.29922628901093,17.39264154195172],[78.29922628901093,17.392911036536958],[78.29868729984045,17.392911036536958],[78.29868729984045,17.393180531122198],[78.29814831066997,17.393180531122198],[78.29814831066997,17.393450025707423],[78.29733982691428,17.393450025707423],[78.29733982691428,17.393719520292663],[78.29707033232907,17.393719520292663],[78.29707033232907,17.393989014877903],[78.2968008377438,17.393989014877903],[78.2968008377438,17.394258509463143],[78.29653134315859,17.394258509463143],[78.29653134315859,17.394528004048368],[78.29626184857332,17.394528004048368],[78.29626184857332,17.394797498633608],[78.29518387023242,17.394797498633608],[78.29518387023242,17.395066993218848],[78.29464488106194,17.395066993218848],[78.29464488106194,17.395336487804087],[78.2930279135505,17.395336487804087],[78.2930279135505,17.395066993218848],[78.29248892438002,17.395066993218848],[78.29248892438002,17.394528004048368],[78.29275841896529,17.394528004048368],[78.29275841896529,17.394258509463143],[78.2930279135505,17.394258509463143],[78.2930279135505,17.393719520292663],[78.29329740813577,17.393719520292663],[78.29329740813577,17.393180531122198],[78.29356690272098,17.393180531122198],[78.29356690272098,17.391563563610774],[78.2938363973062,17.391563563610774],[78.2938363973062,17.390216090684604],[78.29437538647667,17.390216090684604],[78.29437538647667,17.389407606928884],[78.29464488106194,17.389407606928884],[78.29464488106194,17.38913811234366],[78.29491437564715,17.38913811234366],[78.29491437564715,17.38886861775842],[78.29518387023242,17.38886861775842],[78.29518387023242,17.38859912317318],[78.29545336481763,17.38859912317318],[78.29545336481763,17.388329628587954],[78.29572285940284,17.388329628587954],[78.29572285940284,17.388060134002714],[78.29599235398811,17.388060134002714],[78.29599235398811,17.387790639417474],[78.29626184857332,17.387790639417474],[78.29626184857332,17.387521144832235],[78.29653134315859,17.387521144832235],[78.29653134315859,17.38725165024701],[78.2968008377438,17.38725165024701],[78.2968008377438,17.38671266107653],[78.29707033232907,17.38671266107653],[78.29707033232907,17.38644316649129],[78.29733982691428,17.38644316649129],[78.29733982691428,17.38482619897988],[78.29707033232907,17.38482619897988],[78.29707033232907,17.38455670439464],[78.2968008377438,17.38455670439464],[78.2968008377438,17.384287209809415],[78.29653134315859,17.384287209809415],[78.29653134315859,17.38455670439464],[78.29626184857332,17.38455670439464],[78.29626184857332,17.38482619897988],[78.29491437564715,17.38482619897988],[78.29491437564715,17.38455670439464],[78.29329740813577,17.38455670439464],[78.29329740813577,17.38482619897988],[78.29194993520954,17.38482619897988],[78.29194993520954,17.38455670439464],[78.29087195686864,17.38455670439464],[78.29087195686864,17.384017715224175],[78.29060246228337,17.384017715224175],[78.29060246228337,17.383478726053696],[78.2900634731129,17.383478726053696],[78.2900634731129,17.38320923146847],[78.28979397852768,17.38320923146847],[78.28979397852768,17.38293973688323],[78.2892549893572,17.38293973688323],[78.2892549893572,17.38267024229799],[78.28844650560151,17.38267024229799],[78.28844650560151,17.38293973688323],[78.28790751643103,17.38293973688323],[78.28790751643103,17.38320923146847],[78.28709903267534,17.38320923146847],[78.28709903267534,17.383478726053696],[78.28656004350486,17.383478726053696],[78.28656004350486,17.383748220638935],[78.2852125705787,17.383748220638935],[78.2852125705787,17.384017715224175],[78.28467358140821,17.384017715224175],[78.28467358140821,17.384287209809415],[78.28413459223773,17.384287209809415],[78.28413459223773,17.38455670439464],[78.28359560306725,17.38455670439464],[78.28359560306725,17.38482619897988],[78.28278711931156,17.38482619897988],[78.28278711931156,17.38509569356512],[78.2825176247263,17.38509569356512],[78.2825176247263,17.38536518815036],[78.28224813014108,17.38536518815036],[78.28224813014108,17.38644316649129],[78.28197863555582,17.38644316649129],[78.28197863555582,17.38671266107653],[78.2817091409706,17.38671266107653],[78.2817091409706,17.387790639417474],[78.28063116262965,17.387790639417474],[78.28063116262965,17.388060134002714],[78.28036166804443,17.388060134002714],[78.28036166804443,17.388329628587954],[78.27982267887396,17.388329628587954],[78.27982267887396,17.38859912317318],[78.27955318428869,17.38859912317318],[78.27955318428869,17.38886861775842],[78.27982267887396,17.38886861775842],[78.27982267887396,17.389677101514124],[78.27955318428869,17.389677101514124],[78.27955318428869,17.389946596099364],[78.27820571136252,17.389946596099364],[78.27820571136252,17.389407606928884],[78.2779362167773,17.389407606928884],[78.2779362167773,17.389677101514124],[78.27739722760683,17.389677101514124],[78.27739722760683,17.389407606928884],[78.27631924926587,17.389407606928884],[78.27631924926587,17.389677101514124],[78.27524127092497,17.389677101514124],[78.27524127092497,17.389946596099364],[78.27578026009539,17.389946596099364],[78.27578026009539,17.390216090684604],[78.27470228175449,17.390216090684604],[78.27470228175449,17.389677101514124],[78.27443278716922,17.389677101514124],[78.27443278716922,17.38886861775842],[78.274163292584,17.38886861775842],[78.274163292584,17.38859912317318],[78.27443278716922,17.38859912317318],[78.27443278716922,17.388060134002714],[78.2749717763397,17.388060134002714],[78.2749717763397,17.387790639417474],[78.27551076551018,17.387790639417474],[78.27551076551018,17.387521144832235],[78.27578026009539,17.387521144832235],[78.27578026009539,17.38698215566177],[78.27551076551018,17.38698215566177],[78.27551076551018,17.38671266107653],[78.27281581965784,17.38671266107653],[78.27281581965784,17.38644316649129],[78.27335480882832,17.38644316649129],[78.27335480882832,17.385904177320825],[78.27362430341353,17.385904177320825],[78.27362430341353,17.385634682735585],[78.27335480882832,17.385634682735585],[78.27335480882832,17.38455670439464],[78.27308531424305,17.38455670439464],[78.27308531424305,17.384287209809415],[78.27389379799874,17.384287209809415],[78.27389379799874,17.38455670439464],[78.2749717763397,17.38455670439464],[78.2749717763397,17.38482619897988],[78.27551076551018,17.38482619897988],[78.27551076551018,17.38455670439464],[78.27631924926587,17.38455670439464],[78.27631924926587,17.38482619897988],[78.27685823843635,17.38482619897988],[78.27685823843635,17.384287209809415],[78.27658874385114,17.384287209809415],[78.27658874385114,17.383748220638935],[78.27631924926587,17.383748220638935],[78.27631924926587,17.383478726053696],[78.27604975468066,17.383478726053696],[78.27604975468066,17.381861758542286],[78.27578026009539,17.381861758542286],[78.27578026009539,17.381592263957046],[78.27551076551018,17.381592263957046],[78.27551076551018,17.38132276937182],[78.2749717763397,17.38132276937182],[78.2749717763397,17.38105327478658],[78.27443278716922,17.38105327478658],[78.27443278716922,17.38078378020134],[78.274163292584,17.38078378020134],[78.274163292584,17.37916681268993],[78.27470228175449,17.37916681268993],[78.27470228175449,17.37889731810469],[78.2749717763397,17.37889731810469],[78.2749717763397,17.37862782351945],[78.27604975468066,17.37862782351945],[78.27604975468066,17.378358328934226],[78.27685823843635,17.378358328934226],[78.27685823843635,17.378088834348986],[78.27739722760683,17.378088834348986],[78.27739722760683,17.377819339763747],[78.2779362167773,17.377819339763747],[78.2779362167773,17.377549845178507],[78.278744700533,17.377549845178507],[78.278744700533,17.37728035059328],[78.27928368970348,17.37728035059328],[78.27928368970348,17.37701085600804],[78.28117015180013,17.37701085600804],[78.28117015180013,17.376741361422802],[78.28143964638534,17.376741361422802],[78.28143964638534,17.376471866837576],[78.2817091409706,17.376471866837576],[78.2817091409706,17.376202372252337],[78.28224813014108,17.376202372252337],[78.28224813014108,17.375932877667097],[78.28278711931156,17.375932877667097],[78.28278711931156,17.375663383081857],[78.28332610848204,17.375663383081857],[78.28332610848204,17.37539388849663],[78.28386509765247,17.37539388849663],[78.28386509765247,17.375124393911392],[78.28413459223773,17.375124393911392],[78.28413459223773,17.374585404740913],[78.28440408682295,17.374585404740913],[78.28440408682295,17.374315910155687],[78.28494307599343,17.374315910155687],[78.28494307599343,17.374046415570447],[78.2852125705787,17.374046415570447],[78.2852125705787,17.373776920985208],[78.28575155974912,17.373776920985208],[78.28575155974912,17.373507426399982],[78.28602105433438,17.373507426399982],[78.28602105433438,17.373237931814742],[78.28709903267534,17.373237931814742],[78.28709903267534,17.372968437229503],[78.28763802184577,17.372968437229503],[78.28763802184577,17.372698942644263],[78.28817701101624,17.372698942644263],[78.28817701101624,17.372429448059037],[78.28898549477199,17.372429448059037],[78.28898549477199,17.372159953473798],[78.2900634731129,17.372159953473798],[78.2900634731129,17.372698942644263],[78.29060246228337,17.372698942644263],[78.29060246228337,17.372429448059037],[78.29141094603906,17.372429448059037],[78.29141094603906,17.372159953473798],[78.29168044062433,17.372159953473798],[78.29168044062433,17.371351469718093],[78.29141094603906,17.371351469718093],[78.29141094603906,17.370542985962388],[78.29114145145385,17.370542985962388],[78.29114145145385,17.370003996791908],[78.29087195686864,17.370003996791908],[78.29087195686864,17.3683870292805],[78.29060246228337,17.3683870292805],[78.29060246228337,17.365422588842904],[78.29087195686864,17.365422588842904],[78.29087195686864,17.3646141050872],[78.29060246228337,17.3646141050872],[78.29060246228337,17.362727642990535],[78.29087195686864,17.362727642990535],[78.29087195686864,17.36245814840531],[78.29060246228337,17.36245814840531],[78.29060246228337,17.36191915923483],[78.2900634731129,17.36191915923483],[78.2900634731129,17.361649664649605],[78.28979397852768,17.361649664649605],[78.28979397852768,17.361380170064365],[78.2892549893572,17.361380170064365],[78.2892549893572,17.358954718797236],[78.28952448394242,17.358954718797236],[78.28952448394242,17.35868522421201],[78.28979397852768,17.35868522421201],[78.28979397852768,17.358954718797236],[78.2900634731129,17.358954718797236],[78.2900634731129,17.359493707967715],[78.29141094603906,17.359493707967715],[78.29141094603906,17.359224213382475],[78.29168044062433,17.359224213382475],[78.29168044062433,17.35841572962677],[78.29194993520954,17.35841572962677],[78.29194993520954,17.35787674045629],[78.29221942979481,17.35787674045629],[78.29221942979481,17.357607245871066],[78.29194993520954,17.357607245871066],[78.29194993520954,17.357337751285826],[78.29221942979481,17.357337751285826],[78.29221942979481,17.356798762115346],[78.29248892438002,17.356798762115346],[78.29248892438002,17.35599027835964],[78.2930279135505,17.35599027835964],[78.2930279135505,17.355720783774416],[78.29329740813577,17.355720783774416],[78.29329740813577,17.35652926753012],[78.29356690272098,17.35652926753012],[78.29356690272098,17.357068256700586],[78.2938363973062,17.357068256700586],[78.2938363973062,17.357337751285826],[78.29437538647667,17.357337751285826],[78.29437538647667,17.35868522421201],[78.29464488106194,17.35868522421201],[78.29464488106194,17.359224213382475],[78.29491437564715,17.359224213382475],[78.29491437564715,17.36030219172342],[78.29518387023242,17.36030219172342],[78.29518387023242,17.361380170064365],[78.29545336481763,17.361380170064365],[78.29545336481763,17.36218865382007],[78.29572285940284,17.36218865382007],[78.29572285940284,17.362727642990535],[78.29599235398811,17.362727642990535],[78.29599235398811,17.362997137575775],[78.29653134315859,17.362997137575775],[78.29653134315859,17.363266632161015],[78.29787881608476,17.363266632161015],[78.29787881608476,17.362997137575775],[78.29841780525524,17.362997137575775],[78.29841780525524,17.362727642990535],[78.29895679442572,17.362727642990535],[78.29895679442572,17.36245814840531],[78.29949578359614,17.36245814840531],[78.29949578359614,17.36218865382007],[78.29976527818141,17.36218865382007],[78.29976527818141,17.36191915923483],[78.30111275110758,17.36191915923483],[78.30111275110758,17.361649664649605],[78.30165174027806,17.361649664649605],[78.30165174027806,17.36191915923483],[78.30192123486327,17.36191915923483],[78.30192123486327,17.362997137575775],[78.30165174027806,17.362997137575775],[78.30165174027806,17.363266632161015],[78.30138224569279,17.363266632161015],[78.30138224569279,17.363536126746254],[78.30111275110758,17.363536126746254],[78.30111275110758,17.36407511591672],[78.30138224569279,17.36407511591672],[78.30138224569279,17.365153094257664],[78.30165174027806,17.365153094257664],[78.30165174027806,17.36569208342813],[78.30192123486327,17.36569208342813],[78.30192123486327,17.36596157801337],[78.30219072944854,17.36596157801337],[78.30219072944854,17.36623107259861],[78.30272971861902,17.36623107259861],[78.30272971861902,17.36650056718385],[78.30326870778944,17.36650056718385],[78.30326870778944,17.366770061769074],[78.30353820237471,17.366770061769074],[78.30353820237471,17.367039556354314],[78.30407719154519,17.367039556354314],[78.30407719154519,17.367309050939554],[78.30461618071567,17.367309050939554],[78.30461618071567,17.36784804011002],[78.30488567530088,17.36784804011002],[78.30488567530088,17.36811753469526],[78.30515516988615,17.36811753469526],[78.30515516988615,17.3683870292805],[78.30596365364184,17.3683870292805],[78.30596365364184,17.368656523865724],[78.30623314822705,17.368656523865724],[78.30623314822705,17.368926018450964],[78.30650264281232,17.368926018450964],[78.30650264281232,17.369195513036203],[78.30731112656801,17.369195513036203],[78.30731112656801,17.368926018450964],[78.30865859949418,17.368926018450964],[78.30865859949418,17.368656523865724],[78.30919758866466,17.368656523865724],[78.30919758866466,17.36784804011002],[78.30946708324987,17.36784804011002],[78.30946708324987,17.367578545524793],[78.30973657783514,17.367578545524793],[78.30973657783514,17.367039556354314],[78.30946708324987,17.367039556354314],[78.30946708324987,17.366770061769074],[78.30919758866466,17.366770061769074],[78.30919758866466,17.36650056718385],[78.30865859949418,17.36650056718385],[78.30865859949418,17.36623107259861],[78.30838910490897,17.36623107259861],[78.30838910490897,17.36596157801337],[78.3081196103237,17.36596157801337],[78.3081196103237,17.364883599672424],[78.30838910490897,17.364883599672424],[78.30838910490897,17.36434461050196],[78.30865859949418,17.36434461050196],[78.30865859949418,17.36407511591672],[78.30838910490897,17.36407511591672],[78.30838910490897,17.362997137575775],[78.30865859949418,17.362997137575775],[78.30865859949418,17.36218865382007],[78.30892809407945,17.36218865382007],[78.30892809407945,17.361649664649605],[78.30946708324987,17.361649664649605],[78.30946708324987,17.361110675479125],[78.30973657783514,17.361110675479125],[78.30973657783514,17.36003269713818],[78.30946708324987,17.36003269713818],[78.30946708324987,17.35976320255294],[78.30919758866466,17.35976320255294],[78.30919758866466,17.359224213382475],[78.30865859949418,17.359224213382475],[78.30865859949418,17.358954718797236],[78.3081196103237,17.358954718797236],[78.3081196103237,17.35868522421201],[78.30892809407945,17.35868522421201],[78.30892809407945,17.35841572962677],[78.30946708324987,17.35841572962677],[78.30946708324987,17.35814623504153],[78.30973657783514,17.35814623504153],[78.30973657783514,17.357337751285826],[78.31000607242035,17.357337751285826],[78.31000607242035,17.35625977294488],[78.31027556700562,17.35625977294488],[78.31027556700562,17.35599027835964],[78.31054506159083,17.35599027835964],[78.31054506159083,17.355720783774416],[78.3108145561761,17.355720783774416],[78.3108145561761,17.355451289189176],[78.31108405076131,17.355451289189176],[78.31108405076131,17.353834321677752],[78.3108145561761,17.353834321677752],[78.3108145561761,17.353295332507287],[78.31108405076131,17.353295332507287],[78.31108405076131,17.35248684875158],[78.3108145561761,17.35248684875158],[78.3108145561761,17.351947859581102],[78.31054506159083,17.351947859581102],[78.31054506159083,17.351678364995877]],[[78.2779362167773,17.38913811234366],[78.2779362167773,17.389407606928884],[78.27766672219204,17.389407606928884],[78.27766672219204,17.38913811234366],[78.2779362167773,17.38913811234366]],[[78.27604975468066,17.38886861775842],[78.27604975468066,17.38913811234366],[78.27551076551018,17.38913811234366],[78.27551076551018,17.38886861775842],[78.27604975468066,17.38886861775842]],[[78.27685823843635,17.38886861775842],[78.27685823843635,17.38913811234366],[78.27658874385114,17.38913811234366],[78.27658874385114,17.38886861775842],[78.27685823843635,17.38886861775842]],[[78.27766672219204,17.38886861775842],[78.27766672219204,17.38913811234366],[78.27739722760683,17.38913811234366],[78.27739722760683,17.38886861775842],[78.27766672219204,17.38886861775842]],[[78.27604975468066,17.38509569356512],[78.27604975468066,17.38536518815036],[78.27551076551018,17.38536518815036],[78.27551076551018,17.38509569356512],[78.27604975468066,17.38509569356512]],[[78.30946708324987,17.38293973688323],[78.30946708324987,17.38320923146847],[78.30919758866466,17.38320923146847],[78.30919758866466,17.383478726053696],[78.30838910490897,17.383478726053696],[78.30838910490897,17.383748220638935],[78.30785011573849,17.383748220638935],[78.30785011573849,17.38293973688323],[78.30865859949418,17.38293973688323],[78.30865859949418,17.38320923146847],[78.30892809407945,17.38320923146847],[78.30892809407945,17.38293973688323],[78.30946708324987,17.38293973688323]],[[78.31297051285796,17.3805142856161],[78.31297051285796,17.38078378020134],[78.31243152368748,17.38078378020134],[78.31243152368748,17.3805142856161],[78.31297051285796,17.3805142856161]]]},"id":"+958500+247308","properties":{"count":11967,"water":1}},{"type":"Feature","geometry":{"geodesic":false,"type":"Polygon","coordinates":[[[78.32482827460834,17.39991789575309],[78.3288706933869,17.39991789575309],[78.3288706933869,17.40018739033833],[78.32833170421642,17.40018739033833],[78.32833170421642,17.400456884923557],[78.32806220963116,17.400456884923557],[78.32806220963116,17.400726379508797],[78.32779271504594,17.400726379508797],[78.32779271504594,17.400995874094036],[78.32725372587547,17.400995874094036],[78.32725372587547,17.401265368679276],[78.3269842312902,17.401265368679276],[78.3269842312902,17.40180435784974],[78.32671473670499,17.40180435784974],[78.32671473670499,17.4015348632645],[78.3259062529493,17.4015348632645],[78.3259062529493,17.40207385243498],[78.3261757475345,17.40207385243498],[78.3261757475345,17.402343347020206],[78.3259062529493,17.402343347020206],[78.3259062529493,17.402612841605446],[78.32563675836403,17.402612841605446],[78.32563675836403,17.402343347020206],[78.32482827460834,17.402343347020206],[78.32482827460834,17.40207385243498],[78.32455878002312,17.40207385243498],[78.32455878002312,17.4015348632645],[78.32509776919355,17.4015348632645],[78.32509776919355,17.400995874094036],[78.32482827460834,17.400995874094036],[78.32482827460834,17.400456884923557],[78.32455878002312,17.400456884923557],[78.32455878002312,17.40018739033833],[78.32482827460834,17.40018739033833],[78.32482827460834,17.39991789575309]]]},"id":"+958567+247129","properties":{"count":84,"water":1}},{"type":"Feature","geometry":{"geodesic":false,"type":"Polygon","coordinates":[[[78.32940968255733,17.40018739033833],[78.3296791771426,17.40018739033833],[78.3296791771426,17.400456884923557],[78.32940968255733,17.400456884923557],[78.32940968255733,17.40018739033833]]]},"id":"+958570+247128","properties":{"count":1,"water":1}},{"type":"Feature","geometry":{"geodesic":false,"type":"Polygon","coordinates":[[[78.33021816631307,17.40018739033833],[78.33048766089829,17.40018739033833],[78.33048766089829,17.400456884923557],[78.33021816631307,17.400456884923557],[78.33021816631307,17.40018739033833]]]},"id":"+958573+247128","properties":{"count":1,"water":1}}]}